ID,Name,Geographic region,Sector of institution,Control of institution,Historically Black College or University,Tribal college,Urbanization,CarnegieClass,UNITID,LATITUDE,LONGITUDE,CITY,INSTURL,UnitID,Institution Name,Admissions yield - total (DRVADM2021),Percent admitted - total (DRVADM2021),Percent admitted - men (DRVADM2021),Percent admitted - women (DRVADM2021),Admissions yield - men (DRVADM2021),Admissions yield - women (DRVADM2021),Full-time retention rate  2020 (EF2020D),Student-to-faculty ratio (EF2020D),Graduation rate - Bachelor degree within 4 years  total (DRVGR2021),SAT Critical Reading 75th percentile score (ADM2015_RV),SAT Math 75th percentile score (ADM2015_RV),STATE,Sector of institution (HD2021)
100654,Alabama A & M University,Southeast AL AR FL GA KY LA MS NC SC TN VA WV,"Public, 4-year or above",Public,Yes,No,City: Midsize,Master's Colleges and Universities (larger programs),100654,34.783368,-86.568502,Normal,www.aamu.edu/,100654,Alabama A & M University,33.0,72.0,72.0,71.0,40.0,29.0,54.0,18.0,11.0,470.0,480.0,AL,1
100663,University of Alabama at Birmingham,Southeast AL AR FL GA KY LA MS NC SC TN VA WV,"Public, 4-year or above",Public,No,No,City: Midsize,Research Universities (very high research activity),100663,33.505697,-86.799345,Birmingham,https://www.uab.edu/,100663,University of Alabama at Birmingham,23.0,89.0,85.0,91.0,24.0,22.0,86.0,20.0,42.0,630.0,668.0,AL,1
100690,Amridge University,Southeast AL AR FL GA KY LA MS NC SC TN VA WV,"Private not-for-profit, 4-year or above",Private not-for-profit,No,No,City: Midsize,Baccalaureate Colleges--Arts & Sciences,100690,32.362609,-86.17401,Montgomery,www.amridgeuniversity.edu/,100690,Amridge University,,,,,,,50.0,13.0,67.0,,,AL,2
100706,University of Alabama in Huntsville,Southeast AL AR FL GA KY LA MS NC SC TN VA WV,"Public, 4-year or above",Public,No,No,City: Midsize,Research Universities (very high research activity),100706,34.724557,-86.640449,Huntsville,www.uah.edu/,100706,University of Alabama in Huntsville,28.0,74.0,81.0,67.0,34.0,22.0,82.0,19.0,35.0,650.0,680.0,AL,1
100724,Alabama State University,Southeast AL AR FL GA KY LA MS NC SC TN VA WV,"Public, 4-year or above",Public,Yes,No,City: Midsize,Master's Colleges and Universities (larger programs),100724,32.364317,-86.295677,Montgomery,www.alasu.edu/,100724,Alabama State University,15.0,98.0,97.0,98.0,18.0,14.0,62.0,15.0,10.0,450.0,460.0,AL,1
100751,The University of Alabama,Southeast AL AR FL GA KY LA MS NC SC TN VA WV,"Public, 4-year or above",Public,No,No,City: Small,Research Universities (high research activity),100751,33.211875,-87.545978,Tuscaloosa,www.ua.edu/,100751,The University of Alabama,23.0,79.0,79.0,79.0,26.0,21.0,87.0,20.0,53.0,600.0,610.0,AL,1
100830,Auburn University at Montgomery,Southeast AL AR FL GA KY LA MS NC SC TN VA WV,"Public, 4-year or above",Public,No,No,City: Midsize,Master's Colleges and Universities (larger programs),100830,32.36736,-86.177544,Montgomery,www.aum.edu/,100830,Auburn University at Montgomery,16.0,97.0,96.0,97.0,18.0,16.0,70.0,16.0,13.0,520.0,540.0,AL,1
100858,Auburn University,Southeast AL AR FL GA KY LA MS NC SC TN VA WV,"Public, 4-year or above",Public,No,No,City: Small,Research Universities (high research activity),100858,32.599378,-85.488258,Auburn,www.auburn.edu/,100858,Auburn University,27.0,71.0,69.0,73.0,30.0,25.0,92.0,20.0,55.0,630.0,650.0,AL,1
101189,Faulkner University,Southeast AL AR FL GA KY LA MS NC SC TN VA WV,"Private not-for-profit, 4-year or above",Private not-for-profit,No,No,City: Midsize,Baccalaureate Colleges--Diverse Fields,101189,32.384181,-86.21641,Montgomery,www.faulkner.edu/,101189,Faulkner University,20.0,65.0,62.0,66.0,27.0,15.0,60.0,13.0,12.0,520.0,510.0,AL,2
101480,Jacksonville State University,Southeast AL AR FL GA KY LA MS NC SC TN VA WV,"Public, 4-year or above",Public,No,No,City: Small,Master's Colleges and Universities (larger programs),101480,33.822938,-85.765321,Jacksonville,www.jsu.edu/,101480,Jacksonville State University,23.0,76.0,76.0,77.0,25.0,21.0,73.0,21.0,26.0,550.0,550.0,AL,1
101587,University of West Alabama,Southeast AL AR FL GA KY LA MS NC SC TN VA WV,"Public, 4-year or above",Public,No,No,Rural: Remote,Master's Colleges and Universities (larger programs),101587,32.588132,-88.186329,Livingston,www.uwa.edu/,101587,University of West Alabama,31.0,74.0,75.0,74.0,35.0,28.0,63.0,14.0,26.0,530.0,560.0,AL,1
101693,University of Mobile,Southeast AL AR FL GA KY LA MS NC SC TN VA WV,"Private not-for-profit, 4-year or above",Private not-for-profit,No,No,Rural: Fringe,Baccalaureate Colleges--Diverse Fields,101693,30.793247,-88.128934,Mobile,www.umobile.edu/,101693,University of Mobile,22.0,64.0,66.0,64.0,28.0,20.0,78.0,14.0,36.0,540.0,580.0,AL,2
101879,University of North Alabama,Southeast AL AR FL GA KY LA MS NC SC TN VA WV,"Public, 4-year or above",Public,No,No,City: Small,Master's Colleges and Universities (larger programs),101879,34.806738,-87.681361,Florence,www.una.edu/,101879,University of North Alabama,33.0,90.0,91.0,89.0,37.0,31.0,77.0,15.0,28.0,560.0,535.0,AL,1
102049,Samford University,Southeast AL AR FL GA KY LA MS NC SC TN VA WV,"Private not-for-profit, 4-year or above",Private not-for-profit,No,No,Suburb: Large,Master's Colleges and Universities (medium programs),102049,33.464128,-86.791799,Birmingham,www.samford.edu/,102049,Samford University,26.0,84.0,81.0,85.0,28.0,25.0,87.0,12.0,68.0,610.0,610.0,AL,2
102094,University of South Alabama,Southeast AL AR FL GA KY LA MS NC SC TN VA WV,"Public, 4-year or above",Public,No,No,City: Midsize,Research Universities (high research activity),102094,30.696033,-88.178711,Mobile,www.southalabama.edu/,102094,University of South Alabama,21.0,71.0,69.0,72.0,23.0,20.0,76.0,17.0,28.0,560.0,540.0,AL,1
102368,Troy University,Southeast AL AR FL GA KY LA MS NC SC TN VA WV,"Public, 4-year or above",Public,No,No,Rural: Fringe,Master's Colleges and Universities (larger programs),102368,31.800672,-85.957094,Troy,www.troy.edu/,102368,Troy University,25.0,95.0,94.0,96.0,26.0,24.0,77.0,18.0,30.0,528.0,550.0,AL,1
102377,Tuskegee University,Southeast AL AR FL GA KY LA MS NC SC TN VA WV,"Private not-for-profit, 4-year or above",Private not-for-profit,Yes,No,Town: Distant,Baccalaureate Colleges--Diverse Fields,102377,32.4309,-85.708492,Tuskegee,www.tuskegee.edu/,102377,Tuskegee University,19.0,34.0,36.0,34.0,22.0,17.0,77.0,11.0,27.0,510.0,520.0,AL,2
102553,University of Alaska Anchorage,Far West AK CA HI NV OR WA,"Public, 4-year or above",Public,No,No,City: Large,Master's Colleges and Universities (larger programs),102553,61.190163,-149.82619,Anchorage,www.uaa.alaska.edu/,102553,University of Alaska Anchorage,42.0,69.0,68.0,70.0,44.0,40.0,68.0,13.0,15.0,,,AK,1
102614,University of Alaska Fairbanks,Far West AK CA HI NV OR WA,"Public, 4-year or above",Public,No,No,Suburb: Small,Research Universities (high research activity),102614,64.85756,-147.823146,Fairbanks,www.uaf.edu/,102614,University of Alaska Fairbanks,75.0,65.0,67.0,63.0,74.0,76.0,78.0,11.0,26.0,610.0,610.0,AK,1
104151,Arizona State University-Tempe,Southwest AZ NM OK TX,"Public, 4-year or above",Public,No,No,City: Midsize,Research Universities (very high research activity),104151,33.417721,-111.934383,Tempe,www.asu.edu/,104151,Arizona State University Campus Immersion,26.0,88.0,86.0,90.0,28.0,25.0,86.0,18.0,52.0,630.0,640.0,AZ,1
104179,University of Arizona,Southwest AZ NM OK TX,"Public, 4-year or above",Public,No,No,City: Large,Research Universities (very high research activity),104179,32.232672,-110.950815,Tucson,https://www.arizona.edu/,104179,University of Arizona,20.0,87.0,85.0,89.0,19.0,21.0,85.0,15.0,50.0,,,AZ,1
105330,Northern Arizona University,Southwest AZ NM OK TX,"Public, 4-year or above",Public,No,No,City: Small,Research Universities (high research activity),105330,35.188449,-111.653724,Flagstaff,https://nau.edu/,105330,Northern Arizona University,16.0,78.0,77.0,79.0,18.0,15.0,76.0,22.0,45.0,,,AZ,1
105589,Prescott College,Southwest AZ NM OK TX,"Private not-for-profit, 4-year or above",Private not-for-profit,No,No,City: Small,Master's Colleges and Universities (smaller programs),105589,34.5452,-112.477185,Prescott,https://www.prescott.edu/,105589,Prescott College,25.0,99.0,100.0,99.0,27.0,25.0,59.0,9.0,34.0,580.0,570.0,AZ,2
106245,University of Arkansas at Little Rock,Southeast AL AR FL GA KY LA MS NC SC TN VA WV,"Public, 4-year or above",Public,No,No,City: Midsize,Doctoral/Research Universities,106245,34.723254,-92.339778,Little Rock,ualr.edu/www/,106245,University of Arkansas at Little Rock,22.0,58.0,60.0,57.0,28.0,19.0,73.0,13.0,24.0,560.0,550.0,AR,1
106397,University of Arkansas,Southeast AL AR FL GA KY LA MS NC SC TN VA WV,"Public, 4-year or above",Public,No,No,City: Small,Research Universities (very high research activity),106397,36.070009,-94.176981,Fayetteville,https://www.uark.edu/,106397,University of Arkansas,34.0,83.0,81.0,84.0,37.0,32.0,85.0,19.0,52.0,600.0,620.0,AR,1
106412,University of Arkansas at Pine Bluff,Southeast AL AR FL GA KY LA MS NC SC TN VA WV,"Public, 4-year or above",Public,Yes,No,City: Small,Baccalaureate Colleges--Diverse Fields,106412,34.244031,-92.018683,Pine Bluff,www.uapb.edu/,106412,University of Arkansas at Pine Bluff,21.0,68.0,65.0,69.0,25.0,19.0,74.0,14.0,26.0,500.0,500.0,AR,1
106458,Arkansas State University-Main Campus,Southeast AL AR FL GA KY LA MS NC SC TN VA WV,"Public, 4-year or above",Public,No,No,City: Small,Master's Colleges and Universities (larger programs),106458,35.842388,-90.679988,Jonesboro,www.astate.edu/,106458,Arkansas State University,35.0,63.0,60.0,66.0,38.0,34.0,79.0,14.0,38.0,540.0,540.0,AR,1
106704,University of Central Arkansas,Southeast AL AR FL GA KY LA MS NC SC TN VA WV,"Public, 4-year or above",Public,No,No,City: Small,Master's Colleges and Universities (larger programs),106704,35.077945,-92.457672,Conway,www.uca.edu/,106704,University of Central Arkansas,33.0,92.0,91.0,93.0,34.0,33.0,79.0,15.0,34.0,540.0,570.0,AR,1
107044,Harding University,Southeast AL AR FL GA KY LA MS NC SC TN VA WV,"Private not-for-profit, 4-year or above",Private not-for-profit,No,No,Town: Distant,Master's Colleges and Universities (larger programs),107044,35.247386,-91.726143,Searcy,www.harding.edu/,107044,Harding University,63.0,54.0,55.0,54.0,65.0,62.0,87.0,14.0,49.0,620.0,620.0,AR,2
109785,Azusa Pacific University,Far West AK CA HI NV OR WA,"Private not-for-profit, 4-year or above",Private not-for-profit,No,No,Suburb: Large,Doctoral/Research Universities,109785,34.130047,-117.888375,Azusa,www.apu.edu/,109785,Azusa Pacific University,17.0,94.0,93.0,94.0,18.0,17.0,76.0,10.0,53.0,590.0,590.0,CA,2
110097,Biola University,Far West AK CA HI NV OR WA,"Private not-for-profit, 4-year or above",Private not-for-profit,No,No,Suburb: Large,Doctoral/Research Universities,110097,33.906203,-118.014374,La Mirada,https://www.biola.edu/,110097,Biola University,25.0,61.0,55.0,64.0,29.0,22.0,78.0,14.0,55.0,620.0,620.0,CA,2
110316,California Institute of Integral Studies,Far West AK CA HI NV OR WA,"Private not-for-profit, 4-year or above",Private not-for-profit,No,No,City: Large,Doctoral/Research Universities,110316,37.774924,-122.416102,San Francisco,www.ciis.edu/,110316,California Institute of Integral Studies,,,,,,,,12.0,,,,CA,2
110361,California Baptist University,Far West AK CA HI NV OR WA,"Private not-for-profit, 4-year or above",Private not-for-profit,No,No,City: Large,Master's Colleges and Universities (larger programs),110361,33.929321,-117.425619,Riverside,www.calbaptist.edu/,110361,California Baptist University,23.0,64.0,64.0,64.0,25.0,21.0,76.0,19.0,37.0,540.0,540.0,CA,2
110404,California Institute of Technology,Far West AK CA HI NV OR WA,"Private not-for-profit, 4-year or above",Private not-for-profit,No,No,City: Midsize,Research Universities (very high research activity),110404,34.137349,-118.125878,Pasadena,www.caltech.edu/,110404,California Institute of Technology,53.0,4.0,3.0,6.0,57.0,48.0,94.0,3.0,86.0,800.0,800.0,CA,2
110468,Alliant International University,Far West AK CA HI NV OR WA,"Private not-for-profit, 4-year or above",Private not-for-profit,No,No,City: Large,Doctoral/Research Universities,110468,32.897056,-117.094398,San Diego,https://www.alliant.edu/,110468,Alliant International University-San Diego,0.0,100.0,100.0,,0.0,,,6.0,9.0,,,CA,3
110583,California State University-Long Beach,Far West AK CA HI NV OR WA,"Public, 4-year or above",Public,No,No,City: Large,Master's Colleges and Universities (larger programs),110583,33.782818,-118.11204,Long Beach,www.csulb.edu/,110583,California State University-Long Beach,15.0,47.0,44.0,49.0,16.0,15.0,89.0,24.0,34.0,570.0,600.0,CA,1
110592,California State University-Los Angeles,Far West AK CA HI NV OR WA,"Public, 4-year or above",Public,No,No,City: Large,Master's Colleges and Universities (larger programs),110592,34.066927,-118.168965,Los Angeles,https://www.calstatela.edu/,110592,California State University-Los Angeles,15.0,91.0,88.0,92.0,17.0,15.0,83.0,25.0,11.0,490.0,500.0,CA,1
110617,California State University-Sacramento,Far West AK CA HI NV OR WA,"Public, 4-year or above",Public,No,No,City: Large,Master's Colleges and Universities (larger programs),110617,38.559415,-121.423549,Sacramento,https://www.csus.edu/,110617,California State University-Sacramento,17.0,94.0,92.0,95.0,17.0,16.0,84.0,26.0,20.0,520.0,540.0,CA,1
110635,University of California-Berkeley,Far West AK CA HI NV OR WA,"Public, 4-year or above",Public,No,No,City: Midsize,Research Universities (very high research activity),110635,37.871918,-122.260463,Berkeley,www.berkeley.edu/,110635,University of California-Berkeley,43.0,14.0,12.0,17.0,47.0,40.0,96.0,19.0,79.0,740.0,770.0,CA,1
110644,University of California-Davis,Far West AK CA HI NV OR WA,"Public, 4-year or above",Public,No,No,Suburb: Small,Research Universities (very high research activity),110644,38.539667,-121.749567,Davis,ucdavis.edu/,110644,University of California-Davis,18.0,49.0,45.0,52.0,17.0,18.0,93.0,20.0,62.0,630.0,710.0,CA,1
110653,University of California-Irvine,Far West AK CA HI NV OR WA,"Public, 4-year or above",Public,No,No,City: Midsize,Research Universities (very high research activity),110653,33.648434,-117.841248,Irvine,www.uci.edu/,110653,University of California-Irvine,21.0,29.0,26.0,31.0,19.0,22.0,94.0,18.0,68.0,600.0,690.0,CA,1
110662,University of California-Los Angeles,Far West AK CA HI NV OR WA,"Public, 4-year or above",Public,No,No,City: Large,Research Universities (very high research activity),110662,34.07178,-118.442179,Los Angeles,www.ucla.edu/,110662,University of California-Los Angeles,44.0,11.0,10.0,12.0,39.0,47.0,96.0,18.0,83.0,710.0,760.0,CA,1
110671,University of California-Riverside,Far West AK CA HI NV OR WA,"Public, 4-year or above",Public,No,No,City: Large,Research Universities (very high research activity),110671,33.97246,-117.32741,Riverside,www.ucr.edu/,110671,University of California-Riverside,15.0,65.0,62.0,68.0,16.0,14.0,91.0,22.0,61.0,600.0,610.0,CA,1
110680,University of California-San Diego,Far West AK CA HI NV OR WA,"Public, 4-year or above",Public,No,No,City: Large,Research Universities (very high research activity),110680,32.877749,-117.235866,La Jolla,www.ucsd.edu/,110680,University of California-San Diego,19.0,34.0,32.0,36.0,19.0,19.0,94.0,19.0,73.0,680.0,770.0,CA,1
110705,University of California-Santa Barbara,Far West AK CA HI NV OR WA,"Public, 4-year or above",Public,No,No,Suburb: Midsize,Research Universities (very high research activity),110705,34.416297,-119.846426,Santa Barbara,www.ucsb.edu/,110705,University of California-Santa Barbara,16.0,29.0,26.0,32.0,16.0,16.0,91.0,18.0,70.0,660.0,700.0,CA,1
110714,University of California-Santa Cruz,Far West AK CA HI NV OR WA,"Public, 4-year or above",Public,No,No,City: Small,Research Universities (very high research activity),110714,36.995584,-122.058801,Santa Cruz,www.ucsc.edu/,110714,University of California-Santa Cruz,12.0,59.0,54.0,62.0,12.0,11.0,85.0,25.0,60.0,630.0,670.0,CA,1
111948,Chapman University,Far West AK CA HI NV OR WA,"Private not-for-profit, 4-year or above",Private not-for-profit,No,No,City: Midsize,Master's Colleges and Universities (larger programs),111948,33.79302,-117.852518,Orange,https://www.chapman.edu/,111948,Chapman University,18.0,60.0,57.0,62.0,19.0,18.0,85.0,12.0,72.0,640.0,650.0,CA,2
112075,Concordia University-Irvine,Far West AK CA HI NV OR WA,"Private not-for-profit, 4-year or above",Private not-for-profit,No,No,City: Midsize,Master's Colleges and Universities (larger programs),112075,33.653665,-117.812305,Irvine,www.cui.edu/,112075,Concordia University-Irvine,13.0,81.0,74.0,86.0,15.0,11.0,68.0,20.0,60.0,560.0,570.0,CA,2
112251,Claremont Graduate University,Far West AK CA HI NV OR WA,"Private not-for-profit, 4-year or above",Private not-for-profit,No,No,Suburb: Large,Research Universities (high research activity),112251,34.103585,-117.713703,Claremont,www.cgu.edu/,112251,Claremont Graduate University,,,,,,,,,,,,CA,2
113698,Dominican University of California,Far West AK CA HI NV OR WA,"Private not-for-profit, 4-year or above",Private not-for-profit,No,No,City: Small,Master's Colleges and Universities (medium programs),113698,37.981279,-122.512051,San Rafael,https://www.dominican.edu/,113698,Dominican University of California,13.0,93.0,90.0,94.0,18.0,12.0,87.0,10.0,68.0,560.0,580.0,CA,2
114549,Fielding Graduate University,Far West AK CA HI NV OR WA,"Private not-for-profit, 4-year or above",Private not-for-profit,No,No,City: Small,Doctoral/Research Universities,114549,34.42941,-119.717161,Santa Barbara,www.fielding.edu/,114549,Fielding Graduate University,,,,,,,,,,,,CA,2
115083,Golden Gate University-San Francisco,Far West AK CA HI NV OR WA,"Private not-for-profit, 4-year or above",Private not-for-profit,No,No,City: Large,Master's Colleges and Universities (larger programs),115083,37.789374,-122.398969,San Francisco,www.ggu.edu/,115083,Golden Gate University,,,,,,,,12.0,,,,CA,2
117140,University of La Verne,Far West AK CA HI NV OR WA,"Private not-for-profit, 4-year or above",Private not-for-profit,No,No,Suburb: Large,Doctoral/Research Universities,117140,34.100855,-117.773262,La Verne,www.laverne.edu/,117140,University of La Verne,19.0,72.0,69.0,74.0,20.0,18.0,78.0,15.0,60.0,560.0,570.0,CA,2
117557,Lincoln University,Far West AK CA HI NV OR WA,"Private not-for-profit, 4-year or above",Private not-for-profit,No,No,City: Large,Master's Colleges and Universities (smaller programs),117557,37.804788,-122.269745,Oakland,https://lincolnuca.edu/,117557,Lincoln University,,,,,,,100.0,16.0,73.0,,,CA,2
117627,La Sierra University,Far West AK CA HI NV OR WA,"Private not-for-profit, 4-year or above",Private not-for-profit,No,No,City: Large,Master's Colleges and Universities (medium programs),117627,33.910704,-117.500054,Riverside,https://lasierra.edu/,117627,La Sierra University,16.0,66.0,64.0,67.0,22.0,13.0,79.0,16.0,34.0,510.0,520.0,CA,2
117751,The Master's College and Seminary,Far West AK CA HI NV OR WA,"Private not-for-profit, 4-year or above",Private not-for-profit,No,No,Suburb: Large,Baccalaureate Colleges--Diverse Fields,117751,34.381755,-118.518193,Santa Clarita,www.masters.edu/,117751,The Master's University and Seminary,48.0,67.0,67.0,67.0,48.0,48.0,82.0,11.0,66.0,620.0,590.0,CA,2
117946,Loyola Marymount University,Far West AK CA HI NV OR WA,"Private not-for-profit, 4-year or above",Private not-for-profit,No,No,City: Large,Master's Colleges and Universities (larger programs),117946,33.97085,-118.415744,Los Angeles,https://www.lmu.edu/,117946,Loyola Marymount University,18.0,46.0,46.0,46.0,21.0,16.0,83.0,10.0,72.0,640.0,660.0,CA,2
118888,Mills College,Far West AK CA HI NV OR WA,"Private not-for-profit, 4-year or above",Private not-for-profit,No,No,City: Large,Master's Colleges and Universities (medium programs),118888,37.781425,-122.182294,Oakland,https://www.mills.edu/,118888,Mills College,6.0,80.0,5.0,84.0,0.0,6.0,62.0,8.0,61.0,670.0,620.0,CA,2
120184,Notre Dame de Namur University,Far West AK CA HI NV OR WA,"Private not-for-profit, 4-year or above",Private not-for-profit,No,No,Suburb: Large,Master's Colleges and Universities (medium programs),120184,37.517111,-122.284794,Belmont,www.ndnu.edu/,120184,Notre Dame de Namur University,,,,,,,,8.0,41.0,520.0,510.0,CA,2
120883,University of the Pacific,Far West AK CA HI NV OR WA,"Private not-for-profit, 4-year or above",Private not-for-profit,No,No,City: Large,Doctoral/Research Universities,120883,37.981424,-121.312301,Stockton,www.pacific.edu/,120883,University of the Pacific,9.0,79.0,76.0,81.0,10.0,8.0,87.0,14.0,44.0,620.0,660.0,CA,2
121150,Pepperdine University,Far West AK CA HI NV OR WA,"Private not-for-profit, 4-year or above",Private not-for-profit,No,No,Suburb: Large,Doctoral/Research Universities,121150,34.037786,-118.707077,Malibu,www.pepperdine.edu/,121150,Pepperdine University,16.0,53.0,52.0,53.0,18.0,15.0,85.0,13.0,72.0,650.0,670.0,CA,2
121691,University of Redlands,Far West AK CA HI NV OR WA,"Private not-for-profit, 4-year or above",Private not-for-profit,No,No,City: Small,Master's Colleges and Universities (larger programs),121691,34.064218,-117.163218,Redlands,www.redlands.edu/,121691,University of Redlands,16.0,83.0,80.0,86.0,17.0,16.0,75.0,12.0,59.0,610.0,610.0,CA,2
122409,San Diego State University,Far West AK CA HI NV OR WA,"Public, 4-year or above",Public,No,No,City: Large,Research Universities (high research activity),122409,32.77525,-117.071228,San Diego,www.sdsu.edu/,122409,San Diego State University,21.0,38.0,35.0,40.0,22.0,20.0,89.0,27.0,48.0,600.0,630.0,CA,1
122436,University of San Diego,Far West AK CA HI NV OR WA,"Private not-for-profit, 4-year or above",Private not-for-profit,No,No,City: Large,Doctoral/Research Universities,122436,32.770816,-117.192073,San Diego,www.sandiego.edu/,122436,University of San Diego,15.0,53.0,50.0,54.0,17.0,15.0,84.0,13.0,67.0,640.0,670.0,CA,2
122597,San Francisco State University,Far West AK CA HI NV OR WA,"Public, 4-year or above",Public,No,No,City: Large,Master's Colleges and Universities (larger programs),122597,37.721224,-122.476799,San Francisco,www.sfsu.edu/,122597,San Francisco State University,12.0,93.0,91.0,94.0,13.0,12.0,82.0,22.0,24.0,540.0,550.0,CA,1
122612,University of San Francisco,Far West AK CA HI NV OR WA,"Private not-for-profit, 4-year or above",Private not-for-profit,No,No,City: Large,Doctoral/Research Universities,122612,37.776618,-122.450477,San Francisco,https://www.usfca.edu/,122612,University of San Francisco,9.0,71.0,67.0,73.0,9.0,9.0,76.0,12.0,68.0,620.0,640.0,CA,2
122931,Santa Clara University,Far West AK CA HI NV OR WA,"Private not-for-profit, 4-year or above",Private not-for-profit,No,No,City: Midsize,Master's Colleges and Universities (larger programs),122931,37.348362,-121.93784,Santa Clara,www.scu.edu/,122931,Santa Clara University,17.0,54.0,50.0,57.0,20.0,15.0,93.0,11.0,85.0,690.0,710.0,CA,2
123554,Saint Mary's College of California,Far West AK CA HI NV OR WA,"Private not-for-profit, 4-year or above",Private not-for-profit,No,No,Rural: Fringe,Master's Colleges and Universities (larger programs),123554,37.840731,-122.109031,Moraga,https://www.stmarys-ca.edu/,123554,Saint Mary's College of California,17.0,70.0,69.0,71.0,18.0,16.0,81.0,9.0,61.0,620.0,610.0,CA,2
123961,University of Southern California,Far West AK CA HI NV OR WA,"Private not-for-profit, 4-year or above",Private not-for-profit,No,No,City: Large,Research Universities (very high research activity),123961,34.021281,-118.284169,Los Angeles,www.usc.edu/,123961,University of Southern California,41.0,13.0,14.0,12.0,40.0,42.0,91.0,9.0,79.0,730.0,770.0,CA,2
126182,Adams State University,Rocky Mountains CO ID MT UT WY,"Public, 4-year or above",Public,No,No,Town: Remote,Master's Colleges and Universities (medium programs),126182,37.473636,-105.879642,Alamosa,www.adams.edu/,126182,Adams State University,19.0,100.0,100.0,100.0,23.0,15.0,59.0,13.0,22.0,530.0,533.0,CO,1
126562,University of Colorado Denver,Rocky Mountains CO ID MT UT WY,"Public, 4-year or above",Public,No,No,City: Large,Research Universities (high research activity),126562,39.745149,-104.837722,Denver,www.ucdenver.edu/,126562,University of Colorado Denver/Anschutz Medical Campus,16.0,72.0,70.0,73.0,18.0,15.0,73.0,17.0,24.0,620.0,600.0,CO,1
126580,University of Colorado Colorado Springs,Rocky Mountains CO ID MT UT WY,"Public, 4-year or above",Public,No,No,City: Large,Master's Colleges and Universities (larger programs),126580,38.892735,-104.800296,Colorado Springs,https://www.uccs.edu/,126580,University of Colorado Colorado Springs,12.0,95.0,95.0,96.0,15.0,11.0,71.0,15.0,23.0,600.0,590.0,CO,1
126614,University of Colorado Boulder,Rocky Mountains CO ID MT UT WY,"Public, 4-year or above",Public,No,No,City: Small,Research Universities (very high research activity),126614,40.008781,-105.270823,Boulder,www.colorado.edu/,126614,University of Colorado Boulder,16.0,80.0,75.0,83.0,19.0,13.0,85.0,18.0,53.0,640.0,660.0,CO,1
126775,Colorado School of Mines,Rocky Mountains CO ID MT UT WY,"Public, 4-year or above",Public,No,No,Suburb: Large,Research Universities (high research activity),126775,39.751443,-105.223364,Golden,www.mines.edu/,126775,Colorado School of Mines,21.0,57.0,53.0,65.0,23.0,18.0,92.0,17.0,67.0,690.0,730.0,CO,1
126818,Colorado State University-Fort Collins,Rocky Mountains CO ID MT UT WY,"Public, 4-year or above",Public,No,No,City: Midsize,Research Universities (very high research activity),126818,40.574805,-105.080732,Fort Collins,colostate.edu/,126818,Colorado State University-Fort Collins,18.0,90.0,88.0,91.0,19.0,18.0,85.0,16.0,47.0,620.0,630.0,CO,1
127060,University of Denver,Rocky Mountains CO ID MT UT WY,"Private not-for-profit, 4-year or above",Private not-for-profit,No,No,City: Large,Research Universities (high research activity),127060,39.678005,-104.963259,Denver,www.du.edu/,127060,University of Denver,11.0,64.0,62.0,65.0,12.0,11.0,84.0,11.0,67.0,660.0,660.0,CO,2
127741,University of Northern Colorado,Rocky Mountains CO ID MT UT WY,"Public, 4-year or above",Public,No,No,City: Small,Doctoral/Research Universities,127741,40.410855,-104.692777,Greeley,https://www.unco.edu/,127741,University of Northern Colorado,14.0,91.0,88.0,92.0,13.0,14.0,70.0,16.0,36.0,580.0,580.0,CO,1
128744,University of Bridgeport,New England CT ME MA NH RI VT,"Private not-for-profit, 4-year or above",Private not-for-profit,No,No,City: Midsize,Master's Colleges and Universities (larger programs),128744,41.164741,-73.190166,Bridgeport,www.bridgeport.edu/,128744,University of Bridgeport,7.0,73.0,69.0,75.0,6.0,7.0,68.0,16.0,34.0,510.0,500.0,CT,2
128771,Central Connecticut State University,New England CT ME MA NH RI VT,"Public, 4-year or above",Public,No,No,Suburb: Large,Master's Colleges and Universities (larger programs),128771,41.692502,-72.765991,New Britain,www2.ccsu.edu/,128771,Central Connecticut State University,23.0,75.0,76.0,74.0,26.0,21.0,78.0,14.0,29.0,550.0,550.0,CT,1
129020,University of Connecticut,New England CT ME MA NH RI VT,"Public, 4-year or above",Public,No,No,Suburb: Large,Research Universities (very high research activity),129020,41.809098,-72.249948,Storrs,uconn.edu/,129020,University of Connecticut,18.0,56.0,50.0,60.0,20.0,16.0,93.0,16.0,72.0,650.0,690.0,CT,1
129525,University of Hartford,New England CT ME MA NH RI VT,"Private not-for-profit, 4-year or above",Private not-for-profit,No,No,City: Midsize,Master's Colleges and Universities (larger programs),129525,41.798591,-72.715213,West Hartford,www.hartford.edu/,129525,University of Hartford,9.0,79.0,79.0,78.0,10.0,8.0,81.0,8.0,53.0,580.0,580.0,CT,2
129941,University of New Haven,New England CT ME MA NH RI VT,"Private not-for-profit, 4-year or above",Private not-for-profit,No,No,Suburb: Large,Master's Colleges and Universities (larger programs),129941,41.291314,-72.961472,West Haven,www.newhaven.edu/,129941,University of New Haven,13.0,94.0,92.0,95.0,14.0,13.0,79.0,18.0,52.0,580.0,580.0,CT,2
130493,Southern Connecticut State University,New England CT ME MA NH RI VT,"Public, 4-year or above",Public,No,No,City: Midsize,Master's Colleges and Universities (larger programs),130493,41.333225,-72.947897,New Haven,www.southernct.edu/,130493,Southern Connecticut State University,17.0,83.0,78.0,86.0,17.0,17.0,77.0,12.0,29.0,510.0,500.0,CT,1
130697,Wesleyan University,New England CT ME MA NH RI VT,"Private not-for-profit, 4-year or above",Private not-for-profit,No,No,City: Small,Baccalaureate Colleges--Arts & Sciences,130697,41.554665,-72.657146,Middletown,www.wesleyan.edu/,130697,Wesleyan University,36.0,19.0,22.0,18.0,39.0,33.0,87.0,8.0,86.0,,,CT,2
130794,Yale University,New England CT ME MA NH RI VT,"Private not-for-profit, 4-year or above",Private not-for-profit,No,No,City: Midsize,Research Universities (very high research activity),130794,41.311158,-72.926688,New Haven,https://www.yale.edu/,130794,Yale University,71.0,5.0,6.0,5.0,68.0,74.0,65.0,4.0,88.0,800.0,800.0,CT,2
130934,Delaware State University,Mid East DE DC MD NJ NY PA,"Public, 4-year or above",Public,Yes,No,City: Small,Master's Colleges and Universities (medium programs),130934,39.187173,-75.54053,Dover,www.desu.edu/,130934,Delaware State University,36.0,59.0,53.0,62.0,39.0,35.0,74.0,16.0,33.0,480.0,490.0,DE,1
130943,University of Delaware,Mid East DE DC MD NJ NY PA,"Public, 4-year or above",Public,No,No,Suburb: Large,Research Universities (very high research activity),130943,39.679577,-75.752822,Newark,www.udel.edu/,130943,University of Delaware,19.0,72.0,69.0,75.0,19.0,18.0,90.0,15.0,73.0,640.0,660.0,DE,1
131113,Wilmington University,Mid East DE DC MD NJ NY PA,"Private not-for-profit, 4-year or above",Private not-for-profit,No,No,Suburb: Large,Doctoral/Research Universities,131113,39.682299,-75.586998,New Castle,www.wilmu.edu/,131113,Wilmington University,,,,,,,50.0,12.0,10.0,,,DE,2
131159,American University,Mid East DE DC MD NJ NY PA,"Private not-for-profit, 4-year or above",Private not-for-profit,No,No,City: Large,Doctoral/Research Universities,131159,38.936005,-77.088875,Washington,www.american.edu/,131159,American University,19.0,64.0,61.0,66.0,19.0,19.0,85.0,11.0,73.0,690.0,650.0,DC,2
131283,Catholic University of America,Mid East DE DC MD NJ NY PA,"Private not-for-profit, 4-year or above",Private not-for-profit,No,No,City: Large,Research Universities (high research activity),131283,38.933651,-76.997909,Washington,https://www.catholic.edu/,131283,The Catholic University of America,14.0,86.0,83.0,88.0,14.0,13.0,86.0,11.0,66.0,,,DC,2
131399,University of the District of Columbia,Mid East DE DC MD NJ NY PA,"Public, 4-year or above",Public,Yes,No,City: Large,Master's Colleges and Universities (smaller programs),131399,38.943819,-77.066247,Washington,www.udc.edu/,131399,University of the District of Columbia,,,,,,,71.0,8.0,17.0,,,DC,1
131450,Gallaudet University,Mid East DE DC MD NJ NY PA,"Private not-for-profit, 4-year or above",Private not-for-profit,No,No,City: Large,Master's Colleges and Universities (smaller programs),131450,38.907371,-76.993675,Washington,www.gallaudet.edu/,131450,Gallaudet University,61.0,62.0,61.0,62.0,64.0,60.0,74.0,6.0,21.0,420.0,508.0,DC,2
131469,George Washington University,Mid East DE DC MD NJ NY PA,"Private not-for-profit, 4-year or above",Private not-for-profit,No,No,City: Large,Research Universities (very high research activity),131469,38.89923,-77.048363,Washington,https://www.gwu.edu/,131469,George Washington University,19.0,50.0,48.0,51.0,20.0,18.0,88.0,13.0,77.0,690.0,700.0,DC,2
131496,Georgetown University,Mid East DE DC MD NJ NY PA,"Private not-for-profit, 4-year or above",Private not-for-profit,No,No,City: Large,Research Universities (very high research activity),131496,38.908809,-77.073463,Washington,www.georgetown.edu/,131496,Georgetown University,48.0,12.0,13.0,12.0,47.0,49.0,94.0,11.0,90.0,750.0,750.0,DC,2
131520,Howard University,Mid East DE DC MD NJ NY PA,"Private not-for-profit, 4-year or above",Private not-for-profit,Yes,No,City: Large,Research Universities (high research activity),131520,38.922392,-77.018966,Washington,www.howard.edu/,131520,Howard University,27.0,35.0,34.0,36.0,25.0,28.0,90.0,12.0,53.0,610.0,610.0,DC,2
132471,Barry University,Southeast AL AR FL GA KY LA MS NC SC TN VA WV,"Private not-for-profit, 4-year or above",Private not-for-profit,No,No,Suburb: Large,Doctoral/Research Universities,132471,25.878908,-80.198925,Miami,www.barry.edu/,132471,Barry University,11.0,64.0,59.0,66.0,12.0,10.0,68.0,15.0,21.0,510.0,510.0,FL,2
132657,Lynn University,Southeast AL AR FL GA KY LA MS NC SC TN VA WV,"Private not-for-profit, 4-year or above",Private not-for-profit,No,No,City: Small,Doctoral/Research Universities,132657,26.385985,-80.122806,Boca Raton,www.lynn.edu/,132657,Lynn University,13.0,83.0,80.0,85.0,17.0,11.0,73.0,17.0,44.0,540.0,550.0,FL,2
132842,Carlos Albizu University-Miami,Southeast AL AR FL GA KY LA MS NC SC TN VA WV,"Private not-for-profit, 4-year or above",Private not-for-profit,No,No,Suburb: Large,Master's Colleges and Universities (medium programs),132842,25.794178,-80.356315,Miami,https://www.albizu.edu/,132842,Albizu University-Miami,67.0,100.0,100.0,100.0,67.0,67.0,100.0,12.0,0.0,,,FL,2
132903,University of Central Florida,Southeast AL AR FL GA KY LA MS NC SC TN VA WV,"Public, 4-year or above",Public,No,No,Suburb: Large,Research Universities (very high research activity),132903,28.602159,-81.200889,Orlando,www.ucf.edu/,132903,University of Central Florida,40.0,36.0,37.0,36.0,43.0,38.0,92.0,31.0,46.0,630.0,640.0,FL,1
133553,Embry-Riddle Aeronautical University-Daytona Beach,Southeast AL AR FL GA KY LA MS NC SC TN VA WV,"Private not-for-profit, 4-year or above",Private not-for-profit,No,No,City: Small,Master's Colleges and Universities (medium programs),133553,29.189903,-81.048367,Daytona Beach,daytonabeach.erau.edu/,133553,Embry-Riddle Aeronautical University-Daytona Beach,28.0,72.0,73.0,71.0,28.0,27.0,79.0,18.0,34.0,,,FL,2
133650,Florida Agricultural and Mechanical University,Southeast AL AR FL GA KY LA MS NC SC TN VA WV,"Public, 4-year or above",Public,Yes,No,City: Midsize,Doctoral/Research Universities,133650,30.428504,-84.290226,Tallahassee,www.famu.edu/,133650,Florida Agricultural and Mechanical University,37.0,35.0,35.0,36.0,40.0,36.0,85.0,14.0,28.0,540.0,530.0,FL,1
133669,Florida Atlantic University,Southeast AL AR FL GA KY LA MS NC SC TN VA WV,"Public, 4-year or above",Public,No,No,City: Small,Research Universities (high research activity),133669,26.372421,-80.102978,Boca Raton,www.fau.edu/,133669,Florida Atlantic University,20.0,78.0,75.0,80.0,23.0,18.0,82.0,22.0,37.0,570.0,570.0,FL,1
133881,Florida Institute of Technology,Southeast AL AR FL GA KY LA MS NC SC TN VA WV,"Private not-for-profit, 4-year or above",Private not-for-profit,No,No,City: Small,Doctoral/Research Universities,133881,28.065815,-80.622893,Melbourne,www.fit.edu/,133881,Florida Institute of Technology,11.0,66.0,68.0,63.0,12.0,8.0,82.0,15.0,53.0,620.0,670.0,FL,2
133951,Florida International University,Southeast AL AR FL GA KY LA MS NC SC TN VA WV,"Public, 4-year or above",Public,No,No,Suburb: Large,Research Universities (high research activity),133951,25.75732,-80.373928,Miami,www.fiu.edu/,133951,Florida International University,39.0,64.0,64.0,64.0,43.0,36.0,91.0,25.0,42.0,590.0,580.0,FL,1
134079,Florida Southern College,Southeast AL AR FL GA KY LA MS NC SC TN VA WV,"Private not-for-profit, 4-year or above",Private not-for-profit,No,No,City: Small,Baccalaureate Colleges--Diverse Fields,134079,28.032443,-81.948203,Lakeland,www.flsouthern.edu/,134079,Florida Southern College,12.0,61.0,59.0,62.0,13.0,12.0,81.0,14.0,64.0,620.0,610.0,FL,2
134097,Florida State University,Southeast AL AR FL GA KY LA MS NC SC TN VA WV,"Public, 4-year or above",Public,No,No,City: Midsize,Research Universities (very high research activity),134097,30.440756,-84.291921,Tallahassee,https://www.fsu.edu/,134097,Florida State University,32.0,37.0,38.0,37.0,32.0,31.0,95.0,21.0,70.0,640.0,640.0,FL,1
134130,University of Florida,Southeast AL AR FL GA KY LA MS NC SC TN VA WV,"Public, 4-year or above",Public,No,No,City: Midsize,Research Universities (very high research activity),134130,29.64629,-82.347911,Gainesville,www.ufl.edu/,134130,University of Florida,44.0,30.0,29.0,31.0,45.0,43.0,97.0,17.0,72.0,670.0,680.0,FL,1
134945,Jacksonville University,Southeast AL AR FL GA KY LA MS NC SC TN VA WV,"Private not-for-profit, 4-year or above",Private not-for-profit,No,No,City: Large,Master's Colleges and Universities (medium programs),134945,30.353227,-81.60458,Jacksonville,https://www.ju.edu/index.php,134945,Jacksonville University,10.0,78.0,75.0,79.0,12.0,9.0,69.0,11.0,40.0,,,FL,2
135726,University of Miami,Southeast AL AR FL GA KY LA MS NC SC TN VA WV,"Private not-for-profit, 4-year or above",Private not-for-profit,No,No,Suburb: Large,Research Universities (very high research activity),135726,25.72126,-80.278662,Coral Gables,www.miami.edu/,135726,University of Miami,23.0,28.0,33.0,25.0,23.0,23.0,91.0,12.0,73.0,690.0,700.0,FL,2
136172,University of North Florida,Southeast AL AR FL GA KY LA MS NC SC TN VA WV,"Public, 4-year or above",Public,No,No,City: Large,Master's Colleges and Universities (larger programs),136172,30.27194,-81.509144,Jacksonville,https://www.unf.edu/,136172,University of North Florida,21.0,77.0,75.0,79.0,24.0,19.0,84.0,19.0,45.0,630.0,610.0,FL,1
136215,Nova Southeastern University,Southeast AL AR FL GA KY LA MS NC SC TN VA WV,"Private not-for-profit, 4-year or above",Private not-for-profit,No,No,Suburb: Large,Research Universities (high research activity),136215,26.079337,-80.24248,Fort Lauderdale,www.nova.edu/,136215,Nova Southeastern University,15.0,93.0,90.0,93.0,15.0,15.0,80.0,17.0,51.0,605.0,620.0,FL,2
136950,Rollins College,Southeast AL AR FL GA KY LA MS NC SC TN VA WV,"Private not-for-profit, 4-year or above",Private not-for-profit,No,No,Suburb: Large,Master's Colleges and Universities (larger programs),136950,28.592787,-81.349239,Winter Park,www.rollins.edu/,136950,Rollins College,13.0,49.0,46.0,50.0,14.0,13.0,87.0,12.0,63.0,,,FL,2
137032,Saint Leo University,Southeast AL AR FL GA KY LA MS NC SC TN VA WV,"Private not-for-profit, 4-year or above",Private not-for-profit,No,No,Suburb: Small,Master's Colleges and Universities (larger programs),137032,28.336776,-82.257801,Saint Leo,www.saintleo.edu/,137032,Saint Leo University,12.0,71.0,69.0,72.0,13.0,11.0,64.0,17.0,35.0,,,FL,2
137351,University of South Florida-Main Campus,Southeast AL AR FL GA KY LA MS NC SC TN VA WV,"Public, 4-year or above",Public,No,No,City: Large,Research Universities (very high research activity),137351,28.061458,-82.413232,Tampa,www.usf.edu/,137351,University of South Florida,25.0,49.0,50.0,49.0,27.0,24.0,92.0,22.0,59.0,630.0,640.0,FL,1
137476,St Thomas University,Southeast AL AR FL GA KY LA MS NC SC TN VA WV,"Private not-for-profit, 4-year or above",Private not-for-profit,No,No,Suburb: Large,Master's Colleges and Universities (larger programs),137476,25.922071,-80.253273,Miami Gardens,www.stu.edu/,137476,St. Thomas University,11.0,71.0,69.0,73.0,16.0,8.0,49.0,11.0,34.0,520.0,510.0,FL,2
137564,Southeastern University,Southeast AL AR FL GA KY LA MS NC SC TN VA WV,"Private not-for-profit, 4-year or above",Private not-for-profit,No,No,City: Small,Baccalaureate Colleges--Diverse Fields,137564,28.029733,-81.918382,Lakeland,www.seu.edu/,137564,Southeastern University,54.0,45.0,48.0,43.0,57.0,53.0,66.0,28.0,34.0,550.0,530.0,FL,2
138354,The University of West Florida,Southeast AL AR FL GA KY LA MS NC SC TN VA WV,"Public, 4-year or above",Public,No,No,City: Small,Doctoral/Research Universities,138354,30.549076,-87.218511,Pensacola,uwf.edu/,138354,The University of West Florida,25.0,53.0,53.0,53.0,29.0,23.0,84.0,20.0,35.0,570.0,550.0,FL,1
138947,Clark Atlanta University,Southeast AL AR FL GA KY LA MS NC SC TN VA WV,"Private not-for-profit, 4-year or above",Private not-for-profit,Yes,No,City: Large,Doctoral/Research Universities,138947,33.747628,-84.412584,Atlanta,www.cau.edu/,138947,Clark Atlanta University,12.0,58.0,52.0,60.0,13.0,11.0,63.0,19.0,23.0,470.0,450.0,GA,2
139366,Columbus State University,Southeast AL AR FL GA KY LA MS NC SC TN VA WV,"Public, 4-year or above",Public,No,No,City: Midsize,Master's Colleges and Universities (larger programs),139366,32.50096,-84.94106,Columbus,www.columbusstate.edu/,139366,Columbus State University,29.0,79.0,76.0,80.0,37.0,25.0,75.0,17.0,19.0,550.0,540.0,GA,1
139658,Emory University,Southeast AL AR FL GA KY LA MS NC SC TN VA WV,"Private not-for-profit, 4-year or above",Private not-for-profit,No,No,Suburb: Large,Research Universities (very high research activity),139658,33.790183,-84.325512,Atlanta,www.emory.edu/,139658,Emory University,34.0,13.0,14.0,12.0,33.0,35.0,93.0,9.0,83.0,720.0,770.0,GA,2
139755,Georgia Institute of Technology-Main Campus,Southeast AL AR FL GA KY LA MS NC SC TN VA WV,"Public, 4-year or above",Public,No,No,City: Large,Research Universities (very high research activity),139755,33.77242,-84.394832,Atlanta,www.gatech.edu/,139755,Georgia Institute of Technology-Main Campus,49.0,16.0,13.0,21.0,50.0,48.0,97.0,19.0,51.0,730.0,770.0,GA,1
139861,Georgia College and State University,Southeast AL AR FL GA KY LA MS NC SC TN VA WV,"Public, 4-year or above",Public,No,No,Town: Distant,Master's Colleges and Universities (larger programs),139861,33.082787,-83.231962,Milledgeville,www.gcsu.edu/,139861,Georgia College & State University,37.0,88.0,83.0,90.0,40.0,36.0,82.0,16.0,49.0,620.0,610.0,GA,1
139931,Georgia Southern University,Southeast AL AR FL GA KY LA MS NC SC TN VA WV,"Public, 4-year or above",Public,No,No,Town: Remote,Doctoral/Research Universities,139931,32.426153,-81.784045,Statesboro,www.georgiasouthern.edu/,139931,Georgia Southern University,33.0,91.0,88.0,92.0,37.0,31.0,79.0,22.0,30.0,590.0,590.0,GA,1
139940,Georgia State University,Southeast AL AR FL GA KY LA MS NC SC TN VA WV,"Public, 4-year or above",Public,No,No,City: Large,Research Universities (very high research activity),139940,33.7527,-84.38667,Atlanta,www.gsu.edu/,139940,Georgia State University,31.0,100.0,100.0,100.0,35.0,28.0,81.0,27.0,34.0,580.0,590.0,GA,1
139959,University of Georgia,Southeast AL AR FL GA KY LA MS NC SC TN VA WV,"Public, 4-year or above",Public,No,No,City: Midsize,Research Universities (very high research activity),139959,33.956262,-83.374039,Athens,www.uga.edu/,139959,University of Georgia,37.0,40.0,36.0,43.0,39.0,36.0,94.0,17.0,68.0,660.0,670.0,GA,1
140447,Mercer University,Southeast AL AR FL GA KY LA MS NC SC TN VA WV,"Private not-for-profit, 4-year or above",Private not-for-profit,No,No,City: Small,Master's Colleges and Universities (larger programs),140447,32.831787,-83.648295,Macon,https://www.mercer.edu/,140447,Mercer University,17.0,75.0,72.0,78.0,18.0,17.0,87.0,14.0,63.0,650.0,660.0,GA,2
140818,Piedmont College,Southeast AL AR FL GA KY LA MS NC SC TN VA WV,"Private not-for-profit, 4-year or above",Private not-for-profit,No,No,Town: Distant,Master's Colleges and Universities (larger programs),140818,34.566042,-83.542126,Demorest,https://www.piedmont.edu/,140818,Piedmont University,17.0,67.0,64.0,69.0,19.0,17.0,77.0,10.0,40.0,550.0,550.0,GA,2
141264,Valdosta State University,Southeast AL AR FL GA KY LA MS NC SC TN VA WV,"Public, 4-year or above",Public,No,No,City: Small,Master's Colleges and Universities (larger programs),141264,30.847402,-83.289282,Valdosta,www.valdosta.edu/,141264,Valdosta State University,27.0,76.0,73.0,78.0,31.0,25.0,73.0,20.0,21.0,550.0,530.0,GA,1
141334,University of West Georgia,Southeast AL AR FL GA KY LA MS NC SC TN VA WV,"Public, 4-year or above",Public,No,No,Town: Fringe,Master's Colleges and Universities (larger programs),141334,33.573621,-85.097762,Carrollton,www.westga.edu/,141334,University of West Georgia,34.0,70.0,63.0,74.0,39.0,31.0,73.0,19.0,22.0,520.0,500.0,GA,1
141565,University of Hawaii at Hilo,Far West AK CA HI NV OR WA,"Public, 4-year or above",Public,No,No,Town: Remote,Baccalaureate Colleges--Arts & Sciences,141565,19.701189,-155.080847,Hilo,https://hilo.hawaii.edu/,141565,University of Hawaii at Hilo,17.0,92.0,91.0,93.0,21.0,15.0,71.0,13.0,27.0,520.0,530.0,HI,1
141574,University of Hawaii at Manoa,Far West AK CA HI NV OR WA,"Public, 4-year or above",Public,No,No,City: Large,Research Universities (very high research activity),141574,21.298598,-157.818979,Honolulu,https://manoa.hawaii.edu/,141574,University of Hawaii at Manoa,21.0,70.0,72.0,69.0,26.0,19.0,80.0,13.0,37.0,580.0,610.0,HI,1
142115,Boise State University,Rocky Mountains CO ID MT UT WY,"Public, 4-year or above",Public,No,No,City: Midsize,Master's Colleges and Universities (larger programs),142115,43.604284,-116.203301,Boise,https://www.boisestate.edu/,142115,Boise State University,24.0,83.0,80.0,85.0,25.0,24.0,78.0,18.0,31.0,570.0,570.0,ID,1
142276,Idaho State University,Rocky Mountains CO ID MT UT WY,"Public, 4-year or above",Public,No,No,City: Small,Research Universities (high research activity),142276,42.863832,-112.432312,Pocatello,www.isu.edu/,142276,Idaho State University,,,,,,,63.0,13.0,20.0,,,ID,1
142285,University of Idaho,Rocky Mountains CO ID MT UT WY,"Public, 4-year or above",Public,No,No,Rural: Fringe,Research Universities (high research activity),142285,46.727406,-117.014167,Moscow,www.uidaho.edu/,142285,University of Idaho,21.0,81.0,79.0,83.0,22.0,20.0,77.0,16.0,38.0,590.0,580.0,ID,1
142461,Northwest Nazarene University,Rocky Mountains CO ID MT UT WY,"Private not-for-profit, 4-year or above",Private not-for-profit,No,No,Suburb: Midsize,Master's Colleges and Universities (larger programs),142461,43.562411,-116.565783,Nampa,https://www.nnu.edu/,142461,Northwest Nazarene University,11.0,88.0,85.0,90.0,14.0,9.0,79.0,18.0,44.0,580.0,570.0,ID,2
143118,Aurora University,Great Lakes IL IN MI OH WI,"Private not-for-profit, 4-year or above",Private not-for-profit,No,No,Suburb: Large,Master's Colleges and Universities (larger programs),143118,41.753631,-88.349023,Aurora,https://aurora.edu/,143118,Aurora University,31.0,86.0,87.0,86.0,29.0,32.0,78.0,20.0,46.0,548.0,530.0,IL,2
144005,Chicago State University,Great Lakes IL IN MI OH WI,"Public, 4-year or above",Public,No,No,City: Large,Master's Colleges and Universities (larger programs),144005,41.718446,-87.609384,Chicago,www.csu.edu/,144005,Chicago State University,7.0,47.0,39.0,52.0,11.0,6.0,54.0,9.0,5.0,518.0,560.0,IL,1
144050,University of Chicago,Great Lakes IL IN MI OH WI,"Private not-for-profit, 4-year or above",Private not-for-profit,No,No,City: Large,Research Universities (very high research activity),144050,41.787994,-87.599539,Chicago,www.uchicago.edu/,144050,University of Chicago,83.0,6.0,7.0,6.0,85.0,82.0,100.0,5.0,91.0,800.0,800.0,IL,2
144351,Concordia University-Chicago,Great Lakes IL IN MI OH WI,"Private not-for-profit, 4-year or above",Private not-for-profit,No,No,Suburb: Large,Master's Colleges and Universities (larger programs),144351,41.898696,-87.809482,River Forest,www.cuchicago.edu/,144351,Concordia University-Chicago,7.0,88.0,84.0,92.0,7.0,7.0,71.0,12.0,2.0,550.0,590.0,IL,2
144740,DePaul University,Great Lakes IL IN MI OH WI,"Private not-for-profit, 4-year or above",Private not-for-profit,No,No,City: Large,Doctoral/Research Universities,144740,41.877618,-87.62724,Chicago,https://www.depaul.edu/,144740,DePaul University,13.0,69.0,65.0,72.0,14.0,12.0,83.0,17.0,58.0,,,IL,2
145336,Governors State University,Great Lakes IL IN MI OH WI,"Public, 4-year or above",Public,No,No,Rural: Fringe,Master's Colleges and Universities (larger programs),145336,41.449103,-87.716441,University Park,www.govst.edu/,145336,Governors State University,32.0,52.0,50.0,54.0,34.0,30.0,58.0,11.0,10.0,570.0,500.0,IL,1
145600,University of Illinois at Chicago,Great Lakes IL IN MI OH WI,"Public, 4-year or above",Public,No,No,City: Large,Research Universities (very high research activity),145600,41.871837,-87.650503,Chicago,www.uic.edu/,145600,University of Illinois Chicago,23.0,79.0,74.0,82.0,26.0,22.0,82.0,18.0,36.0,590.0,670.0,IL,1
145619,Benedictine University,Great Lakes IL IN MI OH WI,"Private not-for-profit, 4-year or above",Private not-for-profit,No,No,Suburb: Large,Doctoral/Research Universities,145619,41.777569,-88.097307,Lisle,www.ben.edu/,145619,Benedictine University,18.0,80.0,76.0,84.0,22.0,14.0,67.0,13.0,35.0,,,IL,2
145637,University of Illinois at Urbana-Champaign,Great Lakes IL IN MI OH WI,"Public, 4-year or above",Public,No,No,City: Small,Research Universities (very high research activity),145637,40.104718,-88.229114,Champaign,www.illinois.edu/,145637,University of Illinois Urbana-Champaign,29.0,60.0,54.0,67.0,31.0,28.0,94.0,20.0,71.0,680.0,790.0,IL,1
145725,Illinois Institute of Technology,Great Lakes IL IN MI OH WI,"Private not-for-profit, 4-year or above",Private not-for-profit,No,No,City: Large,Research Universities (high research activity),145725,41.8313,-87.627321,Chicago,https://www.iit.edu/,145725,Illinois Institute of Technology,12.0,66.0,63.0,71.0,13.0,10.0,87.0,10.0,37.0,650.0,730.0,IL,2
145813,Illinois State University,Great Lakes IL IN MI OH WI,"Public, 4-year or above",Public,No,No,Suburb: Midsize,Doctoral/Research Universities,145813,40.509403,-88.990058,Normal,illinoisstate.edu/,145813,Illinois State University,31.0,92.0,89.0,93.0,34.0,29.0,84.0,19.0,48.0,,,IL,1
146339,Judson University,Great Lakes IL IN MI OH WI,"Private not-for-profit, 4-year or above",Private not-for-profit,No,No,City: Midsize,Baccalaureate Colleges--Diverse Fields,146339,42.061754,-88.291336,Elgin,www.judsonu.edu/,146339,Judson University,31.0,62.0,57.0,80.0,24.0,45.0,55.0,10.0,57.0,570.0,590.0,IL,2
146612,Lewis University,Great Lakes IL IN MI OH WI,"Private not-for-profit, 4-year or above",Private not-for-profit,No,No,Suburb: Large,Master's Colleges and Universities (larger programs),146612,41.605432,-88.079032,Romeoville,www.lewisu.edu/,146612,Lewis University,18.0,71.0,69.0,73.0,21.0,16.0,80.0,14.0,44.0,560.0,600.0,IL,2
146719,Loyola University Chicago,Great Lakes IL IN MI OH WI,"Private not-for-profit, 4-year or above",Private not-for-profit,No,No,City: Large,Research Universities (high research activity),146719,42.000765,-87.656872,Chicago,https://www.luc.edu/,146719,Loyola University Chicago,10.0,77.0,73.0,79.0,10.0,10.0,85.0,14.0,65.0,630.0,630.0,IL,2
147013,McKendree University,Great Lakes IL IN MI OH WI,"Private not-for-profit, 4-year or above",Private not-for-profit,No,No,Suburb: Large,Master's Colleges and Universities (larger programs),147013,38.608154,-89.816822,Lebanon,https://www.mckendree.edu/,147013,McKendree University,20.0,78.0,77.0,78.0,21.0,18.0,76.0,14.0,43.0,550.0,530.0,IL,2
147536,National Louis University,Great Lakes IL IN MI OH WI,"Private not-for-profit, 4-year or above",Private not-for-profit,No,No,City: Large,Doctoral/Research Universities,147536,41.880093,-87.624699,Chicago,www.nl.edu/,147536,National Louis University,38.0,97.0,96.0,98.0,31.0,44.0,60.0,16.0,19.0,,,IL,2
147703,Northern Illinois University,Great Lakes IL IN MI OH WI,"Public, 4-year or above",Public,No,No,Suburb: Small,Research Universities (high research activity),147703,41.933869,-88.766428,Dekalb,www.niu.edu/,147703,Northern Illinois University,14.0,70.0,67.0,73.0,16.0,13.0,78.0,16.0,31.0,530.0,550.0,IL,1
147767,Northwestern University,Great Lakes IL IN MI OH WI,"Private not-for-profit, 4-year or above",Private not-for-profit,No,No,City: Small,Research Universities (very high research activity),147767,42.050356,-87.679858,Evanston,www.northwestern.edu/,147767,Northwestern University,63.0,7.0,7.0,7.0,64.0,62.0,97.0,6.0,86.0,760.0,800.0,IL,2
147828,Olivet Nazarene University,Great Lakes IL IN MI OH WI,"Private not-for-profit, 4-year or above",Private not-for-profit,No,No,Suburb: Small,Master's Colleges and Universities (larger programs),147828,41.155237,-87.875165,Bourbonnais,www.olivet.edu/,147828,Olivet Nazarene University,19.0,61.0,69.0,67.0,20.0,19.0,75.0,14.0,55.0,580.0,570.0,IL,2
148487,Roosevelt University,Great Lakes IL IN MI OH WI,"Private not-for-profit, 4-year or above",Private not-for-profit,No,No,City: Large,Master's Colleges and Universities (larger programs),148487,41.876055,-87.624952,Chicago,www.roosevelt.edu/,148487,Roosevelt University,16.0,92.0,95.0,90.0,18.0,14.0,67.0,11.0,30.0,635.0,610.0,IL,2
148496,Dominican University,Great Lakes IL IN MI OH WI,"Private not-for-profit, 4-year or above",Private not-for-profit,No,No,Suburb: Large,Master's Colleges and Universities (larger programs),148496,41.902678,-87.823003,River Forest,www.dom.edu/,148496,Dominican University,15.0,81.0,77.0,83.0,15.0,15.0,83.0,10.0,40.0,580.0,550.0,IL,2
148584,University of St Francis,Great Lakes IL IN MI OH WI,"Private not-for-profit, 4-year or above",Private not-for-profit,No,No,Suburb: Large,Master's Colleges and Universities (larger programs),148584,41.532225,-88.096057,Joliet,https://www.stfrancis.edu/,148584,University of St Francis,19.0,68.0,67.0,69.0,20.0,18.0,81.0,13.0,40.0,530.0,630.0,IL,2
148654,University of Illinois at Springfield,Great Lakes IL IN MI OH WI,"Public, 4-year or above",Public,No,No,City: Midsize,Master's Colleges and Universities (larger programs),148654,39.729524,-89.616796,Springfield,www.uis.edu/,148654,University of Illinois Springfield,13.0,79.0,78.0,80.0,14.0,13.0,74.0,12.0,38.0,530.0,600.0,IL,1
149222,Southern Illinois University-Carbondale,Great Lakes IL IN MI OH WI,"Public, 4-year or above",Public,No,No,City: Small,Research Universities (high research activity),149222,37.714193,-89.217273,Carbondale,www.siu.edu/,149222,Southern Illinois University-Carbondale,21.0,95.0,94.0,96.0,26.0,18.0,81.0,11.0,32.0,610.0,600.0,IL,1
149231,Southern Illinois University-Edwardsville,Great Lakes IL IN MI OH WI,"Public, 4-year or above",Public,No,No,Suburb: Large,Master's Colleges and Universities (larger programs),149231,38.793949,-89.997779,Edwardsville,www.siue.edu/,149231,Southern Illinois University-Edwardsville,23.0,98.0,98.0,98.0,25.0,21.0,78.0,16.0,30.0,558.0,615.0,IL,1
149514,Trinity International University-Illinois,Great Lakes IL IN MI OH WI,"Private not-for-profit, 4-year or above",Private not-for-profit,No,No,Suburb: Large,Doctoral/Research Universities,149514,42.197945,-87.880851,Deerfield,https://www.tiu.edu/,149514,Trinity International University-Illinois,26.0,91.0,89.0,96.0,27.0,25.0,66.0,8.0,39.0,590.0,560.0,IL,2
149772,Western Illinois University,Great Lakes IL IN MI OH WI,"Public, 4-year or above",Public,No,No,Town: Remote,Master's Colleges and Universities (larger programs),149772,40.468086,-90.686899,Macomb,www.wiu.edu/,149772,Western Illinois University,18.0,72.0,67.0,76.0,20.0,17.0,77.0,13.0,32.0,,,IL,1
149781,Wheaton College,Great Lakes IL IN MI OH WI,"Private not-for-profit, 4-year or above",Private not-for-profit,No,No,Suburb: Large,Baccalaureate Colleges--Arts & Sciences,149781,41.870176,-88.099643,Wheaton,www.wheaton.edu/,149781,Wheaton College,32.0,86.0,82.0,89.0,33.0,31.0,90.0,10.0,82.0,710.0,700.0,IL,2
150066,Anderson University,Great Lakes IL IN MI OH WI,"Private not-for-profit, 4-year or above",Private not-for-profit,No,No,City: Small,Master's Colleges and Universities (larger programs),150066,40.112768,-85.664315,Anderson,https://anderson.edu/,150066,Anderson University,12.0,62.0,55.0,69.0,16.0,9.0,71.0,8.0,54.0,560.0,570.0,IN,2
150136,Ball State University,Great Lakes IL IN MI OH WI,"Public, 4-year or above",Public,No,No,City: Small,Research Universities (high research activity),150136,40.203431,-85.409043,Muncie,www.bsu.edu/,150136,Ball State University,21.0,68.0,63.0,71.0,25.0,19.0,80.0,14.0,54.0,600.0,590.0,IN,1
151111,Indiana University-Purdue University-Indianapolis,Great Lakes IL IN MI OH WI,"Public, 4-year or above",Public,No,No,City: Large,Research Universities (high research activity),151111,39.772948,-86.172217,Indianapolis,www.iupui.edu/,151111,Indiana University-Purdue University-Indianapolis,28.0,84.0,82.0,85.0,28.0,27.0,75.0,14.0,38.0,560.0,560.0,IN,1
151263,University of Indianapolis,Great Lakes IL IN MI OH WI,"Private not-for-profit, 4-year or above",Private not-for-profit,No,No,City: Large,Master's Colleges and Universities (larger programs),151263,39.709571,-86.133969,Indianapolis,uindy.edu/,151263,University of Indianapolis,13.0,78.0,74.0,80.0,13.0,13.0,75.0,13.0,51.0,560.0,560.0,IN,2
151306,University of Southern Indiana,Great Lakes IL IN MI OH WI,"Public, 4-year or above",Public,No,No,Suburb: Midsize,Master's Colleges and Universities (larger programs),151306,37.962374,-87.677214,Evansville,www.usi.edu/,151306,University of Southern Indiana,36.0,96.0,95.0,97.0,38.0,35.0,75.0,17.0,34.0,550.0,550.0,IN,1
151324,Indiana State University,Great Lakes IL IN MI OH WI,"Public, 4-year or above",Public,No,No,City: Small,Doctoral/Research Universities,151324,39.469073,-87.407846,Terre Haute,https://www.indstate.edu/,151324,Indiana State University,12.0,94.0,92.0,95.0,15.0,11.0,69.0,18.0,28.0,510.0,510.0,IN,1
151351,Indiana University-Bloomington,Great Lakes IL IN MI OH WI,"Public, 4-year or above",Public,No,No,City: Small,Research Universities (very high research activity),151351,39.16609,-86.526559,Bloomington,www.indiana.edu/,151351,Indiana University-Bloomington,24.0,85.0,84.0,86.0,26.0,22.0,91.0,16.0,69.0,630.0,660.0,IN,1
151786,Marian University,Great Lakes IL IN MI OH WI,"Private not-for-profit, 4-year or above",Private not-for-profit,No,No,City: Large,Baccalaureate Colleges--Diverse Fields,151786,39.813233,-86.202643,Indianapolis,www.marian.edu/,151786,Marian University,25.0,73.0,72.0,74.0,28.0,23.0,84.0,13.0,45.0,540.0,550.0,IN,2
152080,University of Notre Dame,Great Lakes IL IN MI OH WI,"Private not-for-profit, 4-year or above",Private not-for-profit,No,No,Suburb: Large,Research Universities (very high research activity),152080,41.703058,-86.238959,Notre Dame,www.nd.edu/,152080,University of Notre Dame,58.0,15.0,16.0,14.0,57.0,58.0,97.0,9.0,90.0,760.0,770.0,IN,2
152099,Oakland City University,Great Lakes IL IN MI OH WI,"Private not-for-profit, 4-year or above",Private not-for-profit,No,No,Town: Distant,Master's Colleges and Universities (medium programs),152099,38.340891,-87.35144,Oakland City,www.oak.edu/,152099,Oakland City University,25.0,73.0,70.0,74.0,42.0,16.0,85.0,12.0,34.0,500.0,510.0,IN,2
153269,Drake University,Plains IA KS MN MO NE ND SD,"Private not-for-profit, 4-year or above",Private not-for-profit,No,No,City: Midsize,Master's Colleges and Universities (larger programs),153269,41.60129,-93.652163,Des Moines,www.drake.edu/,153269,Drake University,14.0,69.0,65.0,72.0,13.0,14.0,86.0,10.0,70.0,670.0,690.0,IA,2
153603,Iowa State University,Plains IA KS MN MO NE ND SD,"Public, 4-year or above",Public,No,No,City: Small,Research Universities (very high research activity),153603,42.026212,-93.648504,Ames,www.iastate.edu/,153603,Iowa State University,29.0,91.0,90.0,92.0,31.0,27.0,89.0,18.0,51.0,620.0,640.0,IA,1
153658,University of Iowa,Plains IA KS MN MO NE ND SD,"Public, 4-year or above",Public,No,No,City: Small,Research Universities (very high research activity),153658,41.661935,-91.536425,Iowa City,www.uiowa.edu/,153658,University of Iowa,23.0,86.0,84.0,88.0,23.0,24.0,88.0,16.0,56.0,630.0,690.0,IA,1
153861,Maharishi University of Management,Plains IA KS MN MO NE ND SD,"Private not-for-profit, 4-year or above",Private not-for-profit,No,No,Town: Remote,Master's Colleges and Universities (larger programs),153861,41.017781,-91.967306,Fairfield,https://www.mum.edu/,153861,Maharishi International University,69.0,95.0,100.0,92.0,80.0,63.0,47.0,12.0,20.0,,,IA,2
154235,Saint Ambrose University,Plains IA KS MN MO NE ND SD,"Private not-for-profit, 4-year or above",Private not-for-profit,No,No,City: Midsize,Master's Colleges and Universities (larger programs),154235,41.54065,-90.579854,Davenport,www.sau.edu/,154235,Saint Ambrose University,17.0,72.0,69.0,75.0,20.0,14.0,83.0,12.0,55.0,,,IA,2
154688,Baker University,Plains IA KS MN MO NE ND SD,"Private not-for-profit, 4-year or above",Private not-for-profit,No,No,Town: Fringe,Master's Colleges and Universities (larger programs),154688,38.778712,-95.187346,Baldwin City,https://www.bakeru.edu/,154688,Baker University,35.0,99.0,100.0,99.0,41.0,30.0,79.0,10.0,49.0,555.0,555.0,KS,2
155025,Emporia State University,Plains IA KS MN MO NE ND SD,"Public, 4-year or above",Public,No,No,Town: Remote,Master's Colleges and Universities (larger programs),155025,38.414784,-96.179021,Emporia,www.emporia.edu/,155025,Emporia State University,38.0,88.0,88.0,88.0,43.0,36.0,78.0,17.0,32.0,,,KS,1
155317,University of Kansas,Plains IA KS MN MO NE ND SD,"Public, 4-year or above",Public,No,No,City: Small,Research Universities (very high research activity),155317,38.958549,-95.247567,Lawrence,https://ku.edu/,155317,University of Kansas,29.0,92.0,89.0,96.0,30.0,28.0,86.0,17.0,50.0,,,KS,1
155399,Kansas State University,Plains IA KS MN MO NE ND SD,"Public, 4-year or above",Public,No,No,City: Small,Research Universities (high research activity),155399,39.188648,-96.581077,Manhattan,www.k-state.edu/,155399,Kansas State University,30.0,96.0,95.0,96.0,32.0,29.0,87.0,18.0,41.0,,,KS,1
155812,University of Saint Mary,Plains IA KS MN MO NE ND SD,"Private not-for-profit, 4-year or above",Private not-for-profit,No,No,Town: Fringe,Master's Colleges and Universities (medium programs),155812,39.279396,-94.906743,Leavenworth,www.stmary.edu/,155812,University of Saint Mary,17.0,81.0,81.0,81.0,12.0,26.0,66.0,13.0,33.0,490.0,520.0,KS,2
155900,Southwestern College,Plains IA KS MN MO NE ND SD,"Private not-for-profit, 4-year or above",Private not-for-profit,No,No,Town: Distant,Master's Colleges and Universities (medium programs),155900,37.248608,-96.975405,Winfield,https://www.sckans.edu/,155900,Southwestern College,22.0,69.0,70.0,68.0,23.0,20.0,53.0,10.0,33.0,480.0,570.0,KS,2
156125,Wichita State University,Plains IA KS MN MO NE ND SD,"Public, 4-year or above",Public,No,No,City: Large,Research Universities (high research activity),156125,37.718882,-97.292361,Wichita,www.wichita.edu/,156125,Wichita State University,27.0,91.0,92.0,90.0,30.0,26.0,71.0,18.0,25.0,600.0,600.0,KS,1
156286,Bellarmine University,Southeast AL AR FL GA KY LA MS NC SC TN VA WV,"Private not-for-profit, 4-year or above",Private not-for-profit,No,No,City: Large,Master's Colleges and Universities (larger programs),156286,38.219279,-85.704997,Louisville,https://www.bellarmine.edu/,156286,Bellarmine University,16.0,86.0,86.0,85.0,17.0,16.0,84.0,13.0,58.0,590.0,610.0,KY,2
156365,Campbellsville University,Southeast AL AR FL GA KY LA MS NC SC TN VA WV,"Private not-for-profit, 4-year or above",Private not-for-profit,No,No,Town: Remote,Master's Colleges and Universities (medium programs),156365,37.343342,-85.348943,Campbellsville,https://www.campbellsville.edu/,156365,Campbellsville University,,,,,,,64.0,14.0,29.0,515.0,550.0,KY,2
156541,University of the Cumberlands,Southeast AL AR FL GA KY LA MS NC SC TN VA WV,"Private not-for-profit, 4-year or above",Private not-for-profit,No,No,Town: Remote,Master's Colleges and Universities (medium programs),156541,36.737048,-84.161646,Williamsburg,www.ucumberlands.edu/,156541,University of the Cumberlands,33.0,85.0,82.0,87.0,37.0,30.0,66.0,20.0,37.0,540.0,550.0,KY,2
157085,University of Kentucky,Southeast AL AR FL GA KY LA MS NC SC TN VA WV,"Public, 4-year or above",Public,No,No,City: Large,Research Universities (very high research activity),157085,38.038911,-84.504747,Lexington,www.uky.edu/,157085,University of Kentucky,23.0,94.0,92.0,95.0,24.0,22.0,86.0,16.0,51.0,620.0,630.0,KY,1
157216,Lindsey Wilson College,Southeast AL AR FL GA KY LA MS NC SC TN VA WV,"Private not-for-profit, 4-year or above",Private not-for-profit,No,No,Town: Remote,Master's Colleges and Universities (medium programs),157216,37.101502,-85.299997,Columbia,https://www.lindsey.edu/,157216,Lindsey Wilson College,,,,,,,68.0,16.0,30.0,,,KY,2
157289,University of Louisville,Southeast AL AR FL GA KY LA MS NC SC TN VA WV,"Public, 4-year or above",Public,No,No,City: Large,Research Universities (very high research activity),157289,38.216862,-85.760412,Louisville,www.louisville.edu/,157289,University of Louisville,23.0,75.0,75.0,75.0,25.0,22.0,81.0,19.0,41.0,620.0,620.0,KY,1
157447,Northern Kentucky University,Southeast AL AR FL GA KY LA MS NC SC TN VA WV,"Public, 4-year or above",Public,No,No,Suburb: Large,Master's Colleges and Universities (larger programs),157447,39.029714,-84.463483,Highland Heights,www.nku.edu/,157447,Northern Kentucky University,32.0,80.0,82.0,79.0,36.0,29.0,75.0,18.0,31.0,595.0,580.0,KY,1
157757,Spalding University,Southeast AL AR FL GA KY LA MS NC SC TN VA WV,"Private not-for-profit, 4-year or above",Private not-for-profit,No,No,City: Large,Doctoral/Research Universities,157757,38.242407,-85.757725,Louisville,https://www.spalding.edu/,157757,Spalding University,17.0,90.0,93.0,88.0,17.0,16.0,66.0,11.0,30.0,,600.0,KY,2
159009,Grambling State University,Southeast AL AR FL GA KY LA MS NC SC TN VA WV,"Public, 4-year or above",Public,Yes,No,Town: Distant,Master's Colleges and Universities (medium programs),159009,32.523797,-92.713245,Grambling,www.gram.edu/,159009,Grambling State University,31.0,72.0,73.0,72.0,42.0,27.0,77.0,30.0,12.0,465.0,490.0,LA,1
159391,Louisiana State University and Agricultural & Mechanical College,Southeast AL AR FL GA KY LA MS NC SC TN VA WV,"Public, 4-year or above",Public,No,No,Rural: Fringe,Research Universities (very high research activity),159391,30.414986,-91.178921,Baton Rouge,www.lsu.edu/,159391,Louisiana State University and Agricultural & Mechanical College,27.0,71.0,69.0,72.0,30.0,26.0,86.0,22.0,43.0,620.0,640.0,LA,1
159416,Louisiana State University-Shreveport,Southeast AL AR FL GA KY LA MS NC SC TN VA WV,"Public, 4-year or above",Public,No,No,City: Midsize,Master's Colleges and Universities (medium programs),159416,32.428465,-93.70561,Shreveport,www.lsus.edu/,159416,Louisiana State University-Shreveport,38.0,91.0,90.0,91.0,46.0,34.0,62.0,28.0,23.0,520.0,500.0,LA,1
159647,Louisiana Tech University,Southeast AL AR FL GA KY LA MS NC SC TN VA WV,"Public, 4-year or above",Public,No,No,Town: Distant,Research Universities (high research activity),159647,32.528297,-92.649963,Ruston,https://www.latech.edu/,159647,Louisiana Tech University,37.0,66.0,69.0,63.0,43.0,31.0,81.0,23.0,39.0,600.0,630.0,LA,1
159939,University of New Orleans,Southeast AL AR FL GA KY LA MS NC SC TN VA WV,"Public, 4-year or above",Public,No,No,City: Large,Research Universities (high research activity),159939,30.027704,-90.067142,New Orleans,new.uno.edu/,159939,University of New Orleans,25.0,81.0,81.0,80.0,32.0,21.0,70.0,20.0,20.0,600.0,630.0,LA,1
159993,University of Louisiana at Monroe,Southeast AL AR FL GA KY LA MS NC SC TN VA WV,"Public, 4-year or above",Public,No,No,City: Small,Master's Colleges and Universities (larger programs),159993,32.527748,-92.07374,Monroe,www.ulm.edu/,159993,University of Louisiana at Monroe,33.0,70.0,68.0,71.0,34.0,33.0,74.0,18.0,35.0,558.0,660.0,LA,1
160038,Northwestern State University of Louisiana,Southeast AL AR FL GA KY LA MS NC SC TN VA WV,"Public, 4-year or above",Public,No,No,Town: Remote,Master's Colleges and Universities (larger programs),160038,31.750666,-93.097797,Natchitoches,www.nsula.edu/,160038,Northwestern State University of Louisiana,36.0,96.0,96.0,96.0,37.0,36.0,76.0,19.0,28.0,550.0,550.0,LA,1
160065,Our Lady of Holy Cross College,Southeast AL AR FL GA KY LA MS NC SC TN VA WV,"Private not-for-profit, 4-year or above",Private not-for-profit,No,No,City: Large,Master's Colleges and Universities (smaller programs),160065,29.912003,-89.99445,New Orleans,uhcno.edu/,160065,University of Holy Cross,6.0,75.0,71.0,76.0,5.0,7.0,67.0,10.0,6.0,,,LA,2
160612,Southeastern Louisiana University,Southeast AL AR FL GA KY LA MS NC SC TN VA WV,"Public, 4-year or above",Public,No,No,City: Small,Master's Colleges and Universities (larger programs),160612,30.514652,-90.468676,Hammond,www.southeastern.edu/,160612,Southeastern Louisiana University,40.0,99.0,99.0,99.0,44.0,38.0,72.0,20.0,19.0,,,LA,1
160621,Southern University and A & M College,Southeast AL AR FL GA KY LA MS NC SC TN VA WV,"Public, 4-year or above",Public,Yes,No,City: Midsize,Master's Colleges and Universities (larger programs),160621,30.524558,-91.190105,Baton Rouge,www.subr.edu/,160621,Southern University and A & M College,32.0,59.0,69.0,55.0,37.0,30.0,60.0,22.0,10.0,495.0,510.0,LA,1
160658,University of Louisiana at Lafayette,Southeast AL AR FL GA KY LA MS NC SC TN VA WV,"Public, 4-year or above",Public,No,No,City: Midsize,Research Universities (high research activity),160658,30.212191,-92.020165,Lafayette,www.louisiana.edu/,160658,University of Louisiana at Lafayette,33.0,78.0,76.0,80.0,37.0,31.0,79.0,19.0,23.0,590.0,590.0,LA,1
160755,Tulane University of Louisiana,Southeast AL AR FL GA KY LA MS NC SC TN VA WV,"Private not-for-profit, 4-year or above",Private not-for-profit,No,No,City: Large,Research Universities (very high research activity),160755,29.940069,-90.122144,New Orleans,https://tulane.edu/,160755,Tulane University of Louisiana,46.0,10.0,10.0,10.0,49.0,45.0,92.0,8.0,77.0,710.0,700.0,LA,2
160904,Xavier University of Louisiana,Southeast AL AR FL GA KY LA MS NC SC TN VA WV,"Private not-for-profit, 4-year or above",Private not-for-profit,Yes,No,City: Large,Baccalaureate Colleges--Arts & Sciences,160904,29.964162,-90.107307,New Orleans,https://www.xula.edu/,160904,Xavier University of Louisiana,16.0,95.0,93.0,96.0,16.0,16.0,77.0,13.0,37.0,550.0,560.0,LA,2
161253,University of Maine,New England CT ME MA NH RI VT,"Public, 4-year or above",Public,No,No,Suburb: Small,Research Universities (high research activity),161253,44.899257,-68.669332,Orono,www.umaine.edu/,161253,University of Maine,16.0,96.0,96.0,97.0,18.0,14.0,78.0,16.0,39.0,600.0,610.0,ME,1
161457,University of New England,New England CT ME MA NH RI VT,"Private not-for-profit, 4-year or above",Private not-for-profit,No,No,Suburb: Midsize,Master's Colleges and Universities (larger programs),161457,43.458591,-70.38535,Biddeford,https://www.une.edu/,161457,University of New England,14.0,90.0,88.0,91.0,14.0,14.0,75.0,13.0,60.0,580.0,590.0,ME,2
161554,University of Southern Maine,New England CT ME MA NH RI VT,"Public, 4-year or above",Public,No,No,City: Small,Master's Colleges and Universities (larger programs),161554,43.662863,-70.274247,Portland,www.usm.maine.edu/,161554,University of Southern Maine,19.0,87.0,83.0,89.0,20.0,18.0,70.0,12.0,20.0,550.0,550.0,ME,1
161873,University of Baltimore,Mid East DE DC MD NJ NY PA,"Public, 4-year or above",Public,No,No,City: Large,Master's Colleges and Universities (larger programs),161873,39.305834,-76.616591,Baltimore,www.ubalt.edu/,161873,University of Baltimore,28.0,89.0,88.0,90.0,31.0,26.0,78.0,13.0,23.0,550.0,530.0,MD,1
162007,Bowie State University,Mid East DE DC MD NJ NY PA,"Public, 4-year or above",Public,Yes,No,Suburb: Large,Doctoral/Research Universities,162007,39.018185,-76.759721,Bowie,www.bowiestate.edu/,162007,Bowie State University,21.0,87.0,81.0,90.0,26.0,19.0,77.0,16.0,17.0,490.0,470.0,MD,1
162584,Frostburg State University,Mid East DE DC MD NJ NY PA,"Public, 4-year or above",Public,No,No,Suburb: Small,Master's Colleges and Universities (larger programs),162584,39.650918,-78.934293,Frostburg,www.frostburg.edu/,162584,Frostburg State University,16.0,86.0,85.0,87.0,18.0,14.0,74.0,14.0,25.0,530.0,530.0,MD,1
162760,Hood College,Mid East DE DC MD NJ NY PA,"Private not-for-profit, 4-year or above",Private not-for-profit,No,No,City: Small,Master's Colleges and Universities (medium programs),162760,39.420631,-77.419049,Frederick,www.hood.edu/,162760,Hood College,13.0,77.0,71.0,80.0,14.0,13.0,75.0,11.0,56.0,,,MD,2
162928,Johns Hopkins University,Mid East DE DC MD NJ NY PA,"Private not-for-profit, 4-year or above",Private not-for-profit,No,No,City: Large,Research Universities (very high research activity),162928,39.328977,-76.621595,Baltimore,www.jhu.edu/,162928,Johns Hopkins University,48.0,8.0,7.0,8.0,48.0,47.0,97.0,6.0,87.0,750.0,780.0,MD,2
163046,Loyola University Maryland,Mid East DE DC MD NJ NY PA,"Private not-for-profit, 4-year or above",Private not-for-profit,No,No,City: Large,Master's Colleges and Universities (larger programs),163046,39.346358,-76.621872,Baltimore,www.loyola.edu/,163046,Loyola University Maryland,12.0,84.0,82.0,85.0,14.0,11.0,87.0,12.0,77.0,,,MD,2
163268,University of Maryland-Baltimore County,Mid East DE DC MD NJ NY PA,"Public, 4-year or above",Public,No,No,Suburb: Large,Research Universities (high research activity),163268,39.256686,-76.711607,Baltimore,umbc.edu/,163268,University of Maryland-Baltimore County,23.0,81.0,80.0,82.0,27.0,19.0,87.0,17.0,45.0,640.0,670.0,MD,1
163286,University of Maryland-College Park,Mid East DE DC MD NJ NY PA,"Public, 4-year or above",Public,No,No,Suburb: Large,Research Universities (very high research activity),163286,38.988178,-76.944721,College Park,www.umd.edu/,163286,University of Maryland-College Park,23.0,52.0,48.0,56.0,25.0,22.0,95.0,17.0,72.0,690.0,730.0,MD,1
163338,University of Maryland Eastern Shore,Mid East DE DC MD NJ NY PA,"Public, 4-year or above",Public,Yes,No,Town: Fringe,Master's Colleges and Universities (smaller programs),163338,38.207386,-75.686852,Princess Anne,www.umes.edu/,163338,University of Maryland Eastern Shore,8.0,82.0,81.0,87.0,10.0,6.0,73.0,10.0,15.0,470.0,460.0,MD,1
163453,Morgan State University,Mid East DE DC MD NJ NY PA,"Public, 4-year or above",Public,Yes,No,City: Large,Doctoral/Research Universities,163453,39.344161,-76.585565,Baltimore,https://www.morgan.edu/,163453,Morgan State University,17.0,87.0,83.0,89.0,20.0,16.0,74.0,13.0,20.0,480.0,490.0,MD,1
163578,Notre Dame of Maryland University,Mid East DE DC MD NJ NY PA,"Private not-for-profit, 4-year or above",Private not-for-profit,No,No,City: Large,Master's Colleges and Universities (larger programs),163578,39.350612,-76.619739,Baltimore,www.ndm.edu/,163578,Notre Dame of Maryland University,8.0,65.0,0.0,65.0,,8.0,65.0,7.0,48.0,600.0,580.0,MD,2
163851,Salisbury University,Mid East DE DC MD NJ NY PA,"Public, 4-year or above",Public,No,No,Suburb: Small,Master's Colleges and Universities (larger programs),163851,38.34648,-75.604815,Salisbury,https://www.salisbury.edu/,163851,Salisbury University,18.0,86.0,83.0,89.0,20.0,17.0,78.0,15.0,50.0,,,MD,1
164076,Towson University,Mid East DE DC MD NJ NY PA,"Public, 4-year or above",Public,No,No,City: Small,Master's Colleges and Universities (larger programs),164076,39.393622,-76.611164,Towson,www.towson.edu/,164076,Towson University,25.0,88.0,85.0,90.0,27.0,24.0,85.0,16.0,50.0,580.0,590.0,MD,1
164447,American International College,New England CT ME MA NH RI VT,"Private not-for-profit, 4-year or above",Private not-for-profit,No,No,City: Midsize,Master's Colleges and Universities (larger programs),164447,42.112346,-72.558338,Springfield,www.aic.edu/,164447,American International College,17.0,58.0,55.0,61.0,20.0,14.0,70.0,18.0,34.0,490.0,500.0,MA,2
164739,Bentley University,New England CT ME MA NH RI VT,"Private not-for-profit, 4-year or above",Private not-for-profit,No,No,City: Small,Master's Colleges and Universities (larger programs),164739,42.385995,-71.222839,Waltham,www.bentley.edu/,164739,Bentley University,18.0,61.0,58.0,65.0,19.0,16.0,92.0,11.0,83.0,640.0,690.0,MA,2
164924,Boston College,New England CT ME MA NH RI VT,"Private not-for-profit, 4-year or above",Private not-for-profit,No,No,City: Small,Research Universities (high research activity),164924,42.336213,-71.169242,Chestnut Hill,www.bc.edu/,164924,Boston College,33.0,19.0,23.0,17.0,33.0,33.0,93.0,14.0,88.0,720.0,750.0,MA,2
164988,Boston University,New England CT ME MA NH RI VT,"Private not-for-profit, 4-year or above",Private not-for-profit,No,No,City: Large,Research Universities (very high research activity),164988,42.351118,-71.107942,Boston,www.bu.edu/,164988,Boston University,28.0,19.0,23.0,16.0,26.0,30.0,92.0,10.0,84.0,680.0,730.0,MA,2
165015,Brandeis University,New England CT ME MA NH RI VT,"Private not-for-profit, 4-year or above",Private not-for-profit,No,No,City: Small,Research Universities (very high research activity),165015,42.365727,-71.260155,Waltham,https://www.brandeis.edu/,165015,Brandeis University,25.0,39.0,36.0,41.0,26.0,24.0,90.0,10.0,82.0,700.0,770.0,MA,2
165167,Cambridge College,New England CT ME MA NH RI VT,"Private not-for-profit, 4-year or above",Private not-for-profit,No,No,City: Midsize,Master's Colleges and Universities (larger programs),165167,42.381091,-71.072646,Boston,www.cambridgecollege.edu/,165167,Cambridge College,,,,,,,0.0,10.0,0.0,,,MA,2
165334,Clark University,New England CT ME MA NH RI VT,"Private not-for-profit, 4-year or above",Private not-for-profit,No,No,City: Midsize,Research Universities (high research activity),165334,42.249987,-71.823356,Worcester,www.clarku.edu/,165334,Clark University,13.0,48.0,45.0,50.0,15.0,12.0,87.0,9.0,75.0,,,MA,2
165699,Endicott College,New England CT ME MA NH RI VT,"Private not-for-profit, 4-year or above",Private not-for-profit,No,No,Suburb: Large,Master's Colleges and Universities (medium programs),165699,42.553296,-70.840847,Beverly,www.endicott.edu/,165699,Endicott College,21.0,77.0,74.0,79.0,20.0,21.0,83.0,13.0,76.0,,,MA,2
166027,Harvard University,New England CT ME MA NH RI VT,"Private not-for-profit, 4-year or above",Private not-for-profit,No,No,City: Midsize,Research Universities (very high research activity),166027,42.374471,-71.118313,Cambridge,www.harvard.edu/,166027,Harvard University,84.0,4.0,4.0,4.0,84.0,84.0,76.0,5.0,86.0,800.0,800.0,MA,2
166452,Lesley University,New England CT ME MA NH RI VT,"Private not-for-profit, 4-year or above",Private not-for-profit,No,No,City: Midsize,Master's Colleges and Universities (larger programs),166452,42.38012,-71.117303,Cambridge,www.lesley.edu/,166452,Lesley University,11.0,87.0,78.0,90.0,11.0,11.0,67.0,9.0,49.0,600.0,570.0,MA,2
166513,University of Massachusetts-Lowell,New England CT ME MA NH RI VT,"Public, 4-year or above",Public,No,No,Suburb: Large,Research Universities (high research activity),166513,42.652864,-71.326809,Lowell,www.uml.edu/,166513,University of Massachusetts-Lowell,18.0,85.0,83.0,86.0,21.0,15.0,84.0,19.0,47.0,650.0,650.0,MA,1
166629,University of Massachusetts-Amherst,New England CT ME MA NH RI VT,"Public, 4-year or above",Public,No,No,Suburb: Large,Research Universities (very high research activity),166629,42.385999,-72.526728,Amherst,www.umass.edu/,166629,University of Massachusetts-Amherst,17.0,66.0,58.0,72.0,19.0,16.0,89.0,17.0,77.0,640.0,670.0,MA,1
166638,University of Massachusetts-Boston,New England CT ME MA NH RI VT,"Public, 4-year or above",Public,No,No,City: Large,Research Universities (high research activity),166638,42.312881,-71.036865,Boston,www.umb.edu/,166638,University of Massachusetts-Boston,17.0,79.0,74.0,82.0,22.0,15.0,76.0,17.0,27.0,570.0,590.0,MA,1
166683,Massachusetts Institute of Technology,New England CT ME MA NH RI VT,"Private not-for-profit, 4-year or above",Private not-for-profit,No,No,City: Midsize,Research Universities (very high research activity),166683,42.359243,-71.093226,Cambridge,web.mit.edu/,166683,Massachusetts Institute of Technology,86.0,4.0,3.0,6.0,91.0,82.0,98.0,3.0,88.0,780.0,800.0,MA,2
167358,Northeastern University,New England CT ME MA NH RI VT,"Private not-for-profit, 4-year or above",Private not-for-profit,No,No,City: Large,Research Universities (high research activity),167358,42.339992,-71.088782,Boston,www.northeastern.edu/,167358,Northeastern University,33.0,18.0,16.0,20.0,33.0,32.0,97.0,14.0,0.0,740.0,770.0,MA,2
167783,Simmons College,New England CT ME MA NH RI VT,"Private not-for-profit, 4-year or above",Private not-for-profit,No,No,City: Large,Master's Colleges and Universities (larger programs),167783,42.3393,-71.099967,Boston,www.simmons.edu/,167783,Simmons University,14.0,84.0,,84.0,,14.0,84.0,9.0,67.0,630.0,610.0,MA,2
167835,Smith College,New England CT ME MA NH RI VT,"Private not-for-profit, 4-year or above",Private not-for-profit,No,No,Suburb: Large,Baccalaureate Colleges--Arts & Sciences,167835,42.318111,-72.638097,Northampton,www.smith.edu/,167835,Smith College,37.0,30.0,,30.0,,37.0,77.0,7.0,85.0,,,MA,2
167899,Springfield College,New England CT ME MA NH RI VT,"Private not-for-profit, 4-year or above",Private not-for-profit,No,No,City: Midsize,Master's Colleges and Universities (larger programs),167899,42.101576,-72.556751,Springfield,www.springfield.edu/,167899,Springfield College,23.0,77.0,74.0,80.0,24.0,23.0,85.0,12.0,69.0,560.0,580.0,MA,2
167987,University of Massachusetts-Dartmouth,New England CT ME MA NH RI VT,"Public, 4-year or above",Public,No,No,Suburb: Midsize,Master's Colleges and Universities (larger programs),167987,41.62869,-71.004552,North Dartmouth,www.umassd.edu/,167987,University of Massachusetts-Dartmouth,17.0,92.0,91.0,94.0,19.0,16.0,71.0,15.0,39.0,560.0,570.0,MA,1
168005,Suffolk University,New England CT ME MA NH RI VT,"Private not-for-profit, 4-year or above",Private not-for-profit,No,No,City: Large,Master's Colleges and Universities (larger programs),168005,42.357945,-71.060917,Boston,https://www.suffolk.edu/,168005,Suffolk University,15.0,88.0,85.0,90.0,16.0,14.0,73.0,14.0,47.0,560.0,560.0,MA,2
168148,Tufts University,New England CT ME MA NH RI VT,"Private not-for-profit, 4-year or above",Private not-for-profit,No,No,Suburb: Large,Research Universities (very high research activity),168148,42.40855,-71.118293,Medford,https://www.tufts.edu/,168148,Tufts University,50.0,11.0,12.0,11.0,52.0,49.0,92.0,10.0,89.0,750.0,770.0,MA,2
168254,Western New England University,New England CT ME MA NH RI VT,"Private not-for-profit, 4-year or above",Private not-for-profit,No,No,City: Midsize,Master's Colleges and Universities (medium programs),168254,42.115017,-72.520466,Springfield,www1.wne.edu/,168254,Western New England University,14.0,90.0,89.0,91.0,14.0,13.0,78.0,12.0,54.0,570.0,610.0,MA,2
168421,Worcester Polytechnic Institute,New England CT ME MA NH RI VT,"Private not-for-profit, 4-year or above",Private not-for-profit,No,No,City: Midsize,Doctoral/Research Universities,168421,42.274853,-71.808339,Worcester,https://www.wpi.edu/,168421,Worcester Polytechnic Institute,21.0,60.0,54.0,77.0,19.0,25.0,95.0,13.0,81.0,,,MA,2
168740,Andrews University,Great Lakes IL IN MI OH WI,"Private not-for-profit, 4-year or above",Private not-for-profit,No,No,Town: Fringe,Doctoral/Research Universities,168740,41.963859,-86.355815,Berrien Springs,www.andrews.edu/,168740,Andrews University,28.0,82.0,79.0,84.0,33.0,25.0,85.0,10.0,41.0,620.0,620.0,MI,2
168847,Baker College of Flint,Great Lakes IL IN MI OH WI,"Private not-for-profit, 4-year or above",Private not-for-profit,No,No,Suburb: Large,Baccalaureate/Associate's Colleges,168847,42.984804,-84.172404,Owosso,www.baker.edu/,168847,Baker College,73.0,41.0,53.0,59.0,78.0,71.0,61.0,8.0,5.0,,,MI,2
169248,Central Michigan University,Great Lakes IL IN MI OH WI,"Public, 4-year or above",Public,No,No,Town: Distant,Doctoral/Research Universities,169248,43.591203,-84.77525,Mount Pleasant,https://www.cmich.edu/,169248,Central Michigan University,13.0,77.0,74.0,79.0,15.0,13.0,80.0,18.0,34.0,560.0,580.0,MI,1
169716,University of Detroit Mercy,Great Lakes IL IN MI OH WI,"Private not-for-profit, 4-year or above",Private not-for-profit,No,No,City: Large,Master's Colleges and Universities (larger programs),169716,42.414222,-83.139158,Detroit,https://www.udmercy.edu/,169716,University of Detroit Mercy,14.0,93.0,94.0,93.0,7.0,26.0,86.0,11.0,52.0,608.0,628.0,MI,2
169798,Eastern Michigan University,Great Lakes IL IN MI OH WI,"Public, 4-year or above",Public,No,No,Suburb: Large,Master's Colleges and Universities (larger programs),169798,42.251675,-83.627443,Ypsilanti,www.emich.edu/,169798,Eastern Michigan University,16.0,85.0,81.0,87.0,16.0,15.0,72.0,15.0,23.0,580.0,580.0,MI,1
169910,Ferris State University,Great Lakes IL IN MI OH WI,"Public, 4-year or above",Public,No,No,Town: Remote,Master's Colleges and Universities (larger programs),169910,43.687724,-85.481925,Big Rapids,www.ferris.edu/,169910,Ferris State University,16.0,85.0,83.0,86.0,21.0,13.0,79.0,15.0,36.0,540.0,580.0,MI,1
170037,Cornerstone University,Great Lakes IL IN MI OH WI,"Private not-for-profit, 4-year or above",Private not-for-profit,No,No,City: Midsize,Master's Colleges and Universities (larger programs),170037,42.979966,-85.595328,Grand Rapids,www.cornerstone.edu/,170037,Cornerstone University,21.0,91.0,90.0,92.0,25.0,19.0,86.0,15.0,54.0,578.0,580.0,MI,2
170675,Lawrence Technological University,Great Lakes IL IN MI OH WI,"Private not-for-profit, 4-year or above",Private not-for-profit,No,No,City: Small,Master's Colleges and Universities (larger programs),170675,42.474072,-83.25003,Southfield,www.ltu.edu/,170675,Lawrence Technological University,22.0,81.0,82.0,79.0,23.0,21.0,77.0,11.0,21.0,590.0,630.0,MI,2
170806,Madonna University,Great Lakes IL IN MI OH WI,"Private not-for-profit, 4-year or above",Private not-for-profit,No,No,City: Small,Master's Colleges and Universities (medium programs),170806,42.384323,-83.404722,Livonia,https://www.madonna.edu/,170806,Madonna University,40.0,52.0,44.0,58.0,52.0,33.0,76.0,13.0,39.0,,,MI,2
170976,University of Michigan-Ann Arbor,Great Lakes IL IN MI OH WI,"Public, 4-year or above",Public,No,No,City: Midsize,Research Universities (very high research activity),170976,42.275921,-83.742769,Ann Arbor,https://umich.edu/,170976,University of Michigan-Ann Arbor,45.0,20.0,18.0,22.0,45.0,45.0,96.0,11.0,81.0,730.0,770.0,MI,1
171100,Michigan State University,Great Lakes IL IN MI OH WI,"Public, 4-year or above",Public,No,No,City: Small,Research Universities (very high research activity),171100,42.73212,-84.476111,East Lansing,https://www.msu.edu/,171100,Michigan State University,22.0,83.0,81.0,85.0,23.0,21.0,91.0,16.0,59.0,580.0,680.0,MI,1
171128,Michigan Technological University,Great Lakes IL IN MI OH WI,"Public, 4-year or above",Public,No,No,Town: Remote,Research Universities (high research activity),171128,47.11866,-88.548092,Houghton,https://www.mtu.edu/,171128,Michigan Technological University,21.0,86.0,86.0,85.0,25.0,16.0,86.0,13.0,34.0,670.0,690.0,MI,1
171137,University of Michigan-Dearborn,Great Lakes IL IN MI OH WI,"Public, 4-year or above",Public,No,No,City: Small,Master's Colleges and Universities (larger programs),171137,42.317287,-83.231417,Dearborn,https://umdearborn.edu/,171137,University of Michigan-Dearborn,20.0,69.0,65.0,72.0,22.0,17.0,82.0,16.0,27.0,,620.0,MI,1
171146,University of Michigan-Flint,Great Lakes IL IN MI OH WI,"Public, 4-year or above",Public,No,No,City: Midsize,Master's Colleges and Universities (larger programs),171146,43.01875,-83.690276,Flint,www.umflint.edu/,171146,University of Michigan-Flint,17.0,74.0,70.0,76.0,20.0,15.0,72.0,14.0,12.0,530.0,640.0,MI,1
171571,Oakland University,Great Lakes IL IN MI OH WI,"Public, 4-year or above",Public,No,No,Suburb: Large,Doctoral/Research Universities,171571,42.674573,-83.216418,Rochester Hills,www.oakland.edu/,171571,Oakland University,21.0,92.0,91.0,92.0,25.0,18.0,79.0,19.0,31.0,560.0,590.0,MI,1
172644,Wayne State University,Great Lakes IL IN MI OH WI,"Public, 4-year or above",Public,No,No,City: Large,Research Universities (very high research activity),172644,42.358994,-83.068998,Detroit,https://wayne.edu/,172644,Wayne State University,28.0,63.0,64.0,63.0,30.0,27.0,82.0,15.0,29.0,,,MI,1
172699,Western Michigan University,Great Lakes IL IN MI OH WI,"Public, 4-year or above",Public,No,No,City: Small,Research Universities (high research activity),172699,42.282194,-85.613759,Kalamazoo,https://wmich.edu/,172699,Western Michigan University,14.0,83.0,81.0,84.0,16.0,12.0,78.0,18.0,28.0,590.0,570.0,MI,1
173160,Bethel University,Plains IA KS MN MO NE ND SD,"Private not-for-profit, 4-year or above",Private not-for-profit,No,No,Suburb: Large,Master's Colleges and Universities (larger programs),173160,45.057655,-93.161663,Saint Paul,https://www.bethel.edu/,173160,Bethel University,28.0,89.0,88.0,89.0,31.0,26.0,85.0,12.0,67.0,675.0,675.0,MN,2
173328,Concordia University-Saint Paul,Plains IA KS MN MO NE ND SD,"Private not-for-profit, 4-year or above",Private not-for-profit,No,No,City: Large,Master's Colleges and Universities (larger programs),173328,44.949759,-93.154861,Saint Paul,https://www.csp.edu/,173328,Concordia University-Saint Paul,17.0,68.0,63.0,71.0,18.0,16.0,68.0,20.0,43.0,,,MN,2
173665,Hamline University,Plains IA KS MN MO NE ND SD,"Private not-for-profit, 4-year or above",Private not-for-profit,No,No,City: Large,Master's Colleges and Universities (larger programs),173665,44.966246,-93.164479,Saint Paul,www.hamline.edu/,173665,Hamline University,14.0,76.0,72.0,79.0,13.0,14.0,74.0,13.0,58.0,660.0,650.0,MN,2
173920,Minnesota State University-Mankato,Plains IA KS MN MO NE ND SD,"Public, 4-year or above",Public,No,No,City: Small,Master's Colleges and Universities (larger programs),173920,44.146712,-93.99945,Mankato,https://mankato.mnsu.edu/,173920,Minnesota State University-Mankato,31.0,69.0,69.0,70.0,32.0,30.0,79.0,22.0,29.0,,,MN,1
174020,Metropolitan State University,Plains IA KS MN MO NE ND SD,"Public, 4-year or above",Public,No,No,City: Large,Master's Colleges and Universities (medium programs),174020,44.957256,-93.074361,Saint Paul,www.metrostate.edu/,174020,Metropolitan State University,31.0,67.0,67.0,67.0,42.0,23.0,66.0,15.0,15.0,,,MN,1
174066,University of Minnesota-Twin Cities,Plains IA KS MN MO NE ND SD,"Public, 4-year or above",Public,No,No,City: Large,Research Universities (very high research activity),174066,44.972851,-93.235464,Minneapolis,https://twin-cities.umn.edu/,174066,University of Minnesota-Twin Cities,26.0,73.0,69.0,77.0,25.0,27.0,93.0,17.0,72.0,700.0,740.0,MN,1
174233,University of Minnesota-Duluth,Plains IA KS MN MO NE ND SD,"Public, 4-year or above",Public,No,No,City: Small,Master's Colleges and Universities (medium programs),174233,46.817126,-92.084385,Duluth,https://www.d.umn.edu/,174233,University of Minnesota-Duluth,27.0,80.0,77.0,82.0,30.0,24.0,79.0,17.0,45.0,610.0,590.0,MN,1
174358,Minnesota State University-Moorhead,Plains IA KS MN MO NE ND SD,"Public, 4-year or above",Public,No,No,Suburb: Midsize,Master's Colleges and Universities (medium programs),174358,46.867153,-96.759532,Moorhead,https://www.mnstate.edu/,174358,Minnesota State University Moorhead,27.0,72.0,66.0,75.0,26.0,28.0,70.0,18.0,39.0,519.0,570.0,MN,1
174783,Saint Cloud State University,Plains IA KS MN MO NE ND SD,"Public, 4-year or above",Public,No,No,City: Small,Master's Colleges and Universities (larger programs),174783,45.553227,-94.152657,Saint Cloud,https://www.stcloudstate.edu/,174783,Saint Cloud State University,21.0,94.0,93.0,96.0,24.0,18.0,67.0,19.0,24.0,560.0,585.0,MN,1
174817,Saint Mary's University of Minnesota,Plains IA KS MN MO NE ND SD,"Private not-for-profit, 4-year or above",Private not-for-profit,No,No,Town: Distant,Doctoral/Research Universities,174817,44.044736,-91.695449,Winona,www.smumn.edu/,174817,Saint Mary's University of Minnesota,15.0,98.0,97.0,98.0,20.0,13.0,79.0,18.0,50.0,548.0,548.0,MN,2
174914,University of St Thomas,Plains IA KS MN MO NE ND SD,"Private not-for-profit, 4-year or above",Private not-for-profit,No,No,City: Large,Doctoral/Research Universities,174914,44.943439,-93.188986,Saint Paul,www.stthomas.edu/,174914,University of St Thomas,21.0,76.0,72.0,79.0,21.0,20.0,87.0,14.0,69.0,630.0,620.0,MN,2
175272,Winona State University,Plains IA KS MN MO NE ND SD,"Public, 4-year or above",Public,No,No,Town: Distant,Master's Colleges and Universities (medium programs),175272,44.046159,-91.643723,Winona,www.winona.edu/,175272,Winona State University,27.0,77.0,72.0,79.0,29.0,26.0,75.0,17.0,44.0,,655.0,MN,1
175421,Belhaven University,Southeast AL AR FL GA KY LA MS NC SC TN VA WV,"Private not-for-profit, 4-year or above",Private not-for-profit,No,No,City: Midsize,Master's Colleges and Universities (medium programs),175421,32.318415,-90.169228,Jackson,www.belhaven.edu/,175421,Belhaven University,19.0,64.0,69.0,61.0,18.0,19.0,68.0,8.0,44.0,,,MS,2
175616,Delta State University,Southeast AL AR FL GA KY LA MS NC SC TN VA WV,"Public, 4-year or above",Public,No,No,Town: Remote,Master's Colleges and Universities (larger programs),175616,33.744745,-90.735365,Cleveland,www.deltastate.edu/,175616,Delta State University,29.0,100.0,100.0,100.0,36.0,25.0,67.0,11.0,24.0,520.0,560.0,MS,1
175856,Jackson State University,Southeast AL AR FL GA KY LA MS NC SC TN VA WV,"Public, 4-year or above",Public,Yes,No,City: Midsize,Research Universities (high research activity),175856,32.296105,-90.207405,Jackson,https://www.jsums.edu/,175856,Jackson State University,16.0,62.0,56.0,65.0,21.0,14.0,74.0,14.0,29.0,510.0,510.0,MS,1
176017,University of Mississippi,Southeast AL AR FL GA KY LA MS NC SC TN VA WV,"Public, 4-year or above",Public,No,No,Town: Remote,Research Universities (high research activity),176017,34.365529,-89.537434,University,www.olemiss.edu/,176017,University of Mississippi,20.0,90.0,89.0,90.0,24.0,19.0,86.0,16.0,52.0,600.0,600.0,MS,1
176053,Mississippi College,Southeast AL AR FL GA KY LA MS NC SC TN VA WV,"Private not-for-profit, 4-year or above",Private not-for-profit,No,No,Suburb: Large,Master's Colleges and Universities (larger programs),176053,32.335515,-90.329821,Clinton,www.mc.edu/,176053,Mississippi College,38.0,49.0,52.0,47.0,40.0,37.0,80.0,15.0,51.0,640.0,600.0,MS,2
176080,Mississippi State University,Southeast AL AR FL GA KY LA MS NC SC TN VA WV,"Public, 4-year or above",Public,No,No,Town: Remote,Research Universities (very high research activity),176080,33.454852,-88.790139,Mississippi State,https://www.msstate.edu/,176080,Mississippi State University,25.0,76.0,77.0,75.0,28.0,23.0,85.0,16.0,36.0,620.0,640.0,MS,1
176372,University of Southern Mississippi,Southeast AL AR FL GA KY LA MS NC SC TN VA WV,"Public, 4-year or above",Public,No,No,City: Small,Research Universities (high research activity),176372,31.32661,-89.331236,Hattiesburg,https://www.usm.edu/,176372,University of Southern Mississippi,18.0,96.0,94.0,97.0,18.0,18.0,75.0,18.0,32.0,555.0,565.0,MS,1
176479,William Carey University,Southeast AL AR FL GA KY LA MS NC SC TN VA WV,"Private not-for-profit, 4-year or above",Private not-for-profit,No,No,City: Small,Master's Colleges and Universities (larger programs),176479,31.305264,-89.291815,Hattiesburg,www.wmcarey.edu/,176479,William Carey University,57.0,57.0,64.0,54.0,65.0,51.0,84.0,14.0,38.0,520.0,560.0,MS,2
177339,Evangel University,Plains IA KS MN MO NE ND SD,"Private not-for-profit, 4-year or above",Private not-for-profit,No,No,City: Midsize,Baccalaureate Colleges--Diverse Fields,177339,37.220956,-93.262614,Springfield,www.evangel.edu/,177339,Evangel University,39.0,64.0,64.0,63.0,47.0,34.0,80.0,16.0,44.0,580.0,580.0,MO,2
177418,Fontbonne University,Plains IA KS MN MO NE ND SD,"Private not-for-profit, 4-year or above",Private not-for-profit,No,No,Suburb: Large,Master's Colleges and Universities (larger programs),177418,38.642697,-90.315712,Saint Louis,https://www.fontbonne.edu/,177418,Fontbonne University,24.0,78.0,81.0,76.0,27.0,22.0,78.0,10.0,49.0,,,MO,2
177968,Lindenwood University,Plains IA KS MN MO NE ND SD,"Private not-for-profit, 4-year or above",Private not-for-profit,No,No,City: Small,Master's Colleges and Universities (larger programs),177968,38.785425,-90.501286,Saint Charles,https://www.lindenwood.edu/,177968,Lindenwood University,29.0,75.0,70.0,79.0,30.0,28.0,75.0,14.0,39.0,540.0,560.0,MO,2
178059,Maryville University of Saint Louis,Plains IA KS MN MO NE ND SD,"Private not-for-profit, 4-year or above",Private not-for-profit,No,No,Suburb: Large,Doctoral/Research Universities,178059,38.644774,-90.505998,Saint Louis,https://www.maryville.edu/,178059,Maryville University of Saint Louis,26.0,92.0,91.0,92.0,24.0,26.0,83.0,13.0,65.0,,,MO,2
178244,Missouri Baptist University,Plains IA KS MN MO NE ND SD,"Private not-for-profit, 4-year or above",Private not-for-profit,No,No,Suburb: Large,Master's Colleges and Universities (larger programs),178244,38.641526,-90.462586,Saint Louis,www.mobap.edu/,178244,Missouri Baptist University,55.0,62.0,63.0,60.0,60.0,49.0,69.0,18.0,29.0,470.0,480.0,MO,2
178396,University of Missouri-Columbia,Plains IA KS MN MO NE ND SD,"Public, 4-year or above",Public,No,No,City: Midsize,Research Universities (very high research activity),178396,38.94531,-92.328843,Columbia,https://missouri.edu/,178396,University of Missouri-Columbia,32.0,77.0,75.0,78.0,34.0,30.0,89.0,18.0,52.0,650.0,650.0,MO,1
178402,University of Missouri-Kansas City,Plains IA KS MN MO NE ND SD,"Public, 4-year or above",Public,No,No,City: Large,Research Universities (high research activity),178402,39.034179,-94.582141,Kansas City,https://www.umkc.edu/,178402,University of Missouri-Kansas City,30.0,76.0,72.0,78.0,33.0,29.0,75.0,16.0,29.0,680.0,710.0,MO,1
178411,Missouri University of Science and Technology,Plains IA KS MN MO NE ND SD,"Public, 4-year or above",Public,No,No,Town: Remote,Research Universities (high research activity),178411,37.953426,-91.775583,Rolla,https://www.mst.edu/,178411,Missouri University of Science and Technology,25.0,85.0,86.0,85.0,27.0,20.0,85.0,19.0,22.0,660.0,640.0,MO,1
178420,University of Missouri-St Louis,Plains IA KS MN MO NE ND SD,"Public, 4-year or above",Public,No,No,Suburb: Large,Research Universities (high research activity),178420,38.710312,-90.311091,Saint Louis,www.umsl.edu/,178420,University of Missouri-St Louis,17.0,57.0,59.0,55.0,20.0,15.0,82.0,19.0,37.0,,,MO,1
179159,Saint Louis University,Plains IA KS MN MO NE ND SD,"Private not-for-profit, 4-year or above",Private not-for-profit,No,No,City: Large,Research Universities (high research activity),179159,38.636801,-90.2351,Saint Louis,www.slu.edu/,179159,Saint Louis University,17.0,70.0,69.0,71.0,16.0,17.0,90.0,9.0,73.0,660.0,680.0,MO,2
179326,Southwest Baptist University,Plains IA KS MN MO NE ND SD,"Private not-for-profit, 4-year or above",Private not-for-profit,No,No,Town: Distant,Master's Colleges and Universities (larger programs),179326,37.602425,-93.407056,Bolivar,www.sbuniv.edu/,179326,Southwest Baptist University,36.0,96.0,98.0,95.0,36.0,35.0,64.0,12.0,39.0,530.0,530.0,MO,2
179867,Washington University in St Louis,Plains IA KS MN MO NE ND SD,"Private not-for-profit, 4-year or above",Private not-for-profit,No,No,Suburb: Large,Research Universities (very high research activity),179867,38.647929,-90.310604,Saint Louis,www.wustl.edu/,179867,Washington University in St Louis,45.0,13.0,14.0,13.0,44.0,46.0,94.0,7.0,87.0,760.0,790.0,MO,2
179894,Webster University,Plains IA KS MN MO NE ND SD,"Private not-for-profit, 4-year or above",Private not-for-profit,No,No,Suburb: Large,Master's Colleges and Universities (larger programs),179894,38.588875,-90.345151,Saint Louis,www.webster.edu/,179894,Webster University,25.0,59.0,61.0,58.0,24.0,26.0,77.0,12.0,45.0,630.0,615.0,MO,2
179964,William Woods University,Plains IA KS MN MO NE ND SD,"Private not-for-profit, 4-year or above",Private not-for-profit,No,No,Town: Distant,Master's Colleges and Universities (larger programs),179964,38.860287,-91.950416,Fulton,https://www.williamwoods.edu/,179964,William Woods University,13.0,68.0,68.0,69.0,14.0,12.0,70.0,10.0,49.0,540.0,520.0,MO,2
180416,Montana Tech of the University of Montana,Rocky Mountains CO ID MT UT WY,"Public, 4-year or above",Public,No,No,Town: Remote,Baccalaureate Colleges--Diverse Fields,180416,46.012868,-112.559511,Butte,https://www.mtech.edu/,180416,Montana Technological University,23.0,90.0,88.0,93.0,24.0,21.0,80.0,13.0,36.0,600.0,640.0,MT,1
180461,Montana State University,Rocky Mountains CO ID MT UT WY,"Public, 4-year or above",Public,No,No,Town: Remote,Research Universities (very high research activity),180461,45.666726,-111.048812,Bozeman,www.montana.edu/,180461,Montana State University,20.0,73.0,78.0,69.0,24.0,17.0,78.0,17.0,31.0,630.0,640.0,MT,1
180489,The University of Montana,Rocky Mountains CO ID MT UT WY,"Public, 4-year or above",Public,No,No,City: Small,Research Universities (high research activity),180489,46.859312,-113.982912,Missoula,www.umt.edu/,180489,The University of Montana,26.0,82.0,81.0,83.0,25.0,27.0,74.0,18.0,33.0,620.0,600.0,MT,1
180814,Bellevue University,Plains IA KS MN MO NE ND SD,"Private not-for-profit, 4-year or above",Private not-for-profit,No,No,Suburb: Large,Master's Colleges and Universities (larger programs),180814,41.150225,-95.91764,Bellevue,www.bellevue.edu/,180814,Bellevue University,,,,,,,51.0,16.0,19.0,,,NE,2
181002,Creighton University,Plains IA KS MN MO NE ND SD,"Private not-for-profit, 4-year or above",Private not-for-profit,No,No,City: Large,Master's Colleges and Universities (larger programs),181002,41.265361,-95.947811,Omaha,https://www.creighton.edu/,181002,Creighton University,18.0,78.0,78.0,78.0,18.0,18.0,92.0,12.0,70.0,630.0,650.0,NE,2
181020,Doane College-Crete,Plains IA KS MN MO NE ND SD,"Private not-for-profit, 4-year or above",Private not-for-profit,No,No,Town: Distant,Baccalaureate Colleges--Arts & Sciences,181020,40.622952,-96.950932,Crete,www.doane.edu/,181020,Doane University,17.0,77.0,73.0,86.0,16.0,19.0,77.0,11.0,54.0,510.0,550.0,NE,2
181394,University of Nebraska at Omaha,Plains IA KS MN MO NE ND SD,"Public, 4-year or above",Public,No,No,City: Large,Doctoral/Research Universities,181394,41.258769,-96.008516,Omaha,https://www.unomaha.edu/,181394,University of Nebraska at Omaha,28.0,87.0,87.0,88.0,29.0,28.0,77.0,16.0,25.0,618.0,610.0,NE,1
181464,University of Nebraska-Lincoln,Plains IA KS MN MO NE ND SD,"Public, 4-year or above",Public,No,No,City: Large,Research Universities (very high research activity),181464,40.817598,-96.700508,Lincoln,www.unl.edu/,181464,University of Nebraska-Lincoln,33.0,81.0,81.0,81.0,34.0,32.0,85.0,16.0,46.0,630.0,660.0,NE,1
181604,College of Saint Mary,Plains IA KS MN MO NE ND SD,"Private not-for-profit, 4-year or above",Private not-for-profit,No,No,City: Large,Master's Colleges and Universities (smaller programs),181604,41.240028,-96.021425,Omaha,www.csm.edu/,181604,College of Saint Mary,25.0,38.0,,38.0,,25.0,77.0,9.0,49.0,,,NE,2
182281,University of Nevada-Las Vegas,Far West AK CA HI NV OR WA,"Public, 4-year or above",Public,No,No,City: Midsize,Research Universities (high research activity),182281,36.106047,-115.138462,Las Vegas,www.unlv.edu/,182281,University of Nevada-Las Vegas,38.0,83.0,80.0,86.0,41.0,36.0,80.0,18.0,19.0,560.0,560.0,NV,1
182290,University of Nevada-Reno,Far West AK CA HI NV OR WA,"Public, 4-year or above",Public,No,No,City: Midsize,Research Universities (high research activity),182290,39.543642,-119.815377,Reno,www.unr.edu/,182290,University of Nevada-Reno,41.0,88.0,87.0,89.0,42.0,40.0,80.0,17.0,40.0,590.0,600.0,NV,1
182670,Dartmouth College,New England CT ME MA NH RI VT,"Private not-for-profit, 4-year or above",Private not-for-profit,No,No,Town: Remote,Research Universities (very high research activity),182670,43.704115,-72.289949,Hanover,www.dartmouth.edu/,182670,Dartmouth College,70.0,6.0,7.0,6.0,69.0,71.0,96.0,7.0,86.0,780.0,780.0,NH,2
182980,New England College,New England CT ME MA NH RI VT,"Private not-for-profit, 4-year or above",Private not-for-profit,No,No,Rural: Distant,Master's Colleges and Universities (medium programs),182980,43.176403,-71.822282,Henniker,www.nec.edu/,182980,New England College,4.0,100.0,100.0,100.0,5.0,3.0,62.0,13.0,20.0,,,NH,2
183026,Southern New Hampshire University,New England CT ME MA NH RI VT,"Private not-for-profit, 4-year or above",Private not-for-profit,No,No,City: Midsize,Master's Colleges and Universities (larger programs),183026,43.038922,-71.451842,Manchester,www.snhu.edu/,183026,Southern New Hampshire University,41.0,92.0,91.0,93.0,40.0,42.0,67.0,21.0,31.0,,,NH,2
183044,University of New Hampshire-Main Campus,New England CT ME MA NH RI VT,"Public, 4-year or above",Public,No,No,Suburb: Small,Research Universities (high research activity),183044,43.135934,-70.932465,Durham,www.unh.edu/,183044,University of New Hampshire-Main Campus,16.0,87.0,82.0,90.0,17.0,15.0,86.0,16.0,70.0,600.0,610.0,NH,1
183080,Plymouth State University,New England CT ME MA NH RI VT,"Public, 4-year or above",Public,No,No,Town: Remote,Master's Colleges and Universities (larger programs),183080,43.759573,-71.690164,Plymouth,www.plymouth.edu/,183080,Plymouth State University,15.0,92.0,89.0,94.0,17.0,13.0,70.0,17.0,46.0,,,NH,1
183211,Rivier University,New England CT ME MA NH RI VT,"Private not-for-profit, 4-year or above",Private not-for-profit,No,No,City: Small,Master's Colleges and Universities (larger programs),183211,42.738676,-71.45626,Nashua,www.rivier.edu/,183211,Rivier University,21.0,84.0,80.0,86.0,20.0,21.0,70.0,15.0,49.0,,,NH,2
183910,Caldwell College,Mid East DE DC MD NJ NY PA,"Private not-for-profit, 4-year or above",Private not-for-profit,No,No,Suburb: Large,Master's Colleges and Universities (medium programs),183910,40.832753,-74.272571,Caldwell,www.caldwell.edu/,183910,Caldwell University,10.0,96.0,95.0,96.0,14.0,8.0,82.0,13.0,49.0,530.0,550.0,NJ,2
183974,Centenary College,Mid East DE DC MD NJ NY PA,"Private not-for-profit, 4-year or above",Private not-for-profit,No,No,Suburb: Large,Master's Colleges and Universities (medium programs),183974,40.84764,-74.833644,Hackettstown,www.centenaryuniversity.edu/,183974,Centenary University,18.0,98.0,98.0,97.0,18.0,18.0,73.0,10.0,59.0,510.0,510.0,NJ,2
184348,Drew University,Mid East DE DC MD NJ NY PA,"Private not-for-profit, 4-year or above",Private not-for-profit,No,No,Suburb: Large,Baccalaureate Colleges--Arts & Sciences,184348,40.761829,-74.424584,Madison,www.drew.edu/,184348,Drew University,13.0,80.0,76.0,82.0,13.0,12.0,88.0,12.0,68.0,,,NJ,2
184603,Fairleigh Dickinson University-Metropolitan Campus,Mid East DE DC MD NJ NY PA,"Private not-for-profit, 4-year or above",Private not-for-profit,No,No,Suburb: Large,Master's Colleges and Universities (larger programs),184603,40.897209,-74.028986,Teaneck,www.fdu.edu/,184603,Fairleigh Dickinson University-Metropolitan Campus,14.0,85.0,82.0,87.0,16.0,12.0,75.0,15.0,38.0,540.0,560.0,NJ,2
184612,Felician College,Mid East DE DC MD NJ NY PA,"Private not-for-profit, 4-year or above",Private not-for-profit,No,No,Suburb: Large,Master's Colleges and Universities (smaller programs),184612,40.867272,-74.096452,Lodi,www.felician.edu/,184612,Felician University,14.0,92.0,88.0,94.0,16.0,14.0,79.0,14.0,28.0,470.0,500.0,NJ,2
184782,Rowan University,Mid East DE DC MD NJ NY PA,"Public, 4-year or above",Public,No,No,Suburb: Large,Master's Colleges and Universities (larger programs),184782,39.709108,-75.119119,Glassboro,https://www.rowan.edu/,184782,Rowan University,22.0,84.0,83.0,85.0,25.0,20.0,84.0,17.0,46.0,580.0,610.0,NJ,1
185129,New Jersey City University,Mid East DE DC MD NJ NY PA,"Public, 4-year or above",Public,No,No,City: Large,Master's Colleges and Universities (larger programs),185129,40.709937,-74.08727,Jersey City,www.njcu.edu/,185129,New Jersey City University,15.0,91.0,88.0,92.0,19.0,13.0,77.0,14.0,17.0,470.0,500.0,NJ,1
185262,Kean University,Mid East DE DC MD NJ NY PA,"Public, 4-year or above",Public,No,No,Suburb: Large,Master's Colleges and Universities (larger programs),185262,40.677981,-74.233503,Union,https://www.kean.edu/,185262,Kean University,21.0,79.0,73.0,83.0,24.0,19.0,74.0,18.0,24.0,500.0,520.0,NJ,1
185590,Montclair State University,Mid East DE DC MD NJ NY PA,"Public, 4-year or above",Public,No,No,Suburb: Large,Master's Colleges and Universities (larger programs),185590,40.860414,-74.198141,Montclair,www.montclair.edu/,185590,Montclair State University,21.0,91.0,88.0,92.0,22.0,20.0,83.0,18.0,47.0,,,NJ,1
185828,New Jersey Institute of Technology,Mid East DE DC MD NJ NY PA,"Public, 4-year or above",Public,No,No,City: Large,Research Universities (high research activity),185828,40.741997,-74.177113,Newark,www.njit.edu/,185828,New Jersey Institute of Technology,17.0,69.0,66.0,75.0,19.0,13.0,89.0,15.0,38.0,630.0,680.0,NJ,1
186131,Princeton University,Mid East DE DC MD NJ NY PA,"Private not-for-profit, 4-year or above",Private not-for-profit,No,No,Suburb: Large,Research Universities (very high research activity),186131,40.348732,-74.659365,Princeton,www.princeton.edu/,186131,Princeton University,78.0,4.0,4.0,5.0,79.0,77.0,83.0,4.0,90.0,790.0,800.0,NJ,2
186283,Rider University,Mid East DE DC MD NJ NY PA,"Private not-for-profit, 4-year or above",Private not-for-profit,No,No,Suburb: Large,Master's Colleges and Universities (larger programs),186283,40.278796,-74.737833,Lawrenceville,www.rider.edu/,186283,Rider University,9.0,82.0,82.0,82.0,9.0,9.0,79.0,10.0,54.0,550.0,560.0,NJ,2
186371,Rutgers University-Camden,Mid East DE DC MD NJ NY PA,"Public, 4-year or above",Public,No,No,City: Small,Master's Colleges and Universities (medium programs),186371,39.948064,-75.12224,Camden,https://www.camden.rutgers.edu/,186371,Rutgers University-Camden,7.0,79.0,78.0,79.0,7.0,7.0,85.0,15.0,43.0,550.0,570.0,NJ,1
186380,Rutgers University-New Brunswick,Mid East DE DC MD NJ NY PA,"Public, 4-year or above",Public,No,No,City: Small,Research Universities (very high research activity),186380,40.498769,-74.446251,New Brunswick,https://newbrunswick.rutgers.edu/,186380,Rutgers University-New Brunswick,24.0,68.0,67.0,69.0,26.0,22.0,93.0,16.0,68.0,640.0,700.0,NJ,1
186399,Rutgers University-Newark,Mid East DE DC MD NJ NY PA,"Public, 4-year or above",Public,No,No,City: Large,Research Universities (high research activity),186399,40.739122,-74.175809,Newark,https://www.newark.rutgers.edu/,186399,Rutgers University-Newark,12.0,77.0,75.0,80.0,13.0,10.0,87.0,15.0,35.0,550.0,580.0,NJ,1
186432,Saint Peter's University,Mid East DE DC MD NJ NY PA,"Private not-for-profit, 4-year or above",Private not-for-profit,No,No,City: Large,Master's Colleges and Universities (larger programs),186432,40.727105,-74.071541,Jersey City,www.saintpeters.edu/,186432,Saint Peter's University,16.0,93.0,91.0,94.0,16.0,17.0,75.0,13.0,47.0,500.0,515.0,NJ,2
186584,Seton Hall University,Mid East DE DC MD NJ NY PA,"Private not-for-profit, 4-year or above",Private not-for-profit,No,No,Suburb: Large,Doctoral/Research Universities,186584,40.742336,-74.246027,South Orange,https://www.shu.edu/,186584,Seton Hall University,9.0,77.0,75.0,77.0,9.0,10.0,84.0,14.0,66.0,610.0,620.0,NJ,2
186618,College of Saint Elizabeth,Mid East DE DC MD NJ NY PA,"Private not-for-profit, 4-year or above",Private not-for-profit,No,No,Suburb: Large,Master's Colleges and Universities (larger programs),186618,40.78182,-74.438221,Morristown,www.steu.edu/,186618,Saint Elizabeth University,11.0,74.0,67.0,78.0,15.0,10.0,76.0,11.0,29.0,443.0,460.0,NJ,2
186867,Stevens Institute of Technology,Mid East DE DC MD NJ NY PA,"Private not-for-profit, 4-year or above",Private not-for-profit,No,No,Suburb: Large,Research Universities (high research activity),186867,40.744776,-74.025334,Hoboken,www.stevens.edu/,186867,Stevens Institute of Technology,18.0,53.0,49.0,59.0,20.0,16.0,93.0,12.0,63.0,680.0,745.0,NJ,2
186876,The Richard Stockton College of New Jersey,Mid East DE DC MD NJ NY PA,"Public, 4-year or above",Public,No,No,Suburb: Midsize,Master's Colleges and Universities (medium programs),186876,39.492036,-74.531087,Galloway,https://www.stockton.edu/,186876,Stockton University,26.0,85.0,85.0,84.0,28.0,24.0,85.0,18.0,60.0,580.0,600.0,NJ,1
187967,New Mexico Institute of Mining and Technology,Southwest AZ NM OK TX,"Public, 4-year or above",Public,No,No,Town: Remote,Master's Colleges and Universities (medium programs),187967,34.067041,-106.905211,Socorro,www.nmt.edu/,187967,New Mexico Institute of Mining and Technology,31.0,97.0,97.0,96.0,36.0,24.0,81.0,8.0,31.0,650.0,680.0,NM,1
187985,University of New Mexico-Main Campus,Southwest AZ NM OK TX,"Public, 4-year or above",Public,No,No,City: Large,Research Universities (very high research activity),187985,35.083868,-106.620155,Albuquerque,www.unm.edu/,187985,University of New Mexico-Main Campus,28.0,97.0,97.0,97.0,29.0,27.0,77.0,19.0,34.0,610.0,600.0,NM,1
188030,New Mexico State University-Main Campus,Southwest AZ NM OK TX,"Public, 4-year or above",Public,No,No,Suburb: Midsize,Research Universities (high research activity),188030,32.281568,-106.752069,Las Cruces,www.nmsu.edu/,188030,New Mexico State University-Main Campus,28.0,57.0,57.0,58.0,30.0,27.0,75.0,16.0,26.0,530.0,540.0,NM,1
188182,University of the Southwest,Southwest AZ NM OK TX,"Private not-for-profit, 4-year or above",Private not-for-profit,No,No,Rural: Fringe,Baccalaureate Colleges--Diverse Fields,188182,32.775496,-103.186948,Hobbs,www.usw.edu/,188182,University of the Southwest,,,,,,,74.0,17.0,7.0,,,NM,2
188429,Adelphi University,Mid East DE DC MD NJ NY PA,"Private not-for-profit, 4-year or above",Private not-for-profit,No,No,Suburb: Large,Doctoral/Research Universities,188429,40.721439,-73.653321,Garden City,www.adelphi.edu/,188429,Adelphi University,11.0,77.0,73.0,80.0,10.0,11.0,82.0,12.0,62.0,600.0,620.0,NY,2
188641,Alfred University,Mid East DE DC MD NJ NY PA,"Private not-for-profit, 4-year or above",Private not-for-profit,No,No,Town: Remote,Master's Colleges and Universities (larger programs),188641,42.254476,-77.788106,Alfred,www.alfred.edu/,188641,Alfred University,9.0,67.0,63.0,71.0,10.0,8.0,67.0,11.0,46.0,570.0,580.0,NY,2
189088,Bard College,Mid East DE DC MD NJ NY PA,"Private not-for-profit, 4-year or above",Private not-for-profit,No,No,Town: Fringe,Baccalaureate Colleges--Arts & Sciences,189088,42.020386,-73.909927,Annandale-On-Hudson,www.bard.edu/,189088,Bard College,15.0,60.0,56.0,62.0,18.0,14.0,80.0,9.0,57.0,,,NY,2
190044,Clarkson University,Mid East DE DC MD NJ NY PA,"Private not-for-profit, 4-year or above",Private not-for-profit,No,No,Town: Remote,Research Universities (high research activity),190044,44.662716,-74.999359,Potsdam,https://www.clarkson.edu/,190044,Clarkson University,14.0,75.0,77.0,72.0,16.0,11.0,87.0,13.0,63.0,630.0,660.0,NY,2
190150,Columbia University in the City of New York,Mid East DE DC MD NJ NY PA,"Private not-for-profit, 4-year or above",Private not-for-profit,No,No,City: Large,Research Universities (very high research activity),190150,40.808286,-73.961885,New York,www.columbia.edu/,190150,Columbia University in the City of New York,65.0,4.0,5.0,4.0,66.0,64.0,95.0,6.0,88.0,780.0,790.0,NY,2
190415,Cornell University,Mid East DE DC MD NJ NY PA,"Private not-for-profit, 4-year or above",Private not-for-profit,No,No,City: Small,Research Universities (very high research activity),190415,42.4472,-76.483084,Ithaca,www.cornell.edu/,190415,Cornell University,64.0,9.0,8.0,10.0,64.0,63.0,96.0,9.0,88.0,750.0,780.0,NY,2
190512,CUNY Bernard M Baruch College,Mid East DE DC MD NJ NY PA,"Public, 4-year or above",Public,No,No,City: Large,Master's Colleges and Universities (larger programs),190512,40.740238,-73.983417,New York,www.baruch.cuny.edu/,190512,CUNY Bernard M Baruch College,21.0,51.0,42.0,58.0,26.0,19.0,88.0,20.0,49.0,630.0,690.0,NY,1
190558,College of Staten Island CUNY,Mid East DE DC MD NJ NY PA,"Public, 4-year or above",Public,No,No,City: Large,Master's Colleges and Universities (larger programs),190558,40.601831,-74.14849,Staten Island,www.csi.cuny.edu/,190558,College of Staten Island CUNY,,,,,,,81.0,20.0,26.0,,,NY,1
190567,CUNY City College,Mid East DE DC MD NJ NY PA,"Public, 4-year or above",Public,No,No,City: Large,Master's Colleges and Universities (larger programs),190567,40.819846,-73.948542,New York,www.ccny.cuny.edu/,190567,CUNY City College,13.0,64.0,53.0,73.0,15.0,12.0,80.0,15.0,24.0,600.0,650.0,NY,1
190576,CUNY Graduate School and University Center,Mid East DE DC MD NJ NY PA,"Public, 4-year or above",Public,No,No,City: Large,Research Universities (very high research activity),190576,40.748612,-73.983822,New York,www.gc.cuny.edu/,190576,CUNY Graduate School and University Center,,,,,,,,10.0,,,,NY,1
190594,CUNY Hunter College,Mid East DE DC MD NJ NY PA,"Public, 4-year or above",Public,No,No,City: Large,Master's Colleges and Universities (larger programs),190594,40.768669,-73.964795,New York,www.hunter.cuny.edu/,190594,CUNY Hunter College,23.0,46.0,39.0,50.0,20.0,24.0,84.0,15.0,31.0,620.0,640.0,NY,1
190716,D'Youville College,Mid East DE DC MD NJ NY PA,"Private not-for-profit, 4-year or above",Private not-for-profit,No,No,City: Large,Master's Colleges and Universities (larger programs),190716,42.902636,-78.890868,Buffalo,www.dyc.edu/,190716,D'Youville College,14.0,92.0,92.0,93.0,18.0,13.0,73.0,7.0,37.0,550.0,560.0,NY,2
191241,Fordham University,Mid East DE DC MD NJ NY PA,"Private not-for-profit, 4-year or above",Private not-for-profit,No,No,City: Large,Research Universities (high research activity),191241,40.859354,-73.882705,Bronx,www.fordham.edu/,191241,Fordham University,11.0,58.0,52.0,62.0,11.0,10.0,89.0,13.0,78.0,670.0,680.0,NY,2
191649,Hofstra University,Mid East DE DC MD NJ NY PA,"Private not-for-profit, 4-year or above",Private not-for-profit,No,No,Suburb: Large,Doctoral/Research Universities,191649,40.715959,-73.60078,Hempstead,www.hofstra.edu/,191649,Hofstra University,10.0,68.0,65.0,69.0,11.0,9.0,82.0,13.0,60.0,,,NY,2
192323,Le Moyne College,Mid East DE DC MD NJ NY PA,"Private not-for-profit, 4-year or above",Private not-for-profit,No,No,City: Midsize,Master's Colleges and Universities (larger programs),192323,43.049192,-76.090435,Syracuse,www.lemoyne.edu/,192323,Le Moyne College,11.0,73.0,69.0,76.0,12.0,11.0,83.0,13.0,68.0,580.0,590.0,NY,2
192448,LIU Post,Mid East DE DC MD NJ NY PA,"Private not-for-profit, 4-year or above",Private not-for-profit,No,No,Suburb: Large,Master's Colleges and Universities (larger programs),192448,40.820714,-73.593678,Brookville,www.liu.edu/,192448,Long Island University,7.0,93.0,91.0,94.0,10.0,6.0,77.0,10.0,33.0,550.0,560.0,NY,2
192749,Manhattanville College,Mid East DE DC MD NJ NY PA,"Private not-for-profit, 4-year or above",Private not-for-profit,No,No,Suburb: Large,Master's Colleges and Universities (larger programs),192749,41.032187,-73.715645,Purchase,www.mville.edu/,192749,Manhattanville College,9.0,83.0,80.0,85.0,11.0,8.0,80.0,10.0,54.0,,,NY,2
193292,Molloy College,Mid East DE DC MD NJ NY PA,"Private not-for-profit, 4-year or above",Private not-for-profit,No,No,Suburb: Large,Master's Colleges and Universities (larger programs),193292,40.685941,-73.626183,Rockville Centre,www.molloy.edu/,193292,Molloy College,13.0,79.0,79.0,79.0,14.0,13.0,88.0,10.0,45.0,570.0,580.0,NY,2
193654,The New School,Mid East DE DC MD NJ NY PA,"Private not-for-profit, 4-year or above",Private not-for-profit,No,No,City: Large,Doctoral/Research Universities,193654,40.735508,-73.997114,New York,https://www.newschool.edu/,193654,The New School,30.0,66.0,65.0,67.0,26.0,31.0,71.0,9.0,56.0,,,NY,2
193900,New York University,Mid East DE DC MD NJ NY PA,"Private not-for-profit, 4-year or above",Private not-for-profit,No,No,City: Large,Research Universities (very high research activity),193900,40.729452,-73.997264,New York,www.nyu.edu/,193900,New York University,49.0,13.0,13.0,13.0,50.0,49.0,90.0,8.0,78.0,720.0,750.0,NY,2
193973,Niagara University,Mid East DE DC MD NJ NY PA,"Private not-for-profit, 4-year or above",Private not-for-profit,No,No,Suburb: Large,Master's Colleges and Universities (larger programs),193973,43.137279,-79.036689,Niagara University,www.niagara.edu/,193973,Niagara University,19.0,92.0,91.0,93.0,22.0,17.0,80.0,11.0,65.0,563.0,570.0,NY,2
194091,New York Institute of Technology,Mid East DE DC MD NJ NY PA,"Private not-for-profit, 4-year or above",Private not-for-profit,No,No,Suburb: Large,Master's Colleges and Universities (larger programs),194091,40.812447,-73.6078,Old Westbury,www.nyit.edu/,194091,New York Institute of Technology,11.0,80.0,79.0,82.0,14.0,9.0,76.0,11.0,38.0,570.0,610.0,NY,2
194310,Pace University-New York,Mid East DE DC MD NJ NY PA,"Private not-for-profit, 4-year or above",Private not-for-profit,No,No,City: Large,Doctoral/Research Universities,194310,40.711014,-74.004719,New York,www.pace.edu/,194310,Pace University,10.0,88.0,84.0,89.0,11.0,10.0,73.0,14.0,46.0,580.0,580.0,NY,2
194824,Rensselaer Polytechnic Institute,Mid East DE DC MD NJ NY PA,"Private not-for-profit, 4-year or above",Private not-for-profit,No,No,City: Small,Research Universities (very high research activity),194824,42.729978,-73.676646,Troy,www.rpi.edu/,194824,Rensselaer Polytechnic Institute,14.0,53.0,52.0,55.0,15.0,12.0,91.0,17.0,70.0,720.0,770.0,NY,2
195003,Rochester Institute of Technology,Mid East DE DC MD NJ NY PA,"Private not-for-profit, 4-year or above",Private not-for-profit,No,No,Suburb: Large,Master's Colleges and Universities (larger programs),195003,43.084188,-77.67386,Rochester,www.rit.edu/,195003,Rochester Institute of Technology,21.0,71.0,70.0,74.0,24.0,18.0,86.0,13.0,25.0,660.0,680.0,NY,2
195030,University of Rochester,Mid East DE DC MD NJ NY PA,"Private not-for-profit, 4-year or above",Private not-for-profit,No,No,City: Midsize,Research Universities (very high research activity),195030,43.126397,-77.631202,Rochester,https://www.rochester.edu/,195030,University of Rochester,20.0,41.0,37.0,45.0,22.0,19.0,92.0,10.0,76.0,,,NY,2
195128,The Sage Colleges,Mid East DE DC MD NJ NY PA,"Private not-for-profit, 4-year or above",Private not-for-profit,No,No,City: Small,Master's Colleges and Universities (larger programs),195128,42.72822,-73.693711,Troy,www.sage.edu/,195128,Russell Sage College,19.0,73.0,67.0,76.0,23.0,18.0,77.0,11.0,52.0,,,NY,2
195720,Saint John Fisher College,Mid East DE DC MD NJ NY PA,"Private not-for-profit, 4-year or above",Private not-for-profit,No,No,Suburb: Large,Doctoral/Research Universities,195720,43.116259,-77.513056,Rochester,https://www.sjfc.edu/,195720,Saint John Fisher College,19.0,71.0,71.0,71.0,22.0,17.0,90.0,12.0,65.0,570.0,600.0,NY,2
195809,St John's University-New York,Mid East DE DC MD NJ NY PA,"Private not-for-profit, 4-year or above",Private not-for-profit,No,No,City: Large,Doctoral/Research Universities,195809,40.722523,-73.796104,Queens,www.stjohns.edu/,195809,St. John's University-New York,13.0,85.0,82.0,87.0,15.0,12.0,83.0,16.0,52.0,580.0,600.0,NY,2
196060,SUNY at Albany,Mid East DE DC MD NJ NY PA,"Public, 4-year or above",Public,No,No,City: Small,Research Universities (very high research activity),196060,42.685489,-73.824662,Albany,www.albany.edu/,196060,SUNY at Albany,21.0,68.0,64.0,71.0,22.0,21.0,83.0,19.0,59.0,580.0,590.0,NY,1
196079,SUNY at Binghamton,Mid East DE DC MD NJ NY PA,"Public, 4-year or above",Public,No,No,Suburb: Midsize,Research Universities (high research activity),196079,42.087868,-75.966889,Vestal,www.binghamton.edu/,196079,Binghamton University,18.0,44.0,57.0,34.0,14.0,22.0,92.0,19.0,75.0,680.0,703.0,NY,1
196088,University at Buffalo,Mid East DE DC MD NJ NY PA,"Public, 4-year or above",Public,No,No,Suburb: Large,Research Universities (very high research activity),196088,43.000942,-78.789458,Buffalo,www.buffalo.edu/,196088,University at Buffalo,20.0,70.0,68.0,72.0,23.0,18.0,87.0,14.0,60.0,610.0,650.0,NY,1
196097,Stony Brook University,Mid East DE DC MD NJ NY PA,"Public, 4-year or above",Public,No,No,Suburb: Large,Research Universities (very high research activity),196097,40.91476,-73.12046,Stony Brook,https://www.stonybrook.edu/,196097,Stony Brook University,18.0,48.0,45.0,50.0,20.0,17.0,90.0,19.0,64.0,660.0,720.0,NY,1
196103,SUNY College of Environmental Science and Forestry,Mid East DE DC MD NJ NY PA,"Public, 4-year or above",Public,No,No,City: Midsize,Doctoral/Research Universities,196103,43.034765,-76.138724,Syracuse,www.esf.edu/,196103,SUNY College of Environmental Science and Forestry,21.0,65.0,61.0,69.0,22.0,21.0,86.0,14.0,68.0,640.0,660.0,NY,1
196112,SUNY Institute of Technology at Utica-Rome,Mid East DE DC MD NJ NY PA,"Public, 4-year or above",Public,No,No,Suburb: Midsize,Master's Colleges and Universities (medium programs),196112,43.137701,-75.229841,Utica,www.sunypoly.edu/,196112,SUNY Polytechnic Institute,15.0,77.0,76.0,81.0,16.0,12.0,82.0,13.0,58.0,640.0,670.0,NY,1
196264,SUNY Empire State College,Mid East DE DC MD NJ NY PA,"Public, 4-year or above",Public,No,No,Suburb: Small,Master's Colleges and Universities (medium programs),196264,43.077283,-73.782484,Saratoga Springs,www.esc.edu/,196264,SUNY Empire State College,,,,,,,65.0,18.0,14.0,,,NY,1
196413,Syracuse University,Mid East DE DC MD NJ NY PA,"Private not-for-profit, 4-year or above",Private not-for-profit,No,No,City: Midsize,Research Universities (high research activity),196413,43.040176,-76.136975,Syracuse,https://www.syracuse.edu/,196413,Syracuse University,16.0,59.0,57.0,61.0,18.0,15.0,89.0,15.0,72.0,630.0,660.0,NY,2
196468,Teachers College at Columbia University,Mid East DE DC MD NJ NY PA,"Private not-for-profit, 4-year or above",Private not-for-profit,No,No,City: Large,Research Universities (high research activity),196468,40.810216,-73.960194,New York,www.tc.columbia.edu/,196468,Teachers College at Columbia University,,,,,,,,,,,,NY,2
196592,Touro College,Mid East DE DC MD NJ NY PA,"Private not-for-profit, 4-year or above",Private not-for-profit,No,No,City: Large,Master's Colleges and Universities (larger programs),196592,40.753199,-73.989404,New York,www.touro.edu/,196592,Touro College,44.0,77.0,73.0,79.0,50.0,41.0,90.0,11.0,57.0,,,NY,2
197708,Yeshiva University,Mid East DE DC MD NJ NY PA,"Private not-for-profit, 4-year or above",Private not-for-profit,No,No,City: Large,Research Universities (very high research activity),197708,40.850605,-73.929873,New York,www.yu.edu/,197708,Yeshiva University,56.0,63.0,64.0,61.0,58.0,54.0,90.0,7.0,71.0,690.0,680.0,NY,2
197869,Appalachian State University,Southeast AL AR FL GA KY LA MS NC SC TN VA WV,"Public, 4-year or above",Public,No,No,Town: Distant,Master's Colleges and Universities (larger programs),197869,36.215536,-81.680583,Boone,www.appstate.edu/,197869,Appalachian State University,23.0,85.0,80.0,88.0,25.0,21.0,86.0,16.0,57.0,620.0,620.0,NC,1
198419,Duke University,Southeast AL AR FL GA KY LA MS NC SC TN VA WV,"Private not-for-profit, 4-year or above",Private not-for-profit,No,No,City: Midsize,Research Universities (very high research activity),198419,36.001135,-78.937624,Durham,www.duke.edu/,198419,Duke University,60.0,6.0,6.0,6.0,59.0,60.0,97.0,6.0,89.0,760.0,790.0,NC,2
198464,East Carolina University,Southeast AL AR FL GA KY LA MS NC SC TN VA WV,"Public, 4-year or above",Public,No,No,City: Small,Doctoral/Research Universities,198464,35.607186,-77.368291,Greenville,www.ecu.edu/,198464,East Carolina University,20.0,94.0,92.0,95.0,22.0,19.0,83.0,19.0,45.0,560.0,570.0,NC,1
198543,Fayetteville State University,Southeast AL AR FL GA KY LA MS NC SC TN VA WV,"Public, 4-year or above",Public,Yes,No,City: Midsize,Master's Colleges and Universities (medium programs),198543,35.073641,-78.891696,Fayetteville,https://www.uncfsu.edu/,198543,Fayetteville State University,19.0,82.0,75.0,85.0,22.0,17.0,66.0,17.0,23.0,460.0,470.0,NC,1
198561,Gardner-Webb University,Southeast AL AR FL GA KY LA MS NC SC TN VA WV,"Private not-for-profit, 4-year or above",Private not-for-profit,No,No,Town: Distant,Master's Colleges and Universities (larger programs),198561,35.24732,-81.668141,Boiling Springs,www.gardner-webb.edu/,198561,Gardner-Webb University,10.0,79.0,77.0,80.0,13.0,8.0,68.0,13.0,36.0,530.0,550.0,NC,2
198695,High Point University,Southeast AL AR FL GA KY LA MS NC SC TN VA WV,"Private not-for-profit, 4-year or above",Private not-for-profit,No,No,City: Midsize,Baccalaureate Colleges--Diverse Fields,198695,35.972035,-79.994675,High Point,www.highpoint.edu/,198695,High Point University,16.0,80.0,76.0,83.0,19.0,14.0,82.0,17.0,65.0,593.0,603.0,NC,2
199102,North Carolina A & T State University,Southeast AL AR FL GA KY LA MS NC SC TN VA WV,"Public, 4-year or above",Public,Yes,No,City: Large,Doctoral/Research Universities,199102,36.07282,-79.773375,Greensboro,www.ncat.edu/,199102,North Carolina A & T State University,24.0,57.0,53.0,59.0,27.0,22.0,80.0,19.0,29.0,490.0,500.0,NC,1
199120,University of North Carolina at Chapel Hill,Southeast AL AR FL GA KY LA MS NC SC TN VA WV,"Public, 4-year or above",Public,No,No,City: Small,Research Universities (very high research activity),199120,35.911769,-79.050969,Chapel Hill,www.unc.edu/,199120,University of North Carolina at Chapel Hill,45.0,20.0,20.0,21.0,43.0,47.0,95.0,13.0,84.0,710.0,720.0,NC,1
199139,University of North Carolina at Charlotte,Southeast AL AR FL GA KY LA MS NC SC TN VA WV,"Public, 4-year or above",Public,No,No,City: Large,Doctoral/Research Universities,199139,35.306022,-80.730919,Charlotte,https://www.uncc.edu/,199139,University of North Carolina at Charlotte,26.0,79.0,77.0,81.0,30.0,23.0,85.0,20.0,43.0,580.0,600.0,NC,1
199148,University of North Carolina at Greensboro,Southeast AL AR FL GA KY LA MS NC SC TN VA WV,"Public, 4-year or above",Public,No,No,City: Large,Research Universities (high research activity),199148,36.068236,-79.809414,Greensboro,www.uncg.edu/,199148,University of North Carolina at Greensboro,26.0,91.0,89.0,92.0,27.0,26.0,81.0,16.0,38.0,560.0,550.0,NC,1
199157,North Carolina Central University,Southeast AL AR FL GA KY LA MS NC SC TN VA WV,"Public, 4-year or above",Public,Yes,No,City: Midsize,Master's Colleges and Universities (larger programs),199157,35.974237,-78.898602,Durham,https://www.nccu.edu/,199157,North Carolina Central University,18.0,76.0,72.0,78.0,19.0,18.0,78.0,16.0,29.0,470.0,470.0,NC,1
199193,North Carolina State University at Raleigh,Southeast AL AR FL GA KY LA MS NC SC TN VA WV,"Public, 4-year or above",Public,No,No,City: Large,Research Universities (very high research activity),199193,35.785111,-78.674517,Raleigh,www.ncsu.edu/,199193,North Carolina State University at Raleigh,32.0,47.0,42.0,53.0,36.0,29.0,94.0,14.0,64.0,650.0,680.0,NC,1
199218,University of North Carolina Wilmington,Southeast AL AR FL GA KY LA MS NC SC TN VA WV,"Public, 4-year or above",Public,No,No,City: Midsize,Master's Colleges and Universities (larger programs),199218,34.225223,-77.875527,Wilmington,www.uncw.edu/,199218,University of North Carolina Wilmington,23.0,68.0,61.0,72.0,24.0,22.0,84.0,17.0,56.0,630.0,630.0,NC,1
199847,Wake Forest University,Southeast AL AR FL GA KY LA MS NC SC TN VA WV,"Private not-for-profit, 4-year or above",Private not-for-profit,No,No,City: Midsize,Research Universities (high research activity),199847,36.133609,-80.277446,Winston-Salem,www.wfu.edu/,199847,Wake Forest University,37.0,25.0,24.0,26.0,38.0,36.0,95.0,11.0,86.0,,,NC,2
199962,Wingate University,Southeast AL AR FL GA KY LA MS NC SC TN VA WV,"Private not-for-profit, 4-year or above",Private not-for-profit,No,No,Suburb: Large,Master's Colleges and Universities (smaller programs),199962,34.986064,-80.44305,Wingate,https://www.wingate.edu/,199962,Wingate University,5.0,85.0,80.0,87.0,7.0,5.0,64.0,15.0,53.0,560.0,570.0,NC,2
200004,Western Carolina University,Southeast AL AR FL GA KY LA MS NC SC TN VA WV,"Public, 4-year or above",Public,No,No,Rural: Fringe,Master's Colleges and Universities (larger programs),200004,35.308979,-83.186258,Cullowhee,www.wcu.edu/,200004,Western Carolina University,18.0,79.0,79.0,80.0,21.0,16.0,81.0,17.0,43.0,560.0,570.0,NC,1
200217,University of Mary,Plains IA KS MN MO NE ND SD,"Private not-for-profit, 4-year or above",Private not-for-profit,No,No,Rural: Fringe,Master's Colleges and Universities (larger programs),200217,46.723767,-100.75274,Bismarck,https://www.umary.edu/,200217,University of Mary,42.0,79.0,77.0,80.0,42.0,42.0,78.0,11.0,51.0,600.0,580.0,ND,2
200280,University of North Dakota,Plains IA KS MN MO NE ND SD,"Public, 4-year or above",Public,No,No,City: Small,Research Universities (high research activity),200280,47.921654,-97.071738,Grand Forks,https://und.edu/,200280,University of North Dakota,33.0,89.0,87.0,91.0,32.0,34.0,81.0,17.0,40.0,590.0,590.0,ND,1
200332,North Dakota State University-Main Campus,Plains IA KS MN MO NE ND SD,"Public, 4-year or above",Public,No,No,City: Midsize,Research Universities (very high research activity),200332,46.893127,-96.800838,Fargo,https://www.ndsu.edu/,200332,North Dakota State University-Main Campus,32.0,95.0,94.0,96.0,36.0,29.0,82.0,19.0,41.0,630.0,630.0,ND,1
200800,University of Akron Main Campus,Great Lakes IL IN MI OH WI,"Public, 4-year or above",Public,No,No,City: Midsize,Research Universities (high research activity),200800,41.078551,-81.511679,Akron,www.uakron.edu/,200800,University of Akron Main Campus,22.0,85.0,84.0,86.0,26.0,19.0,75.0,16.0,22.0,580.0,610.0,OH,1
201104,Ashland University,Great Lakes IL IN MI OH WI,"Private not-for-profit, 4-year or above",Private not-for-profit,No,No,Town: Fringe,Doctoral/Research Universities,201104,40.861755,-82.321061,Ashland,https://www.ashland.edu/,201104,Ashland University,23.0,70.0,68.0,72.0,30.0,17.0,77.0,16.0,56.0,550.0,540.0,OH,2
201441,Bowling Green State University-Main Campus,Great Lakes IL IN MI OH WI,"Public, 4-year or above",Public,No,No,Town: Fringe,Research Universities (high research activity),201441,41.375513,-83.640896,Bowling Green,www.bgsu.edu/,201441,Bowling Green State University-Main Campus,19.0,79.0,78.0,79.0,21.0,18.0,79.0,19.0,46.0,570.0,580.0,OH,1
201645,Case Western Reserve University,Great Lakes IL IN MI OH WI,"Private not-for-profit, 4-year or above",Private not-for-profit,No,No,City: Large,Research Universities (very high research activity),201645,41.507419,-81.609596,Cleveland,www.case.edu/,201645,Case Western Reserve University,16.0,30.0,29.0,31.0,16.0,16.0,93.0,11.0,67.0,720.0,770.0,OH,2
201885,University of Cincinnati-Main Campus,Great Lakes IL IN MI OH WI,"Public, 4-year or above",Public,No,No,City: Large,Research Universities (very high research activity),201885,39.131159,-84.51428,Cincinnati,www.uc.edu/,201885,University of Cincinnati-Main Campus,25.0,85.0,86.0,84.0,27.0,23.0,88.0,19.0,38.0,630.0,660.0,OH,1
202134,Cleveland State University,Great Lakes IL IN MI OH WI,"Public, 4-year or above",Public,No,No,City: Large,Research Universities (high research activity),202134,41.502281,-81.674355,Cleveland,www.csuohio.edu/,202134,Cleveland State University,18.0,91.0,91.0,92.0,21.0,16.0,76.0,15.0,33.0,570.0,580.0,OH,1
202480,University of Dayton,Great Lakes IL IN MI OH WI,"Private not-for-profit, 4-year or above",Private not-for-profit,No,No,City: Midsize,Research Universities (high research activity),202480,39.739547,-84.176113,Dayton,https://udayton.edu/,202480,University of Dayton,15.0,81.0,77.0,84.0,17.0,14.0,91.0,15.0,64.0,620.0,630.0,OH,2
202763,The University of Findlay,Great Lakes IL IN MI OH WI,"Private not-for-profit, 4-year or above",Private not-for-profit,No,No,Town: Distant,Master's Colleges and Universities (larger programs),202763,41.053344,-83.652313,Findlay,www.findlay.edu/,202763,The University of Findlay,22.0,84.0,83.0,84.0,23.0,21.0,79.0,14.0,47.0,560.0,480.0,OH,2
203517,Kent State University at Kent,Great Lakes IL IN MI OH WI,"Public, 4-year or above",Public,No,No,Suburb: Large,Research Universities (high research activity),203517,41.146653,-81.342533,Kent,www.kent.edu/,203517,Kent State University at Kent,23.0,87.0,85.0,89.0,22.0,24.0,82.0,21.0,62.0,580.0,580.0,OH,1
204024,Miami University-Oxford,Great Lakes IL IN MI OH WI,"Public, 4-year or above",Public,No,No,Town: Fringe,Research Universities (high research activity),204024,39.507757,-84.732954,Oxford,miamioh.edu/,204024,Miami University-Oxford,17.0,89.0,89.0,88.0,18.0,16.0,88.0,16.0,73.0,650.0,690.0,OH,1
204796,Ohio State University-Main Campus,Great Lakes IL IN MI OH WI,"Public, 4-year or above",Public,No,No,City: Large,Research Universities (very high research activity),204796,39.999324,-83.014853,Columbus,www.osu.edu/,204796,Ohio State University-Main Campus,25.0,57.0,55.0,59.0,25.0,26.0,94.0,19.0,67.0,670.0,720.0,OH,1
204857,Ohio University-Main Campus,Great Lakes IL IN MI OH WI,"Public, 4-year or above",Public,No,No,Town: Distant,Research Universities (high research activity),204857,39.326798,-82.100985,Athens,https://www.ohio.edu/,204857,Ohio University-Main Campus,19.0,89.0,87.0,90.0,21.0,18.0,81.0,16.0,51.0,600.0,610.0,OH,1
206048,Tiffin University,Great Lakes IL IN MI OH WI,"Private not-for-profit, 4-year or above",Private not-for-profit,No,No,Town: Distant,Master's Colleges and Universities (larger programs),206048,41.118316,-83.184197,Tiffin,www.tiffin.edu/,206048,Tiffin University,18.0,74.0,72.0,76.0,15.0,21.0,66.0,15.0,36.0,,,OH,2
206084,University of Toledo,Great Lakes IL IN MI OH WI,"Public, 4-year or above",Public,No,No,City: Large,Research Universities (high research activity),206084,41.660572,-83.614714,Toledo,www.utoledo.edu/,206084,University of Toledo,24.0,97.0,96.0,97.0,26.0,24.0,78.0,21.0,32.0,580.0,620.0,OH,1
206279,Union Institute & University,Great Lakes IL IN MI OH WI,"Private not-for-profit, 4-year or above",Private not-for-profit,No,No,City: Large,Doctoral/Research Universities,206279,39.126921,-84.500166,Cincinnati,https://www.myunion.edu/,206279,Union Institute & University,,,,,,,0.0,7.0,33.0,,,OH,2
206604,Wright State University-Main Campus,Great Lakes IL IN MI OH WI,"Public, 4-year or above",Public,No,No,Suburb: Large,Research Universities (high research activity),206604,39.780634,-84.064881,Dayton,www.wright.edu/,206604,Wright State University-Main Campus,19.0,96.0,95.0,97.0,20.0,18.0,65.0,14.0,27.0,600.0,600.0,OH,1
206695,Youngstown State University,Great Lakes IL IN MI OH WI,"Public, 4-year or above",Public,No,No,City: Small,Master's Colleges and Universities (larger programs),206695,41.104928,-80.64659,Youngstown,https://ysu.edu/,206695,Youngstown State University,31.0,78.0,77.0,79.0,36.0,28.0,76.0,18.0,24.0,530.0,530.0,OH,1
206862,Southern Nazarene University,Southwest AZ NM OK TX,"Private not-for-profit, 4-year or above",Private not-for-profit,No,No,Suburb: Large,Master's Colleges and Universities (larger programs),206862,35.513295,-97.629504,Bethany,snu.edu/,206862,Southern Nazarene University,,,,,,,68.0,14.0,45.0,,,OK,2
207388,Oklahoma State University-Main Campus,Southwest AZ NM OK TX,"Public, 4-year or above",Public,No,No,Town: Distant,Research Universities (high research activity),207388,36.123085,-97.069743,Stillwater,www.okstate.edu/,207388,Oklahoma State University-Main Campus,37.0,68.0,68.0,68.0,40.0,35.0,85.0,18.0,45.0,590.0,620.0,OK,1
207458,Oklahoma City University,Southwest AZ NM OK TX,"Private not-for-profit, 4-year or above",Private not-for-profit,No,No,City: Large,Master's Colleges and Universities (larger programs),207458,35.495271,-97.541242,Oklahoma City,www.okcu.edu/,207458,Oklahoma City University,26.0,79.0,75.0,81.0,26.0,25.0,76.0,10.0,55.0,600.0,610.0,OK,2
207500,University of Oklahoma-Norman Campus,Southwest AZ NM OK TX,"Public, 4-year or above",Public,No,No,Suburb: Midsize,Research Universities (very high research activity),207500,35.209407,-97.444211,Norman,www.ou.edu/,207500,University of Oklahoma-Norman Campus,31.0,85.0,83.0,86.0,32.0,30.0,87.0,20.0,50.0,670.0,670.0,OK,1
207582,Oral Roberts University,Southwest AZ NM OK TX,"Private not-for-profit, 4-year or above",Private not-for-profit,No,No,City: Large,Master's Colleges and Universities (smaller programs),207582,36.049129,-95.952547,Tulsa,https://oru.edu/,207582,Oral Roberts University,23.0,85.0,82.0,87.0,24.0,22.0,78.0,16.0,49.0,550.0,560.0,OK,2
207971,University of Tulsa,Southwest AZ NM OK TX,"Private not-for-profit, 4-year or above",Private not-for-profit,No,No,City: Large,Doctoral/Research Universities,207971,36.152324,-95.945941,Tulsa,https://utulsa.edu/,207971,University of Tulsa,13.0,75.0,73.0,77.0,15.0,12.0,84.0,10.0,58.0,700.0,700.0,OK,2
208822,George Fox University,Far West AK CA HI NV OR WA,"Private not-for-profit, 4-year or above",Private not-for-profit,No,No,Town: Fringe,Master's Colleges and Universities (larger programs),208822,45.303629,-122.967494,Newberg,www.georgefox.edu/,208822,George Fox University,20.0,83.0,84.0,82.0,21.0,19.0,83.0,13.0,60.0,600.0,600.0,OR,2
209542,Oregon State University,Far West AK CA HI NV OR WA,"Public, 4-year or above",Public,No,No,City: Small,Research Universities (very high research activity),209542,44.56395,-123.274723,Corvallis,https://oregonstate.edu/,209542,Oregon State University,19.0,89.0,87.0,91.0,22.0,17.0,85.0,18.0,41.0,610.0,630.0,OR,1
209551,University of Oregon,Far West AK CA HI NV OR WA,"Public, 4-year or above",Public,No,No,City: Midsize,Research Universities (very high research activity),209551,44.045146,-123.075792,Eugene,https://www.uoregon.edu/,209551,University of Oregon,16.0,93.0,92.0,95.0,16.0,15.0,84.0,18.0,61.0,620.0,610.0,OR,1
209612,Pacific University,Far West AK CA HI NV OR WA,"Private not-for-profit, 4-year or above",Private not-for-profit,No,No,Suburb: Large,Master's Colleges and Universities (larger programs),209612,45.521394,-123.108777,Forest Grove,https://www.pacificu.edu/,209612,Pacific University,18.0,91.0,90.0,92.0,18.0,17.0,84.0,10.0,64.0,590.0,600.0,OR,2
209807,Portland State University,Far West AK CA HI NV OR WA,"Public, 4-year or above",Public,No,No,City: Large,Research Universities (high research activity),209807,45.511601,-122.686289,Portland,www.pdx.edu/,209807,Portland State University,26.0,98.0,98.0,99.0,29.0,24.0,75.0,19.0,29.0,590.0,570.0,OR,1
210775,Alvernia University,Mid East DE DC MD NJ NY PA,"Private not-for-profit, 4-year or above",Private not-for-profit,No,No,City: Small,Master's Colleges and Universities (medium programs),210775,40.310028,-75.936754,Reading,https://www.alvernia.edu/,210775,Alvernia University,13.0,58.0,49.0,67.0,14.0,13.0,71.0,14.0,41.0,540.0,550.0,PA,2
211088,Arcadia University,Mid East DE DC MD NJ NY PA,"Private not-for-profit, 4-year or above",Private not-for-profit,No,No,Suburb: Large,Master's Colleges and Universities (larger programs),211088,40.092606,-75.163876,Glenside,https://www.arcadia.edu/,211088,Arcadia University,8.0,82.0,77.0,85.0,10.0,8.0,74.0,11.0,54.0,600.0,600.0,PA,2
211273,Bryn Mawr College,Mid East DE DC MD NJ NY PA,"Private not-for-profit, 4-year or above",Private not-for-profit,No,No,Suburb: Large,Baccalaureate Colleges--Arts & Sciences,211273,40.02736,-75.313223,Bryn Mawr,www.brynmawr.edu/,211273,Bryn Mawr College,32.0,39.0,,39.0,,32.0,87.0,8.0,81.0,730.0,730.0,PA,2
211352,Cabrini College,Mid East DE DC MD NJ NY PA,"Private not-for-profit, 4-year or above",Private not-for-profit,No,No,Suburb: Large,Master's Colleges and Universities (larger programs),211352,40.056355,-75.375263,Radnor,www.cabrini.edu/,211352,Cabrini University,12.0,80.0,76.0,82.0,16.0,10.0,76.0,15.0,43.0,,,PA,2
211440,Carnegie Mellon University,Mid East DE DC MD NJ NY PA,"Private not-for-profit, 4-year or above",Private not-for-profit,No,No,City: Large,Research Universities (very high research activity),211440,40.44357,-79.941993,Pittsburgh,www.cmu.edu/,211440,Carnegie Mellon University,43.0,14.0,11.0,18.0,43.0,42.0,96.0,5.0,79.0,740.0,800.0,PA,2
211981,Delaware Valley College,Mid East DE DC MD NJ NY PA,"Private not-for-profit, 4-year or above",Private not-for-profit,No,No,Suburb: Large,Baccalaureate Colleges--Diverse Fields,211981,40.298659,-75.158452,Doylestown,www.delval.edu/,211981,Delaware Valley University,22.0,93.0,90.0,95.0,20.0,23.0,72.0,13.0,46.0,550.0,560.0,PA,2
212054,Drexel University,Mid East DE DC MD NJ NY PA,"Private not-for-profit, 4-year or above",Private not-for-profit,No,No,City: Large,Research Universities (high research activity),212054,39.955217,-75.190051,Philadelphia,https://drexel.edu/,212054,Drexel University,10.0,83.0,81.0,84.0,10.0,10.0,88.0,11.0,31.0,630.0,680.0,PA,2
212106,Duquesne University,Mid East DE DC MD NJ NY PA,"Private not-for-profit, 4-year or above",Private not-for-profit,No,No,City: Large,Research Universities (high research activity),212106,40.43589,-79.993123,Pittsburgh,www.duq.edu/,212106,Duquesne University,14.0,84.0,84.0,84.0,15.0,13.0,86.0,13.0,67.0,600.0,610.0,PA,2
212133,Eastern University,Mid East DE DC MD NJ NY PA,"Private not-for-profit, 4-year or above",Private not-for-profit,No,No,Suburb: Large,Master's Colleges and Universities (larger programs),212133,40.050448,-75.370316,Saint Davids,https://www.eastern.edu/about/student-consumer-information,212133,Eastern University,26.0,69.0,66.0,71.0,30.0,27.0,82.0,12.0,50.0,580.0,560.0,PA,2
212601,Gannon University,Mid East DE DC MD NJ NY PA,"Private not-for-profit, 4-year or above",Private not-for-profit,No,No,City: Midsize,Master's Colleges and Universities (larger programs),212601,42.128403,-80.087166,Erie,www.gannon.edu/,212601,Gannon University,16.0,84.0,80.0,86.0,17.0,15.0,85.0,13.0,51.0,560.0,570.0,PA,2
212771,Gratz College,Mid East DE DC MD NJ NY PA,"Private not-for-profit, 4-year or above",Private not-for-profit,No,No,Suburb: Large,Master's Colleges and Universities (larger programs),212771,40.067206,-75.133915,Melrose Park,https://www.gratz.edu/,212771,Gratz College,,,,,,,,12.0,,,,PA,2
212832,Gwynedd Mercy University,Mid East DE DC MD NJ NY PA,"Private not-for-profit, 4-year or above",Private not-for-profit,No,No,Suburb: Large,Master's Colleges and Universities (medium programs),212832,40.202804,-75.236601,Gwynedd Valley,https://www.gmercyu.edu/,212832,Gwynedd Mercy University,22.0,91.0,86.0,92.0,23.0,21.0,78.0,11.0,51.0,500.0,510.0,PA,2
212984,Holy Family University,Mid East DE DC MD NJ NY PA,"Private not-for-profit, 4-year or above",Private not-for-profit,No,No,City: Large,Master's Colleges and Universities (larger programs),212984,40.060581,-74.986451,Philadelphia,https://www.holyfamily.edu/,212984,Holy Family University,24.0,77.0,69.0,81.0,23.0,24.0,83.0,13.0,51.0,510.0,500.0,PA,2
213011,Immaculata University,Mid East DE DC MD NJ NY PA,"Private not-for-profit, 4-year or above",Private not-for-profit,No,No,Suburb: Large,Doctoral/Research Universities,213011,40.027981,-75.570711,Immaculata,www.immaculata.edu/,213011,Immaculata University,18.0,80.0,75.0,82.0,19.0,17.0,83.0,10.0,56.0,530.0,550.0,PA,2
213020,Indiana University of Pennsylvania-Main Campus,Mid East DE DC MD NJ NY PA,"Public, 4-year or above",Public,No,No,Town: Distant,Doctoral/Research Universities,213020,40.617531,-79.159332,Indiana,www.iup.edu/,213020,Indiana University of Pennsylvania-Main Campus,21.0,94.0,92.0,95.0,25.0,19.0,72.0,18.0,41.0,530.0,530.0,PA,1
213543,Lehigh University,Mid East DE DC MD NJ NY PA,"Private not-for-profit, 4-year or above",Private not-for-profit,No,No,City: Small,Research Universities (high research activity),213543,40.606822,-75.380236,Bethlehem,www.lehigh.edu/,213543,Lehigh University,23.0,46.0,41.0,51.0,26.0,21.0,91.0,9.0,78.0,680.0,740.0,PA,2
213826,Marywood University,Mid East DE DC MD NJ NY PA,"Private not-for-profit, 4-year or above",Private not-for-profit,No,No,City: Small,Master's Colleges and Universities (larger programs),213826,41.434587,-75.634142,Scranton,www.marywood.edu/,213826,Marywood University,22.0,82.0,74.0,85.0,24.0,21.0,83.0,11.0,56.0,560.0,560.0,PA,2
213987,Mercyhurst University,Mid East DE DC MD NJ NY PA,"Private not-for-profit, 4-year or above",Private not-for-profit,No,No,City: Midsize,Master's Colleges and Universities (smaller programs),213987,42.10578,-80.053412,Erie,www.mercyhurst.edu/,213987,Mercyhurst University,19.0,82.0,81.0,83.0,21.0,18.0,80.0,15.0,59.0,,,PA,2
214272,Neumann University,Mid East DE DC MD NJ NY PA,"Private not-for-profit, 4-year or above",Private not-for-profit,No,No,Suburb: Large,Master's Colleges and Universities (medium programs),214272,39.874876,-75.440022,Aston,www.neumann.edu/,214272,Neumann University,12.0,84.0,82.0,85.0,15.0,11.0,77.0,14.0,34.0,490.0,500.0,PA,2
215062,University of Pennsylvania,Mid East DE DC MD NJ NY PA,"Private not-for-profit, 4-year or above",Private not-for-profit,No,No,City: Large,Research Universities (very high research activity),215062,39.950929,-75.19391,Philadelphia,www.upenn.edu/,215062,University of Pennsylvania,73.0,6.0,6.0,6.0,73.0,73.0,95.0,6.0,89.0,760.0,790.0,PA,2
215293,University of Pittsburgh-Pittsburgh Campus,Mid East DE DC MD NJ NY PA,"Public, 4-year or above",Public,No,No,City: Large,Research Universities (very high research activity),215293,40.444388,-79.953254,Pittsburgh,www.pitt.edu/,215293,University of Pittsburgh-Pittsburgh Campus,21.0,67.0,64.0,69.0,21.0,21.0,93.0,14.0,69.0,660.0,690.0,PA,1
215442,Point Park University,Mid East DE DC MD NJ NY PA,"Private not-for-profit, 4-year or above",Private not-for-profit,No,No,City: Large,Master's Colleges and Universities (larger programs),215442,40.438768,-80.002061,Pittsburgh,www.pointpark.edu/,215442,Point Park University,12.0,82.0,78.0,84.0,14.0,11.0,73.0,12.0,54.0,560.0,530.0,PA,2
215655,Robert Morris University,Mid East DE DC MD NJ NY PA,"Private not-for-profit, 4-year or above",Private not-for-profit,No,No,Suburb: Large,Master's Colleges and Universities (larger programs),215655,40.520415,-80.210468,Moon Township,www.rmu.edu/,215655,Robert Morris University,14.0,94.0,93.0,95.0,17.0,12.0,81.0,14.0,53.0,570.0,580.0,PA,2
215770,Saint Joseph's University,Mid East DE DC MD NJ NY PA,"Private not-for-profit, 4-year or above",Private not-for-profit,No,No,City: Large,Master's Colleges and Universities (larger programs),215770,39.994442,-75.238343,Philadelphia,https://www.sju.edu/,215770,Saint Joseph's University,15.0,83.0,81.0,85.0,17.0,14.0,89.0,11.0,76.0,,,PA,2
215929,University of Scranton,Mid East DE DC MD NJ NY PA,"Private not-for-profit, 4-year or above",Private not-for-profit,No,No,City: Small,Master's Colleges and Universities (larger programs),215929,41.406556,-75.656915,Scranton,www.scranton.edu/,215929,University of Scranton,12.0,80.0,84.0,78.0,12.0,12.0,89.0,12.0,76.0,610.0,620.0,PA,2
216038,Slippery Rock University of Pennsylvania,Mid East DE DC MD NJ NY PA,"Public, 4-year or above",Public,No,No,Town: Distant,Master's Colleges and Universities (larger programs),216038,41.062719,-80.045965,Slippery Rock,https://www.sru.edu/,216038,Slippery Rock University of Pennsylvania,35.0,79.0,79.0,80.0,36.0,34.0,83.0,21.0,54.0,540.0,540.0,PA,1
216339,Temple University,Mid East DE DC MD NJ NY PA,"Public, 4-year or above",Public,No,No,City: Large,Research Universities (high research activity),216339,39.980546,-75.156859,Philadelphia,www.temple.edu/,216339,Temple University,18.0,72.0,70.0,74.0,20.0,17.0,87.0,13.0,57.0,,,PA,1
216597,Villanova University,Mid East DE DC MD NJ NY PA,"Private not-for-profit, 4-year or above",Private not-for-profit,No,No,Suburb: Large,Master's Colleges and Universities (larger programs),216597,40.039388,-75.345457,Villanova,www.villanova.edu/,216597,Villanova University,29.0,25.0,27.0,24.0,27.0,31.0,96.0,11.0,88.0,690.0,710.0,PA,2
216694,Waynesburg University,Mid East DE DC MD NJ NY PA,"Private not-for-profit, 4-year or above",Private not-for-profit,No,No,Town: Distant,Master's Colleges and Universities (larger programs),216694,39.899871,-80.186205,Waynesburg,www.waynesburg.edu/,216694,Waynesburg University,19.0,75.0,72.0,78.0,19.0,20.0,79.0,11.0,58.0,550.0,550.0,PA,2
216764,West Chester University of Pennsylvania,Mid East DE DC MD NJ NY PA,"Public, 4-year or above",Public,No,No,Suburb: Large,Master's Colleges and Universities (larger programs),216764,39.953398,-75.59812,West Chester,https://www.wcupa.edu/,216764,West Chester University of Pennsylvania,21.0,89.0,85.0,92.0,24.0,19.0,85.0,20.0,53.0,580.0,580.0,PA,1
216852,Widener University-Main Campus,Mid East DE DC MD NJ NY PA,"Private not-for-profit, 4-year or above",Private not-for-profit,No,No,Suburb: Large,Doctoral/Research Universities,216852,39.861689,-75.355363,Chester,https://www.widener.edu/,216852,Widener University,13.0,85.0,81.0,88.0,13.0,13.0,81.0,13.0,55.0,550.0,570.0,PA,2
216931,Wilkes University,Mid East DE DC MD NJ NY PA,"Private not-for-profit, 4-year or above",Private not-for-profit,No,No,City: Small,Master's Colleges and Universities (larger programs),216931,41.244199,-75.890262,Wilkes-Barre,https://www.wilkes.edu/,216931,Wilkes University,15.0,95.0,94.0,96.0,14.0,15.0,76.0,13.0,50.0,578.0,598.0,PA,2
217156,Brown University,New England CT ME MA NH RI VT,"Private not-for-profit, 4-year or above",Private not-for-profit,No,No,City: Midsize,Research Universities (very high research activity),217156,41.82617,-71.40385,Providence,www.brown.edu/,217156,Brown University,66.0,6.0,7.0,5.0,67.0,65.0,92.0,6.0,86.0,780.0,780.0,RI,2
217235,Johnson & Wales University-Providence,New England CT ME MA NH RI VT,"Private not-for-profit, 4-year or above",Private not-for-profit,No,No,City: Midsize,Master's Colleges and Universities (larger programs),217235,41.819956,-71.41277,Providence,https://www.jwu.edu/campuses/providence/,217235,Johnson & Wales University-Providence,14.0,88.0,85.0,90.0,16.0,13.0,70.0,16.0,51.0,,,RI,2
217420,Rhode Island College,New England CT ME MA NH RI VT,"Public, 4-year or above",Public,No,No,Suburb: Large,Master's Colleges and Universities (larger programs),217420,41.842415,-71.46556,Providence,www.ric.edu/,217420,Rhode Island College,20.0,85.0,81.0,87.0,21.0,20.0,76.0,14.0,21.0,520.0,510.0,RI,1
217484,University of Rhode Island,New England CT ME MA NH RI VT,"Public, 4-year or above",Public,No,No,Suburb: Large,Research Universities (high research activity),217484,41.484691,-71.527356,Kingston,https://web.uri.edu/,217484,University of Rhode Island,17.0,76.0,72.0,79.0,20.0,16.0,85.0,17.0,53.0,580.0,590.0,RI,1
217536,Salve Regina University,New England CT ME MA NH RI VT,"Private not-for-profit, 4-year or above",Private not-for-profit,No,No,Suburb: Large,Master's Colleges and Universities (medium programs),217536,41.471545,-71.30124,Newport,www.salve.edu/,217536,Salve Regina University,15.0,73.0,70.0,75.0,18.0,14.0,83.0,13.0,71.0,,,RI,2
217633,Anderson University,Southeast AL AR FL GA KY LA MS NC SC TN VA WV,"Private not-for-profit, 4-year or above",Private not-for-profit,No,No,City: Small,Baccalaureate Colleges--Diverse Fields,217633,34.5152,-82.640358,Anderson,www.andersonuniversity.edu/,217633,Anderson University,34.0,50.0,50.0,50.0,38.0,33.0,84.0,16.0,51.0,593.0,590.0,SC,2
217776,Southern Wesleyan University,Southeast AL AR FL GA KY LA MS NC SC TN VA WV,"Private not-for-profit, 4-year or above",Private not-for-profit,No,No,Suburb: Large,Master's Colleges and Universities (larger programs),217776,34.728068,-82.761586,Central,www.swu.edu/,217776,Southern Wesleyan University,38.0,57.0,59.0,57.0,38.0,39.0,74.0,13.0,45.0,,,SC,2
217882,Clemson University,Southeast AL AR FL GA KY LA MS NC SC TN VA WV,"Public, 4-year or above",Public,No,No,Suburb: Large,Research Universities (high research activity),217882,34.679381,-82.835114,Clemson,www.clemson.edu/,217882,Clemson University,20.0,49.0,47.0,51.0,23.0,18.0,94.0,16.0,65.0,660.0,690.0,SC,1
217925,Columbia International University,Southeast AL AR FL GA KY LA MS NC SC TN VA WV,"Private not-for-profit, 4-year or above",Private not-for-profit,No,No,City: Midsize,Master's Colleges and Universities (smaller programs),217925,34.07551,-81.07443,Columbia,www.ciu.edu/,217925,Columbia International University,73.0,46.0,47.0,44.0,74.0,72.0,69.0,15.0,57.0,580.0,550.0,SC,2
217961,Converse College,Southeast AL AR FL GA KY LA MS NC SC TN VA WV,"Private not-for-profit, 4-year or above",Private not-for-profit,No,No,City: Small,Master's Colleges and Universities (medium programs),217961,34.955534,-81.917881,Spartanburg,www.converse.edu/,217961,Converse University,15.0,82.0,69.0,90.0,16.0,15.0,73.0,11.0,52.0,590.0,550.0,SC,2
217998,Erskine College,Southeast AL AR FL GA KY LA MS NC SC TN VA WV,"Private not-for-profit, 4-year or above",Private not-for-profit,No,No,Rural: Distant,Baccalaureate Colleges--Arts & Sciences,217998,34.332087,-82.39095,Due West,www.erskine.edu/,217998,Erskine College,40.0,63.0,63.0,62.0,46.0,33.0,75.0,15.0,36.0,550.0,560.0,SC,2
218441,North Greenville University,Southeast AL AR FL GA KY LA MS NC SC TN VA WV,"Private not-for-profit, 4-year or above",Private not-for-profit,No,No,Rural: Fringe,Baccalaureate Colleges--Diverse Fields,218441,35.069758,-82.37026,Tigerville,www.ngu.edu/,218441,North Greenville University,32.0,70.0,74.0,66.0,33.0,31.0,77.0,14.0,47.0,630.0,670.0,SC,2
218663,University of South Carolina-Columbia,Southeast AL AR FL GA KY LA MS NC SC TN VA WV,"Public, 4-year or above",Public,No,No,City: Midsize,Research Universities (very high research activity),218663,33.996788,-81.026935,Columbia,www.sc.edu/,218663,University of South Carolina-Columbia,24.0,62.0,60.0,62.0,25.0,23.0,90.0,18.0,67.0,640.0,650.0,SC,1
218724,Coastal Carolina University,Southeast AL AR FL GA KY LA MS NC SC TN VA WV,"Public, 4-year or above",Public,No,No,City: Small,Master's Colleges and Universities (smaller programs),218724,33.794995,-79.011767,Conway,www.coastal.edu/,218724,Coastal Carolina University,21.0,79.0,76.0,82.0,22.0,20.0,73.0,17.0,37.0,530.0,550.0,SC,1
218733,South Carolina State University,Southeast AL AR FL GA KY LA MS NC SC TN VA WV,"Public, 4-year or above",Public,Yes,No,Town: Distant,Doctoral/Research Universities,218733,33.497968,-80.848722,Orangeburg,www.scsu.edu/,218733,South Carolina State University,27.0,88.0,89.0,87.0,32.0,24.0,69.0,14.0,14.0,420.0,420.0,SC,1
219082,Dakota State University,Plains IA KS MN MO NE ND SD,"Public, 4-year or above",Public,No,No,Town: Distant,Master's Colleges and Universities (smaller programs),219082,44.013014,-97.113358,Madison,https://dsu.edu/,219082,Dakota State University,63.0,86.0,87.0,85.0,68.0,53.0,71.0,18.0,28.0,550.0,580.0,SD,1
219356,South Dakota State University,Plains IA KS MN MO NE ND SD,"Public, 4-year or above",Public,No,No,Town: Remote,Research Universities (high research activity),219356,44.317485,-96.782139,Brookings,https://www.sdstate.edu/,219356,South Dakota State University,40.0,87.0,87.0,88.0,42.0,39.0,81.0,17.0,42.0,560.0,600.0,SD,1
219471,University of South Dakota,Plains IA KS MN MO NE ND SD,"Public, 4-year or above",Public,No,No,Town: Distant,Research Universities (high research activity),219471,42.786019,-96.925283,Vermillion,www.usd.edu/,219471,University of South Dakota,33.0,87.0,86.0,88.0,34.0,33.0,81.0,15.0,43.0,520.0,610.0,SD,1
219602,Austin Peay State University,Southeast AL AR FL GA KY LA MS NC SC TN VA WV,"Public, 4-year or above",Public,No,No,City: Midsize,Master's Colleges and Universities (larger programs),219602,36.533319,-87.354081,Clarksville,www.apsu.edu/,219602,Austin Peay State University,30.0,93.0,92.0,95.0,36.0,27.0,70.0,16.0,23.0,620.0,580.0,TN,1
219806,Carson-Newman University,Southeast AL AR FL GA KY LA MS NC SC TN VA WV,"Private not-for-profit, 4-year or above",Private not-for-profit,No,No,Suburb: Small,Baccalaureate Colleges--Diverse Fields,219806,36.122934,-83.491709,Jefferson City,www.cn.edu/,219806,Carson-Newman University,17.0,79.0,76.0,80.0,21.0,14.0,69.0,14.0,49.0,550.0,550.0,TN,2
219976,Lipscomb University,Southeast AL AR FL GA KY LA MS NC SC TN VA WV,"Private not-for-profit, 4-year or above",Private not-for-profit,No,No,City: Large,Master's Colleges and Universities (larger programs),219976,36.106253,-86.799791,Nashville,https://www.lipscomb.edu/,219976,Lipscomb University,26.0,74.0,73.0,74.0,30.0,24.0,86.0,14.0,64.0,640.0,630.0,TN,2
220075,East Tennessee State University,Southeast AL AR FL GA KY LA MS NC SC TN VA WV,"Public, 4-year or above",Public,No,No,City: Small,Doctoral/Research Universities,220075,36.301643,-82.366954,Johnson City,https://www.etsu.edu/,220075,East Tennessee State University,25.0,87.0,87.0,88.0,28.0,23.0,78.0,16.0,35.0,540.0,590.0,TN,1
220215,Freed-Hardeman University,Southeast AL AR FL GA KY LA MS NC SC TN VA WV,"Private not-for-profit, 4-year or above",Private not-for-profit,No,No,Town: Distant,Master's Colleges and Universities (medium programs),220215,35.440611,-88.637964,Henderson,www.fhu.edu/,220215,Freed-Hardeman University,37.0,88.0,91.0,86.0,43.0,33.0,82.0,13.0,58.0,585.0,580.0,TN,2
220613,Lee University,Southeast AL AR FL GA KY LA MS NC SC TN VA WV,"Private not-for-profit, 4-year or above",Private not-for-profit,No,No,City: Small,Master's Colleges and Universities (medium programs),220613,35.166019,-84.871399,Cleveland,www.leeuniversity.edu/,220613,Lee University,34.0,83.0,85.0,82.0,40.0,31.0,81.0,15.0,46.0,610.0,570.0,TN,2
220631,Lincoln Memorial University,Southeast AL AR FL GA KY LA MS NC SC TN VA WV,"Private not-for-profit, 4-year or above",Private not-for-profit,No,No,Town: Remote,Master's Colleges and Universities (larger programs),220631,36.578508,-83.660198,Harrogate,www.lmunet.edu/,220631,Lincoln Memorial University,21.0,70.0,71.0,69.0,25.0,20.0,76.0,13.0,43.0,500.0,540.0,TN,2
220862,University of Memphis,Southeast AL AR FL GA KY LA MS NC SC TN VA WV,"Public, 4-year or above",Public,No,No,City: Large,Research Universities (high research activity),220862,35.118878,-89.938068,Memphis,www.memphis.edu/,220862,University of Memphis,18.0,95.0,94.0,96.0,21.0,17.0,80.0,16.0,32.0,580.0,570.0,TN,1
220978,Middle Tennessee State University,Southeast AL AR FL GA KY LA MS NC SC TN VA WV,"Public, 4-year or above",Public,No,No,City: Midsize,Doctoral/Research Universities,220978,35.848005,-86.360618,Murfreesboro,www.mtsu.edu/,220978,Middle Tennessee State University,36.0,68.0,69.0,68.0,38.0,34.0,79.0,17.0,35.0,630.0,610.0,TN,1
221740,The University of Tennessee-Chattanooga,Southeast AL AR FL GA KY LA MS NC SC TN VA WV,"Public, 4-year or above",Public,No,No,City: Midsize,Master's Colleges and Universities (larger programs),221740,35.047519,-85.300247,Chattanooga,www.utc.edu/,221740,The University of Tennessee-Chattanooga,32.0,86.0,84.0,87.0,35.0,30.0,77.0,18.0,35.0,570.0,580.0,TN,1
221759,The University of Tennessee-Knoxville,Southeast AL AR FL GA KY LA MS NC SC TN VA WV,"Public, 4-year or above",Public,No,No,City: Midsize,Research Universities (very high research activity),221759,35.952082,-83.925852,Knoxville,www.utk.edu/,221759,The University of Tennessee-Knoxville,27.0,75.0,72.0,77.0,30.0,24.0,89.0,17.0,54.0,630.0,630.0,TN,1
221838,Tennessee State University,Southeast AL AR FL GA KY LA MS NC SC TN VA WV,"Public, 4-year or above",Public,Yes,No,City: Large,Doctoral/Research Universities,221838,36.166321,-86.828275,Nashville,www.tnstate.edu/,221838,Tennessee State University,,,,,,,64.0,12.0,19.0,,,TN,1
221847,Tennessee Technological University,Southeast AL AR FL GA KY LA MS NC SC TN VA WV,"Public, 4-year or above",Public,No,No,Town: Remote,Master's Colleges and Universities (larger programs),221847,36.174754,-85.504039,Cookeville,www.tntech.edu/,221847,Tennessee Technological University,33.0,79.0,79.0,79.0,35.0,30.0,77.0,18.0,37.0,580.0,620.0,TN,1
221892,Trevecca Nazarene University,Southeast AL AR FL GA KY LA MS NC SC TN VA WV,"Private not-for-profit, 4-year or above",Private not-for-profit,No,No,City: Large,Doctoral/Research Universities,221892,36.141324,-86.754238,Nashville,https://www.trevecca.edu/,221892,Trevecca Nazarene University,35.0,78.0,75.0,79.0,38.0,34.0,74.0,13.0,39.0,560.0,570.0,TN,2
221971,Union University,Southeast AL AR FL GA KY LA MS NC SC TN VA WV,"Private not-for-profit, 4-year or above",Private not-for-profit,No,No,City: Small,Master's Colleges and Universities (larger programs),221971,35.676896,-88.858524,Jackson,www.uu.edu/,221971,Union University,25.0,53.0,56.0,52.0,31.0,23.0,87.0,10.0,58.0,650.0,650.0,TN,2
221999,Vanderbilt University,Southeast AL AR FL GA KY LA MS NC SC TN VA WV,"Private not-for-profit, 4-year or above",Private not-for-profit,No,No,City: Large,Research Universities (very high research activity),221999,36.14659,-86.803369,Nashville,www.vanderbilt.edu/,221999,Vanderbilt University,48.0,7.0,8.0,7.0,50.0,46.0,96.0,8.0,89.0,790.0,800.0,TN,2
222178,Abilene Christian University,Southwest AZ NM OK TX,"Private not-for-profit, 4-year or above",Private not-for-profit,No,No,City: Midsize,Master's Colleges and Universities (larger programs),222178,32.468943,-99.709797,Abilene,www.acu.edu/,222178,Abilene Christian University,14.0,70.0,67.0,72.0,17.0,13.0,76.0,13.0,47.0,590.0,590.0,TX,2
223232,Baylor University,Southwest AZ NM OK TX,"Private not-for-profit, 4-year or above",Private not-for-profit,No,No,City: Midsize,Research Universities (high research activity),223232,31.546872,-97.121041,Waco,www.baylor.edu/,223232,Baylor University,21.0,57.0,67.0,51.0,20.0,21.0,91.0,15.0,68.0,650.0,670.0,TX,2
224004,Concordia University-Texas,Southwest AZ NM OK TX,"Private not-for-profit, 4-year or above",Private not-for-profit,No,No,City: Large,Master's Colleges and Universities (larger programs),224004,30.420232,-97.835703,Austin,https://www.concordia.edu/,224004,Concordia University Texas,16.0,89.0,83.0,93.0,16.0,15.0,65.0,12.0,26.0,540.0,550.0,TX,2
224147,Texas A & M University-Corpus Christi,Southwest AZ NM OK TX,"Public, 4-year or above",Public,No,No,City: Large,Doctoral/Research Universities,224147,27.713723,-97.32395,Corpus Christi,https://www.tamucc.edu/,224147,Texas A & M University-Corpus Christi,27.0,91.0,90.0,92.0,29.0,26.0,57.0,20.0,18.0,530.0,540.0,TX,1
224226,Dallas Baptist University,Southwest AZ NM OK TX,"Private not-for-profit, 4-year or above",Private not-for-profit,No,No,City: Large,Master's Colleges and Universities (larger programs),224226,32.710017,-96.947006,Dallas,https://www.dbu.edu/,224226,Dallas Baptist University,11.0,94.0,94.0,94.0,12.0,10.0,76.0,14.0,46.0,610.0,600.0,TX,2
224323,University of Dallas,Southwest AZ NM OK TX,"Private not-for-profit, 4-year or above",Private not-for-profit,No,No,City: Midsize,Master's Colleges and Universities (larger programs),224323,32.846221,-96.919512,Irving,www.udallas.edu/,224323,University of Dallas,16.0,58.0,55.0,61.0,19.0,15.0,81.0,12.0,68.0,690.0,650.0,TX,2
224545,Texas A & M University-Texarkana,Southwest AZ NM OK TX,"Public, 4-year or above",Public,No,No,Rural: Fringe,Master's Colleges and Universities (larger programs),224545,33.490482,-94.103617,Texarkana,www.tamut.edu/,224545,Texas A&M University-Texarkana,14.0,96.0,96.0,96.0,16.0,13.0,64.0,14.0,19.0,540.0,540.0,TX,1
224554,Texas A & M University-Commerce,Southwest AZ NM OK TX,"Public, 4-year or above",Public,No,No,Town: Distant,Doctoral/Research Universities,224554,33.243745,-95.908451,Commerce,www.tamuc.edu/,224554,Texas A & M University-Commerce,20.0,87.0,83.0,89.0,24.0,19.0,58.0,21.0,26.0,540.0,540.0,TX,1
225247,Hardin-Simmons University,Southwest AZ NM OK TX,"Private not-for-profit, 4-year or above",Private not-for-profit,No,No,City: Midsize,Master's Colleges and Universities (medium programs),225247,32.476434,-99.73564,Abilene,https://www.hsutx.edu/,225247,Hardin-Simmons University,19.0,95.0,94.0,95.0,22.0,17.0,65.0,15.0,40.0,570.0,570.0,TX,2
225399,Houston Baptist University,Southwest AZ NM OK TX,"Private not-for-profit, 4-year or above",Private not-for-profit,No,No,City: Large,Master's Colleges and Universities (medium programs),225399,29.693819,-95.515954,Houston,https://www.hbu.edu/,225399,Houston Baptist University,10.0,85.0,82.0,86.0,11.0,9.0,71.0,16.0,31.0,580.0,570.0,TX,2
225414,University of Houston-Clear Lake,Southwest AZ NM OK TX,"Public, 4-year or above",Public,No,No,Suburb: Large,Master's Colleges and Universities (larger programs),225414,29.582523,-95.098129,Houston,www.uhcl.edu/,225414,University of Houston-Clear Lake,20.0,91.0,92.0,91.0,22.0,19.0,77.0,17.0,29.0,560.0,560.0,TX,1
225511,University of Houston,Southwest AZ NM OK TX,"Public, 4-year or above",Public,No,No,City: Large,Research Universities (very high research activity),225511,29.720393,-95.343537,Houston,www.uh.edu/,225511,University of Houston,28.0,66.0,64.0,67.0,30.0,27.0,86.0,23.0,38.0,610.0,640.0,TX,1
225627,University of the Incarnate Word,Southwest AZ NM OK TX,"Private not-for-profit, 4-year or above",Private not-for-profit,No,No,City: Large,Master's Colleges and Universities (larger programs),225627,29.46708,-98.46583,San Antonio,www.uiw.edu/,225627,University of the Incarnate Word,11.0,94.0,92.0,95.0,12.0,11.0,75.0,12.0,38.0,530.0,530.0,TX,2
226091,Lamar University,Southwest AZ NM OK TX,"Public, 4-year or above",Public,No,No,City: Midsize,Doctoral/Research Universities,226091,30.042738,-94.072244,Beaumont,www.lamar.edu/,226091,Lamar University,29.0,88.0,85.0,90.0,34.0,26.0,69.0,19.0,17.0,530.0,540.0,TX,1
226152,Texas A & M International University,Southwest AZ NM OK TX,"Public, 4-year or above",Public,No,No,City: Midsize,Master's Colleges and Universities (larger programs),226152,27.571172,-99.436043,Laredo,www.tamiu.edu/,226152,Texas A & M International University,40.0,54.0,54.0,55.0,43.0,37.0,74.0,24.0,26.0,500.0,520.0,TX,1
226471,University of Mary Hardin-Baylor,Southwest AZ NM OK TX,"Private not-for-profit, 4-year or above",Private not-for-profit,No,No,Suburb: Small,Master's Colleges and Universities (smaller programs),226471,31.066793,-97.463471,Belton,https://go.umhb.edu/,226471,University of Mary Hardin-Baylor,6.0,99.0,99.0,99.0,8.0,5.0,69.0,17.0,39.0,560.0,570.0,TX,2
226833,Midwestern State University,Southwest AZ NM OK TX,"Public, 4-year or above",Public,No,No,City: Midsize,Master's Colleges and Universities (medium programs),226833,33.874809,-98.519386,Wichita Falls,www.msutexas.edu/,226833,Midwestern State University,21.0,95.0,93.0,95.0,23.0,19.0,66.0,17.0,24.0,540.0,550.0,TX,1
227216,University of North Texas,Southwest AZ NM OK TX,"Public, 4-year or above",Public,No,No,City: Midsize,Research Universities (high research activity),227216,33.211178,-97.148422,Denton,www.unt.edu/,227216,University of North Texas,27.0,81.0,79.0,83.0,29.0,26.0,85.0,26.0,40.0,600.0,600.0,TX,1
227331,Our Lady of the Lake University,Southwest AZ NM OK TX,"Private not-for-profit, 4-year or above",Private not-for-profit,No,No,City: Large,Doctoral/Research Universities,227331,29.426194,-98.54365,San Antonio,https://www.ollusa.edu/,227331,Our Lady of the Lake University,10.0,66.0,67.0,65.0,12.0,9.0,65.0,11.0,23.0,500.0,510.0,TX,2
227368,The University of Texas-Pan American,Southwest AZ NM OK TX,"Public, 4-year or above",Public,No,No,City: Small,Master's Colleges and Universities (larger programs),227368,26.306759,-98.173567,Edinburg,www.utrgv.edu/,227368,The University of Texas Rio Grande Valley,40.0,94.0,93.0,95.0,41.0,39.0,81.0,21.0,25.0,520.0,530.0,TX,1
227526,Prairie View A & M University,Southwest AZ NM OK TX,"Public, 4-year or above",Public,Yes,No,Town: Distant,Master's Colleges and Universities (larger programs),227526,30.092425,-95.989475,Prairie View,www.pvamu.edu/,227526,Prairie View A & M University,35.0,77.0,67.0,81.0,34.0,35.0,74.0,17.0,15.0,460.0,470.0,TX,1
227757,Rice University,Southwest AZ NM OK TX,"Private not-for-profit, 4-year or above",Private not-for-profit,No,No,City: Large,Research Universities (very high research activity),227757,29.717897,-95.402035,Houston,www.rice.edu/,227757,Rice University,44.0,9.0,9.0,10.0,44.0,44.0,97.0,6.0,87.0,760.0,800.0,TX,2
227845,Saint Edward's University,Southwest AZ NM OK TX,"Private not-for-profit, 4-year or above",Private not-for-profit,No,No,City: Large,Master's Colleges and Universities (larger programs),227845,30.229618,-97.754998,Austin,https://www.stedwards.edu/,227845,Saint Edward's University,13.0,92.0,91.0,93.0,15.0,13.0,72.0,14.0,55.0,620.0,600.0,TX,2
227863,University of St Thomas,Southwest AZ NM OK TX,"Private not-for-profit, 4-year or above",Private not-for-profit,No,No,City: Large,Master's Colleges and Universities (larger programs),227863,29.736438,-95.393102,Houston,https://www.stthom.edu/,227863,University of St Thomas,39.0,98.0,97.0,99.0,42.0,38.0,83.0,14.0,35.0,600.0,610.0,TX,2
227881,Sam Houston State University,Southwest AZ NM OK TX,"Public, 4-year or above",Public,No,No,Town: Distant,Doctoral/Research Universities,227881,30.714738,-95.546205,Huntsville,www.shsu.edu/,227881,Sam Houston State University,26.0,97.0,95.0,97.0,27.0,26.0,79.0,21.0,36.0,550.0,540.0,TX,1
228149,St Mary's University,Southwest AZ NM OK TX,"Private not-for-profit, 4-year or above",Private not-for-profit,No,No,City: Large,Master's Colleges and Universities (larger programs),228149,29.453244,-98.562778,San Antonio,www.stmarytx.edu/,228149,St. Mary's University,16.0,88.0,86.0,90.0,16.0,16.0,74.0,12.0,47.0,560.0,570.0,TX,2
228246,Southern Methodist University,Southwest AZ NM OK TX,"Private not-for-profit, 4-year or above",Private not-for-profit,No,No,Suburb: Large,Research Universities (high research activity),228246,32.843612,-96.783365,Dallas,https://www.smu.edu/,228246,Southern Methodist University,19.0,53.0,50.0,55.0,20.0,18.0,90.0,11.0,75.0,690.0,720.0,TX,2
228325,Southwestern Assemblies of God University,Southwest AZ NM OK TX,"Private not-for-profit, 4-year or above",Private not-for-profit,No,No,Suburb: Large,Master's Colleges and Universities (smaller programs),228325,32.40443,-96.853492,Waxahachie,www.sagu.edu/,228325,Southwestern Assemblies of God University,50.0,85.0,81.0,90.0,47.0,53.0,72.0,18.0,40.0,540.0,510.0,TX,2
228431,Stephen F Austin State University,Southwest AZ NM OK TX,"Public, 4-year or above",Public,No,No,Rural: Fringe,Master's Colleges and Universities (larger programs),228431,31.621056,-94.64908,Nacogdoches,www.sfasu.edu/,228431,Stephen F Austin State University,26.0,83.0,79.0,85.0,29.0,25.0,77.0,16.0,35.0,550.0,550.0,TX,1
228459,Texas State University,Southwest AZ NM OK TX,"Public, 4-year or above",Public,No,No,Suburb: Small,Master's Colleges and Universities (larger programs),228459,29.888885,-97.943029,San Marcos,www.txstate.edu/,228459,Texas State University,31.0,70.0,66.0,72.0,33.0,30.0,77.0,22.0,33.0,560.0,560.0,TX,1
228529,Tarleton State University,Southwest AZ NM OK TX,"Public, 4-year or above",Public,No,No,Town: Remote,Master's Colleges and Universities (larger programs),228529,32.214988,-98.214866,Stephenville,www.tarleton.edu/,228529,Tarleton State University,36.0,57.0,52.0,59.0,37.0,35.0,69.0,21.0,30.0,520.0,530.0,TX,1
228705,Texas A & M University-Kingsville,Southwest AZ NM OK TX,"Public, 4-year or above",Public,No,No,Town: Distant,Doctoral/Research Universities,228705,27.525168,-97.882387,Kingsville,https://www.tamuk.edu/,228705,Texas A & M University-Kingsville,20.0,93.0,91.0,95.0,24.0,18.0,72.0,17.0,24.0,510.0,540.0,TX,1
228723,Texas A & M University-College Station,Southwest AZ NM OK TX,"Public, 4-year or above",Public,No,No,City: Small,Research Universities (very high research activity),228723,30.618726,-96.336475,College Station,https://www.tamu.edu/,228723,Texas A & M University-College Station,44.0,64.0,66.0,63.0,45.0,42.0,94.0,19.0,59.0,640.0,670.0,TX,1
228769,The University of Texas at Arlington,Southwest AZ NM OK TX,"Public, 4-year or above",Public,No,No,City: Large,Research Universities (high research activity),228769,32.729718,-97.11296,Arlington,https://www.uta.edu/,228769,The University of Texas at Arlington,32.0,93.0,92.0,94.0,33.0,31.0,76.0,24.0,28.0,540.0,610.0,TX,1
228778,The University of Texas at Austin,Southwest AZ NM OK TX,"Public, 4-year or above",Public,No,No,City: Large,Research Universities (very high research activity),228778,30.282825,-97.738273,Austin,https://www.utexas.edu/,228778,The University of Texas at Austin,48.0,29.0,25.0,32.0,48.0,48.0,97.0,17.0,70.0,690.0,720.0,TX,1
228787,The University of Texas at Dallas,Southwest AZ NM OK TX,"Public, 4-year or above",Public,No,No,City: Midsize,Research Universities (high research activity),228787,32.984673,-96.749702,Richardson,www.utdallas.edu/,228787,The University of Texas at Dallas,25.0,87.0,85.0,89.0,27.0,22.0,90.0,25.0,52.0,670.0,700.0,TX,1
228796,The University of Texas at El Paso,Southwest AZ NM OK TX,"Public, 4-year or above",Public,No,No,City: Large,Research Universities (high research activity),228796,31.77015,-106.504098,El Paso,www.utep.edu/,228796,The University of Texas at El Paso,30.0,100.0,100.0,100.0,31.0,30.0,77.0,21.0,18.0,510.0,540.0,TX,1
228802,The University of Texas at Tyler,Southwest AZ NM OK TX,"Public, 4-year or above",Public,No,No,City: Small,Master's Colleges and Universities (larger programs),228802,32.315772,-95.254337,Tyler,https://www.uttyler.edu/,228802,The University of Texas at Tyler,35.0,94.0,92.0,95.0,34.0,35.0,64.0,19.0,27.0,570.0,590.0,TX,1
228875,Texas Christian University,Southwest AZ NM OK TX,"Private not-for-profit, 4-year or above",Private not-for-profit,No,No,City: Large,Doctoral/Research Universities,228875,32.70961,-97.364758,Fort Worth,www.tcu.edu/,228875,Texas Christian University,24.0,54.0,49.0,56.0,25.0,24.0,92.0,13.0,71.0,630.0,650.0,TX,2
229027,The University of Texas at San Antonio,Southwest AZ NM OK TX,"Public, 4-year or above",Public,No,No,City: Large,Research Universities (high research activity),229027,29.583709,-98.620657,San Antonio,www.utsa.edu/,229027,The University of Texas at San Antonio,28.0,90.0,87.0,93.0,32.0,26.0,78.0,27.0,29.0,570.0,580.0,TX,1
229063,Texas Southern University,Southwest AZ NM OK TX,"Public, 4-year or above",Public,Yes,No,City: Large,Doctoral/Research Universities,229063,29.721046,-95.361113,Houston,www.tsu.edu/,229063,Texas Southern University,19.0,63.0,59.0,65.0,20.0,19.0,51.0,14.0,8.0,440.0,460.0,TX,1
229115,Texas Tech University,Southwest AZ NM OK TX,"Public, 4-year or above",Public,No,No,City: Midsize,Research Universities (high research activity),229115,33.583448,-101.874783,Lubbock,www.ttu.edu/,229115,Texas Tech University,29.0,68.0,66.0,70.0,30.0,28.0,87.0,19.0,38.0,600.0,620.0,TX,1
229160,Texas Wesleyan University,Southwest AZ NM OK TX,"Private not-for-profit, 4-year or above",Private not-for-profit,No,No,City: Large,Master's Colleges and Universities (larger programs),229160,32.732962,-97.279613,Fort Worth,www.txwes.edu/,229160,Texas Wesleyan University,16.0,58.0,58.0,57.0,20.0,14.0,64.0,12.0,17.0,550.0,540.0,TX,2
229179,Texas Woman's University,Southwest AZ NM OK TX,"Public, 4-year or above",Public,No,No,City: Midsize,Doctoral/Research Universities,229179,33.226211,-97.127842,Denton,www.twu.edu/,229179,Texas Woman's University,25.0,96.0,94.0,96.0,17.0,26.0,77.0,19.0,23.0,520.0,530.0,TX,1
229780,Wayland Baptist University,Southwest AZ NM OK TX,"Private not-for-profit, 4-year or above",Private not-for-profit,No,No,Town: Remote,Master's Colleges and Universities (larger programs),229780,34.187677,-101.730042,Plainview,www.wbu.edu/,229780,Wayland Baptist University,38.0,81.0,81.0,80.0,42.0,35.0,38.0,9.0,14.0,490.0,515.0,TX,2
229814,West Texas A & M University,Southwest AZ NM OK TX,"Public, 4-year or above",Public,No,No,Town: Fringe,Master's Colleges and Universities (larger programs),229814,34.982789,-101.914736,Canyon,https://www.wtamu.edu/,229814,West Texas A & M University,24.0,97.0,96.0,98.0,26.0,23.0,82.0,15.0,29.0,540.0,543.0,TX,1
230038,Brigham Young University-Provo,Rocky Mountains CO ID MT UT WY,"Private not-for-profit, 4-year or above",Private not-for-profit,No,No,City: Midsize,Research Universities (high research activity),230038,40.250851,-111.649281,Provo,www.byu.edu/,230038,Brigham Young University,79.0,59.0,54.0,64.0,82.0,77.0,92.0,21.0,25.0,680.0,680.0,UT,2
230728,Utah State University,Rocky Mountains CO ID MT UT WY,"Public, 4-year or above",Public,No,No,City: Small,Research Universities (high research activity),230728,41.740748,-111.81391,Logan,www.usu.edu/,230728,Utah State University,29.0,93.0,92.0,93.0,26.0,33.0,73.0,19.0,29.0,600.0,610.0,UT,1
230764,University of Utah,Rocky Mountains CO ID MT UT WY,"Public, 4-year or above",Public,No,No,City: Midsize,Research Universities (very high research activity),230764,40.762484,-111.846044,Salt Lake City,www.utah.edu/,230764,University of Utah,31.0,95.0,94.0,96.0,32.0,30.0,89.0,17.0,36.0,640.0,660.0,UT,1
230959,Middlebury College,New England CT ME MA NH RI VT,"Private not-for-profit, 4-year or above",Private not-for-profit,No,No,Town: Distant,Baccalaureate Colleges--Arts & Sciences,230959,44.009117,-73.176068,Middlebury,https://www.middlebury.edu/,230959,Middlebury College,42.0,13.0,15.0,12.0,42.0,43.0,89.0,8.0,84.0,750.0,750.0,VT,2
231068,SIT Graduate Institute,New England CT ME MA NH RI VT,"Private not-for-profit, 4-year or above",Private not-for-profit,No,No,Rural: Fringe,Master's Colleges and Universities (larger programs),231068,42.891035,-72.56738,Brattleboro,https://www.sit.edu/,231068,SIT Graduate Institute,,,,,,,,4.0,,,,VT,2
231174,University of Vermont,New England CT ME MA NH RI VT,"Public, 4-year or above",Public,No,No,City: Small,Research Universities (high research activity),231174,44.477325,-73.196646,Burlington,www.uvm.edu/,231174,University of Vermont,18.0,64.0,56.0,68.0,19.0,18.0,85.0,16.0,70.0,650.0,640.0,VT,1
231624,College of William and Mary,Southeast AL AR FL GA KY LA MS NC SC TN VA WV,"Public, 4-year or above",Public,No,No,Suburb: Small,Research Universities (high research activity),231624,37.269489,-76.708214,Williamsburg,https://www.wm.edu/,231624,William & Mary,26.0,37.0,42.0,33.0,26.0,27.0,93.0,11.0,86.0,730.0,730.0,VA,1
231651,Regent University,Southeast AL AR FL GA KY LA MS NC SC TN VA WV,"Private not-for-profit, 4-year or above",Private not-for-profit,No,No,City: Large,Doctoral/Research Universities,231651,36.801173,-76.194627,Virginia Beach,https://www.regent.edu/,231651,Regent University,21.0,41.0,40.0,41.0,23.0,19.0,77.0,19.0,52.0,620.0,550.0,VA,2
232186,George Mason University,Southeast AL AR FL GA KY LA MS NC SC TN VA WV,"Public, 4-year or above",Public,No,No,Suburb: Large,Research Universities (high research activity),232186,38.829976,-77.307428,Fairfax,https://www2.gmu.edu/,232186,George Mason University,21.0,91.0,89.0,93.0,25.0,18.0,86.0,17.0,49.0,620.0,630.0,VA,1
232265,Hampton University,Southeast AL AR FL GA KY LA MS NC SC TN VA WV,"Private not-for-profit, 4-year or above",Private not-for-profit,Yes,No,City: Midsize,Master's Colleges and Universities (medium programs),232265,37.019944,-76.339161,Hampton,www.hamptonu.edu/,232265,Hampton University,6.0,80.0,76.0,82.0,6.0,6.0,72.0,15.0,40.0,540.0,550.0,VA,2
232423,James Madison University,Southeast AL AR FL GA KY LA MS NC SC TN VA WV,"Public, 4-year or above",Public,No,No,City: Small,Master's Colleges and Universities (larger programs),232423,38.436311,-78.870484,Harrisonburg,www.jmu.edu/,232423,James Madison University,26.0,86.0,82.0,89.0,31.0,23.0,89.0,17.0,65.0,610.0,610.0,VA,1
232557,Liberty University,Southeast AL AR FL GA KY LA MS NC SC TN VA WV,"Private not-for-profit, 4-year or above",Private not-for-profit,No,No,City: Small,Master's Colleges and Universities (larger programs),232557,37.350232,-79.18222,Lynchburg,www.liberty.edu/,232557,Liberty University,19.0,99.0,99.0,99.0,22.0,18.0,81.0,17.0,45.0,600.0,590.0,VA,2
232609,Lynchburg College,Southeast AL AR FL GA KY LA MS NC SC TN VA WV,"Private not-for-profit, 4-year or above",Private not-for-profit,No,No,City: Small,Master's Colleges and Universities (smaller programs),232609,37.399774,-79.181653,Lynchburg,www.lynchburg.edu/,232609,University of Lynchburg,11.0,97.0,96.0,97.0,11.0,11.0,78.0,10.0,58.0,570.0,550.0,VA,2
232706,Marymount University,Southeast AL AR FL GA KY LA MS NC SC TN VA WV,"Private not-for-profit, 4-year or above",Private not-for-profit,No,No,City: Midsize,Master's Colleges and Universities (larger programs),232706,38.905562,-77.128785,Arlington,https://www.marymount.edu/,232706,Marymount University,17.0,84.0,83.0,84.0,20.0,15.0,71.0,14.0,50.0,560.0,550.0,VA,2
232937,Norfolk State University,Southeast AL AR FL GA KY LA MS NC SC TN VA WV,"Public, 4-year or above",Public,Yes,No,City: Midsize,Master's Colleges and Universities (larger programs),232937,36.848429,-76.261375,Norfolk,www.nsu.edu/,232937,Norfolk State University,19.0,89.0,83.0,91.0,21.0,18.0,68.0,16.0,16.0,460.0,450.0,VA,1
232982,Old Dominion University,Southeast AL AR FL GA KY LA MS NC SC TN VA WV,"Public, 4-year or above",Public,No,No,City: Midsize,Research Universities (high research activity),232982,36.886418,-76.30666,Norfolk,www.odu.edu/,232982,Old Dominion University,22.0,96.0,95.0,97.0,23.0,21.0,76.0,18.0,25.0,570.0,570.0,VA,1
233277,Radford University,Southeast AL AR FL GA KY LA MS NC SC TN VA WV,"Public, 4-year or above",Public,No,No,City: Small,Master's Colleges and Universities (larger programs),233277,37.136907,-80.549728,Radford,https://www.radford.edu/,233277,Radford University,12.0,95.0,94.0,96.0,14.0,11.0,75.0,14.0,39.0,,,VA,1
233541,Shenandoah University,Southeast AL AR FL GA KY LA MS NC SC TN VA WV,"Private not-for-profit, 4-year or above",Private not-for-profit,No,No,City: Small,Master's Colleges and Universities (larger programs),233541,39.167355,-78.157433,Winchester,www.su.edu/,233541,Shenandoah University,26.0,74.0,84.0,69.0,27.0,26.0,82.0,10.0,51.0,560.0,563.0,VA,2
233921,Virginia Polytechnic Institute and State University,Southeast AL AR FL GA KY LA MS NC SC TN VA WV,"Public, 4-year or above",Public,No,No,City: Small,Research Universities (very high research activity),233921,37.229012,-80.423675,Blacksburg,www.vt.edu/,233921,Virginia Polytechnic Institute and State University,28.0,56.0,53.0,60.0,30.0,27.0,93.0,14.0,68.0,640.0,680.0,VA,1
234030,Virginia Commonwealth University,Southeast AL AR FL GA KY LA MS NC SC TN VA WV,"Public, 4-year or above",Public,No,No,City: Midsize,Research Universities (very high research activity),234030,37.54962,-77.452697,Richmond,https://www.vcu.edu/,234030,Virginia Commonwealth University,25.0,93.0,90.0,94.0,24.0,26.0,83.0,18.0,48.0,610.0,590.0,VA,1
234076,University of Virginia-Main Campus,Southeast AL AR FL GA KY LA MS NC SC TN VA WV,"Public, 4-year or above",Public,No,No,City: Small,Research Universities (very high research activity),234076,38.035665,-78.503428,Charlottesville,https://www.virginia.edu/,234076,University of Virginia-Main Campus,39.0,21.0,20.0,21.0,38.0,40.0,97.0,15.0,89.0,720.0,740.0,VA,1
234155,Virginia State University,Southeast AL AR FL GA KY LA MS NC SC TN VA WV,"Public, 4-year or above",Public,Yes,No,Suburb: Large,Master's Colleges and Universities (smaller programs),234155,37.234692,-77.419026,Petersburg,www.vsu.edu/,234155,Virginia State University,10.0,96.0,96.0,96.0,9.0,10.0,62.0,12.0,31.0,480.0,460.0,VA,1
234915,City University of Seattle,Far West AK CA HI NV OR WA,"Private not-for-profit, 4-year or above",Private not-for-profit,No,No,City: Large,Master's Colleges and Universities (larger programs),234915,47.617381,-122.344594,Seattle,www.cityu.edu/,234915,City University of Seattle,,,,,,,,6.0,,,,WA,2
235316,Gonzaga University,Far West AK CA HI NV OR WA,"Private not-for-profit, 4-year or above",Private not-for-profit,No,No,City: Midsize,Master's Colleges and Universities (larger programs),235316,47.666531,-117.400625,Spokane,https://www.gonzaga.edu/,235316,Gonzaga University,19.0,76.0,75.0,77.0,19.0,20.0,92.0,11.0,75.0,640.0,650.0,WA,2
236133,Northwest University,Far West AK CA HI NV OR WA,"Private not-for-profit, 4-year or above",Private not-for-profit,No,No,Suburb: Large,Baccalaureate Colleges--Diverse Fields,236133,47.657945,-122.192763,Kirkland,www.northwestu.edu/,236133,Northwest University,36.0,96.0,95.0,97.0,41.0,34.0,83.0,10.0,53.0,560.0,550.0,WA,2
236452,Saint Martin's University,Far West AK CA HI NV OR WA,"Private not-for-profit, 4-year or above",Private not-for-profit,No,No,Suburb: Midsize,Master's Colleges and Universities (smaller programs),236452,47.041068,-122.816354,Lacey,https://www.stmartin.edu/,236452,Saint Martin's University,18.0,72.0,72.0,72.0,17.0,19.0,76.0,12.0,51.0,580.0,570.0,WA,2
236577,Seattle Pacific University,Far West AK CA HI NV OR WA,"Private not-for-profit, 4-year or above",Private not-for-profit,No,No,City: Large,Master's Colleges and Universities (larger programs),236577,47.650214,-122.361667,Seattle,https://spu.edu/,236577,Seattle Pacific University,14.0,92.0,91.0,92.0,16.0,14.0,77.0,13.0,56.0,630.0,620.0,WA,2
236595,Seattle University,Far West AK CA HI NV OR WA,"Private not-for-profit, 4-year or above",Private not-for-profit,No,No,City: Large,Master's Colleges and Universities (larger programs),236595,47.608859,-122.318851,Seattle,www.seattleu.edu/,236595,Seattle University,14.0,82.0,81.0,83.0,14.0,14.0,82.0,10.0,65.0,650.0,630.0,WA,2
236939,Washington State University,Far West AK CA HI NV OR WA,"Public, 4-year or above",Public,No,No,Town: Distant,Research Universities (very high research activity),236939,46.730448,-117.158168,Pullman,https://wsu.edu/,236939,Washington State University,26.0,86.0,84.0,87.0,29.0,24.0,81.0,16.0,37.0,570.0,580.0,WA,1
236948,University of Washington-Seattle Campus,Far West AK CA HI NV OR WA,"Public, 4-year or above",Public,No,No,City: Large,Research Universities (very high research activity),236948,47.65538,-122.30514,Seattle,www.washington.edu/,236948,University of Washington-Seattle Campus,28.0,53.0,46.0,59.0,30.0,27.0,93.0,20.0,71.0,660.0,710.0,WA,1
237011,Western Washington University,Far West AK CA HI NV OR WA,"Public, 4-year or above",Public,No,No,City: Small,Master's Colleges and Universities (larger programs),237011,48.737812,-122.485734,Bellingham,wwu.edu/,237011,Western Washington University,28.0,96.0,96.0,96.0,31.0,27.0,79.0,18.0,43.0,620.0,600.0,WA,1
237525,Marshall University,Southeast AL AR FL GA KY LA MS NC SC TN VA WV,"Public, 4-year or above",Public,No,No,City: Small,Master's Colleges and Universities (larger programs),237525,38.422482,-82.428964,Huntington,https://www.marshall.edu/,237525,Marshall University,29.0,98.0,97.0,98.0,30.0,28.0,77.0,18.0,34.0,490.0,480.0,WV,1
238032,West Virginia University,Southeast AL AR FL GA KY LA MS NC SC TN VA WV,"Public, 4-year or above",Public,No,No,City: Small,Research Universities (high research activity),238032,39.634371,-79.954391,Morgantown,www.wvu.edu/,238032,West Virginia University,28.0,90.0,88.0,91.0,30.0,27.0,82.0,21.0,44.0,560.0,580.0,WV,1
238430,Cardinal Stritch University,Great Lakes IL IN MI OH WI,"Private not-for-profit, 4-year or above",Private not-for-profit,No,No,Suburb: Large,Doctoral/Research Universities,238430,43.139752,-87.909045,Milwaukee,https://www.stritch.edu/,238430,Cardinal Stritch University,21.0,89.0,84.0,91.0,24.0,20.0,70.0,9.0,47.0,543.0,570.0,WI,2
238616,Concordia University-Wisconsin,Great Lakes IL IN MI OH WI,"Private not-for-profit, 4-year or above",Private not-for-profit,No,No,Suburb: Large,Master's Colleges and Universities (larger programs),238616,43.253387,-87.91552,Mequon,https://www.cuw.edu/,238616,Concordia University-Wisconsin,21.0,69.0,62.0,76.0,20.0,23.0,81.0,11.0,41.0,568.0,588.0,WI,2
238661,Edgewood College,Great Lakes IL IN MI OH WI,"Private not-for-profit, 4-year or above",Private not-for-profit,No,No,City: Midsize,Doctoral/Research Universities,238661,43.057059,-89.422884,Madison,www.edgewood.edu/,238661,Edgewood College,22.0,95.0,93.0,97.0,25.0,21.0,78.0,12.0,42.0,598.0,560.0,WI,2
239105,Marquette University,Great Lakes IL IN MI OH WI,"Private not-for-profit, 4-year or above",Private not-for-profit,No,No,City: Large,Doctoral/Research Universities,239105,43.03903,-87.927961,Milwaukee,www.marquette.edu/,239105,Marquette University,12.0,86.0,85.0,87.0,12.0,12.0,88.0,13.0,64.0,640.0,660.0,WI,2
239390,Mount Mary University,Great Lakes IL IN MI OH WI,"Private not-for-profit, 4-year or above",Private not-for-profit,No,No,City: Large,Master's Colleges and Universities (smaller programs),239390,43.072507,-88.030732,Milwaukee,www.mtmary.edu/,239390,Mount Mary University,26.0,62.0,,62.0,,26.0,72.0,10.0,39.0,453.0,425.0,WI,2
240444,University of Wisconsin-Madison,Great Lakes IL IN MI OH WI,"Public, 4-year or above",Public,No,No,City: Midsize,Research Universities (very high research activity),240444,43.075409,-89.404098,Madison,www.wisc.edu/,240444,University of Wisconsin-Madison,26.0,60.0,56.0,64.0,26.0,26.0,95.0,16.0,69.0,660.0,750.0,WI,1
240453,University of Wisconsin-Milwaukee,Great Lakes IL IN MI OH WI,"Public, 4-year or above",Public,No,No,City: Large,Research Universities (high research activity),240453,43.076848,-87.880488,Milwaukee,uwm.edu/,240453,University of Wisconsin-Milwaukee,25.0,89.0,88.0,90.0,29.0,23.0,75.0,18.0,23.0,,,WI,1
240727,University of Wyoming,Rocky Mountains CO ID MT UT WY,"Public, 4-year or above",Public,No,No,Town: Remote,Research Universities (high research activity),240727,41.311773,-105.57931,Laramie,www.uwyo.edu/,240727,University of Wyoming,27.0,97.0,96.0,98.0,27.0,27.0,80.0,14.0,37.0,615.0,620.0,WY,1
243744,Stanford University,Far West AK CA HI NV OR WA,"Private not-for-profit, 4-year or above",Private not-for-profit,No,No,Suburb: Large,Research Universities (very high research activity),243744,37.429434,-122.167359,Stanford,www.stanford.edu/,243744,Stanford University,80.0,4.0,4.0,4.0,81.0,80.0,86.0,4.0,77.0,780.0,800.0,CA,2
243780,Purdue University-Main Campus,Great Lakes IL IN MI OH WI,"Public, 4-year or above",Public,No,No,Suburb: Midsize,Research Universities (very high research activity),243780,40.428206,-86.914435,West Lafayette,https://www.purdue.edu/,243780,Purdue University-Main Campus,25.0,69.0,63.0,78.0,26.0,24.0,93.0,13.0,60.0,630.0,700.0,IN,1
245865,Antioch University-New England,New England CT ME MA NH RI VT,"Private not-for-profit, 4-year or above",Private not-for-profit,No,No,Town: Distant,Master's Colleges and Universities (larger programs),245865,42.932344,-72.293798,Keene,www.antiochne.edu/,245865,Antioch University-New England,,,,,,,,,,,,NH,2
245883,Antioch University-Seattle,Far West AK CA HI NV OR WA,"Private not-for-profit, 4-year or above",Private not-for-profit,No,No,City: Large,Master's Colleges and Universities (medium programs),245883,47.615916,-122.346318,Seattle,www.antiochseattle.edu/,245883,Antioch University-Seattle,,,,,,,,3.0,,,,WA,2
245892,Antioch University-Midwest,Great Lakes IL IN MI OH WI,"Private not-for-profit, 4-year or above",Private not-for-profit,No,No,Town: Fringe,Master's Colleges and Universities (medium programs),245892,39.80321,-83.908684,Yellow Springs,midwest.antioch.edu/,245892,Antioch University,,,,,,,,,,,,OH,2
262086,Brandman University,Far West AK CA HI NV OR WA,"Private not-for-profit, 4-year or above",Private not-for-profit,No,No,City: Midsize,Master's Colleges and Universities (larger programs),262086,33.656401,-117.769012,Irvine,www.umassglobal.edu/,262086,University of Massachusetts Global,49.0,93.0,93.0,93.0,41.0,55.0,,22.0,0.0,,,CA,2
433660,Florida Gulf Coast University,Southeast AL AR FL GA KY LA MS NC SC TN VA WV,"Public, 4-year or above",Public,No,No,Suburb: Large,Master's Colleges and Universities (larger programs),433660,26.463638,-81.7726,Fort Myers,www.fgcu.edu/,433660,Florida Gulf Coast University,24.0,89.0,88.0,90.0,27.0,23.0,81.0,22.0,36.0,570.0,570.0,FL,1
446640,Harrisburg University of Science and Technology,Mid East DE DC MD NJ NY PA,"Private not-for-profit, 4-year or above",Private not-for-profit,No,No,City: Small,Baccalaureate Colleges--Arts & Sciences,446640,40.26193,-76.880261,Harrisburg,www.harrisburgu.edu/,446640,Harrisburg University of Science and Technology,,,,,,,70.0,19.0,23.0,,,PA,2
449870,University of the West,Far West AK CA HI NV OR WA,"Private not-for-profit, 4-year or above",Private not-for-profit,No,No,Suburb: Large,Baccalaureate Colleges--Diverse Fields,449870,34.045985,-118.082964,Rosemead,www.uwest.edu/,449870,University of the West,,,,,,,75.0,5.0,0.0,,,CA,2
